address,city,name,state,type,x,y,zip,first_appearance,final_appearance,block_fips,tract_fips
215 Smith St.,Sitka,Baranof Island Brewing Co.,AK,MicroBrewery,-135.307776,57.050343,99835,2013,2015,022200001004001,02220000100
212 Smith St.,Sitka,Baranof Island Brewing Co.,AK,MicroBrewery,-135.3079453,57.0498254,99835,2011,2012,022200001004003,02220000100
108 White Fang Way,Haines,Haines Brewing Co.,AK,MicroBrewery,-135.47152384,59.2330687725,99827,2006,2015,021000001003015,02100000100
108 White Fang Way Dalton City,Haines,Haines Brewing Co.,AK,MicroBrewery,-136.070496,59.3680312,99827,2005,2005,021000001001116,02100000100
13605 E. Main St.,Talkeetna,Denali Brewing @ Twister Creek Restaurant,AK,BrewPub,-150.114123,62.323379,99676,2011,2015,021700001021027,02170000102
13605 Main St.,Talkeetna,Denali Brewing @ Twister Creek Restaurant,AK,BrewPub,-150.113977,62.323298,99676,2009,2010,021700001021027,02170000102
1562 Homer Spit Rd.,Homer,Homer Brewing Co.,AK,MicroBrewery,-151.499675,59.640245,99603,2005,2007,021220010002005,02122001000
1411 Lake Shore Dr.,Homer,Homer Brewing Co.,AK,MicroBrewery,-151.50625,59.639388,99603,2008,2015,021220010002011,02122001000
717 W. 3rd Ave. ,Anchorage,Sleeping Lady Brewery/Snow Goose Restaurant ,AK,BrewPub,-149.896528397,61.2194870326,99501,2006,2015,020200011001010,02020001100
717 West Third Avenue ,Anchorage,Sleeping Lady Brewery/Snow Goose Restaurant ,AK,BrewPub,-149.8958227,61.2196829,99501,2005,2005,020200011001006,02020001100
118 Center Ave.,Northport,Northern Ales,WA,MicroBrewery,-117.777931,48.917611,99157,2008,2010,530659501001117,53065950100
325 W. 3rd Ave.,Kettle Falls,Northern Ales,WA,MicroBrewery,-118.0602814,48.6106622,99141,2011,2015,530659501003004,53065950100
208 W. Pennsylvania Ave.,Roslyn,Roslyn Brewing,WA,MicroBrewery,-120.995644467,47.2219021884,98941,2006,2015,530379751003095,53037975100
208 Pennsylvania Ave.,Roslyn,Roslyn Brewing,WA,MicroBrewery,-120.9948483,47.2219623,98941,2005,2005,530379751003095,53037975100
240 SW First Street,Stevenson,Walking Man Brewing & Public House,WA,BrewPub,-121.8839413,45.692324,98648,2005,2005,530599503001034,53059950300
240 SW First St.,Stevenson,Walking Man Brewing & Public House,WA,BrewPub,-121.885042799,45.6922070648,98648,2006,2015,530599503001033,53059950300
103 35th Ave. SE,Puyallup,Ram Restaurant & Brewery,WA,BrewHouse,-122.292517974,47.1578977912,98374,2011,2015,530530712073011,53053071207
103 35th Ave.,Puyallup,Ram Restaurant & Brewery,WA,BrewPub,-122.292323,47.159888,98374,2005,2010,530530712073008,53053071207
18970 3rd Ave NE,Poulsbo,Valholl Brewing,WA,Brewery,-122.645267,47.735177,98370,2015,2015,530350905013006,53035090501
20186 Front St. NE,Poulsbo,Valholl Brewing,WA,MicroBrewery,-122.6505094,47.7459451,98370,2011,2014,530350905012002,53035090501
625 4th St. ,Mukilteo,Eagle Brewing Company & Riley's Pizza,WA,BrewPub,-122.304058471,47.9452892551,98275,2006,2007,530610413012038,53061041301
625 4th Street ,Mukilteo,Eagle Brewing Company & Riley's Pizza,WA,BrewPub,-122.303842,47.9454733,98275,2005,2005,530610413012038,53061041301
621 Front St. ,Mukilteo,Diamond Knot Brewery & Alehouse ,WA,BrewPub,-122.305021235,47.9485668794,98275,2006,2015,530610413013002,53061041301
621 Front Street ,Mukilteo,Diamond Knot Brewery & Alehouse ,WA,BrewPub,-122.304687,47.94845,98275,2005,2005,530610413013002,53061041301
2234 Main St.,Ferndale,Whatcom Brewery,WA,MicroBrewery,-122.60257267,48.8484230353,98248,2006,2006,530730105012015,53073010501
2234 Main Street,Ferndale,Whatcom Brewery,WA,MicroBrewery,-122.60322,48.848801,98248,2005,2005,530730105012015,53073010501
2238 James St.,Bellingam,Kulshan Brewing,WA,MicroBrewery,-122.464711,48.759613,98225,2013,2013,530730005012003,53073000501
2238 James St.,Bellingham,Kulshan Brewing,WA,MicroBrewery,-122.464711,48.759613,98225,2014,2015,530730005012003,53073000501
320 Commercial Ave.,Anacortes,Anacortes Brewery & Rockfish Grill,WA,BrewPub,-122.61270428,48.5197104035,98221,2006,2015,530579406001022,53057940600
320 Commercial Avenue,Anacortes,Anacortes Brewery & Rockfish Grill,WA,BrewPub,-122.61286,48.5193742,98221,2005,2005,530579406001022,53057940600
1201 1st Ave. S. ,Seattle,"Pyramid Alehouse, Brewery & Restaurant ",WA,BrewPub,-122.334309156,47.5913243716,98134,2006,2015,530330093002048,53033009300
1201 First Avenue South ,Seattle,"Pyramid Alehouse, Brewery & Restaurant ",WA,BrewPub,-122.3348888,47.592012,98134,2005,2005,530330093002048,53033009300
1221 E. Pike St. ,Seattle,Elysian Brewing Company ,WA,BrewPub,-122.316419009,47.6140829596,98122,2006,2015,530330075004008,53033007500
1221 East Pike Street ,Seattle,Elysian Brewing Company ,WA,BrewPub,-122.3159648,47.6139451,98122,2005,2005,530330075004008,53033007500
300 E. Pike St. ,Seattle,Six Arms Pub ,WA,BrewPub,-122.327435898,47.6142579623,98122,2006,2015,530330084003004,53033008400
300 E. Pike Street ,Seattle,Six Arms Pub ,WA,BrewPub,-122.3273066,47.6141055,98122,2005,2005,530330084003004,53033008400
1605 South 93rd Street ,Seattle,Baron Brewing,WA,MicroBrewery,-122.3119343,47.5196011,98108,2005,2005,530330264001029,53033026400
1605 S. 93rd St. ,Seattle,Baron Brewing,WA,MicroBrewery,-122.31218071,47.5186929471,98108,2006,2013,530330264001029,53033026400
1550 NW 49th St.,Seattle,Hilliard's Beer,WA,MicroBrewery,-122.377659,47.6646,98107,2013,2015,530330047002026,53033004700
1550 NW 49th St.,Ballard,Hilliard's Beer,WA,MicroBrewery,-122.377659,47.6646,98107,2012,2012,530330047002026,53033004700
4730 University Village Place NE ,Seattle,Ram Restaurant & Brewery,WA,BrewPub,-122.2993755,47.6618612,98105,2005,2005,530330043011014,53033004301
4730 University Village Plaza NE,Seattle,Ram Restaurant & Brewery,WA,BrewPub,-122.29978323,47.6634147757,98105,2006,2008,530330043011012,53033004301
2650 University Village,Seattle,Ram Restaurant & Brewery,WA,BrewHouse,-122.299387,47.663431,98105,2009,2015,530330043011012,53033004301
2106 North 55th Street ,Seattle,Elysian TangleTown Brewery ,WA,BrewPub,-122.3335032,47.6688073,98103,2005,2005,530330046002008,53033004600
3601 Fremont Ave. N. ,Seattle,Dad Watsons ,WA,BrewPub,-122.349824347,47.6514759118,98103,2006,2011,530330049002011,53033004900
3601 Fremont Avenue North ,Seattle,Dad Watsons ,WA,BrewPub,-122.350157,47.651635,98103,2005,2005,530330049003012,53033004900
2106 N. 55th St. ,Seattle,Elysian TangleTown Brewery ,WA,BrewPub,-122.333581671,47.6687650825,98103,2006,2015,530330046002008,53033004600
"600 Pine St., 4th Floor",Seattle,Gordon Biersch Brewery Restaurant ,WA,BrewPub,-122.33528516,47.6124499971,98101,2006,2015,530330082001002,53033008200
1415 1st Ave. ,Seattle,Pike Pub & Brewery ,WA,BrewPub,-122.339247378,47.6080905699,98101,2006,2015,530330081003003,53033008100
"600 Pine Street, 4th Floor",Seattle,Gordon Biersch Brewery Restaurant ,WA,BrewPub,-122.3354092,47.6125141,98101,2005,2005,530330082001002,53033008200
1415 1st Avenue ,Seattle,Pike Pub & Brewery ,WA,BrewPub,-122.3397797,47.6082134,98101,2005,2005,530330081003004,53033008100
1408 Lake Tapps Pkwy E.,Auburn,Rock Wood Fired Pizza & Spirits,WA,BrewPub,-122.2100316,47.2445899,98092,2005,2005,530530703161007,53053070316
1408 Lake Tapps Pkwy E.,Sumner,Rock Wood Fired Pizza & Spirits,WA,BrewPub,-122.213973999,47.2438498721,98092,2006,2006,530530703161007,53053070316
17825 NE 65th Street ,Redmond,Mac & Jack's Brewery,WA,MicroBrewery,-122.1025491,47.6637249,98052,2005,2005,530330323132043,53033032313
17825 NE 65th St. ,Redmond,Mac & Jack's Brewery,WA,MicroBrewery,-122.102559669,47.6636409497,98052,2006,2015,530330323132043,53033032313
4010 196th St. SW,Lynnwood,Rock Wood Fired Pizza & Spirits,WA,BrewPub,-122.287733911,47.8207578056,98036,2006,2006,530610514001004,53061051400
4010 196th Street SW,Lynnwood,Rock Wood Fired Pizza & Spirits,WA,BrewPub,-122.2876718,47.8205144,98036,2005,2005,530610514001004,53061051400
550 106th Avenue NE ,Bellevue,Rock Bottom Restaurant & Brewery ,WA,BrewPub,-122.197928,47.6154416,98004,2005,2005,530330238042003,53033023804
550 106th Ave. NE ,Bellevue,Rock Bottom Restaurant & Brewery ,WA,BrewPub,-122.198724095,47.6152338312,98004,2006,2015,530330238042003,53033023804
2141 SW 1st St.,Redmond,Cascade Lakes Brewing Co.,OR,MicroBrewery,-121.167691338,44.2556785767,97756,2009,2015,410170009001003,41017000900
2141 SW First St.,Redmond,Cascade Lakes Brewing Co.,OR,MicroBrewery,-121.1693943,44.2561055,97756,2005,2008,410170009001018,41017000900
384 SW Upper Terrace,Bend,Old Mill Brew Werks,OR,BrewHouse,-121.310773,44.046569,97702,2012,2014,410170015005078,41017001500
803 SW Industrial Way,Bend,Old Mill Brew Werks,OR,BrewPub,-121.318006,44.049954,97702,2015,2015,410170015005073,41017001500
118 E. 8th St.,Medford,Bricktowne Brewing Co.,OR,BrewPub,-122.872069,42.325385,97504,2012,2014,410290001002046,41029000100
44 S. Central Ave.,Medford,Bricktowne Brewing Co.,OR,BrewPub,-122.8719069,42.3256491,97501,2015,2015,410290001002047,41029000100
481 Industrial Drive,Roseburg,Hawks Brewing Co.,OR,MicroBrewery,-123.3777065,43.1520788,97470,2005,2005,410191500001051,41019150000
481 Industrial Dr.,Roseburg,Hawks Brewing Co.,OR,MicroBrewery,-123.377486753,43.1519273124,97470,2006,2007,410191500001051,41019150000
2037 Sherman Ave.,North Bend,Roger's Zoo & Pizzeratorium,OR,BrewPub,-124.223966384,43.4061825157,97459,2006,2011,410110003001009,41011000300
2037 Sherman Avenue,North Bend,Roger's Zoo & Pizzeratorium,OR,BrewPub,-124.2240186,43.4062273,97459,2005,2005,410110003001009,41011000300
16279 Highway 101 South,Brookings-Harbor,Wild River Pizza,OR,BrewHouse,-124.2348,42.1311,97415,2008,2013,410159503012044,41015950301
16279 Highway 101 South,Brookings,Wild River Pizza,OR,BrewHouse,-124.2348,42.1311,97415,2014,2015,410159503012044,41015950301
2320 OSU Drive ,Newport,Brewer's on the Bay,OR,BrewPub,-124.0524032,44.6202579,97365,2005,2005,410419512002000,41041951200
2320 OSU Dr. ,Newport,Brewer's on the Bay,OR,BrewPub,-124.04745918,44.6225841915,97365,2006,2015,410419512002001,41041951200
341 SW 2nd,Corvallis,Oregon Trail Brewery,OR,MicroBrewery,-123.26097,44.5612532,97339,2005,2005,410030106001042,41003010600
341 SW 2nd St.,Corvallis,Oregon Trail Brewery,OR,MicroBrewery,-123.261202972,44.5616438722,97339,2006,2015,410030106001077,41003010600
836 N. Russell St. ,Portland,White Eagle Saloon,OR,BrewPub,-122.674978725,45.540702964,97227,2006,2015,410510023031011,41051002303
836 N. Russell Street ,Portland,White Eagle Saloon,OR,BrewPub,-122.6754525,45.540756,97227,2005,2005,410510023031011,41051002303
4495 SW Scholls Ferry Rd. ,Portland,Raleigh Hills Pub ,OR,BrewPub,-122.747230344,45.4880173393,97225,2006,2015,410670303002006,41067030300
4495 SW Scholls Ferry Road ,Portland,Raleigh Hills Pub ,OR,BrewPub,-122.7475,45.487402,97225,2005,2005,410670303002006,41067030300
12105 N. Center Avenue ,Portland,BJ's Restaurant and Brewery,OR,BrewPub,-122.6802985,45.6105268,97217,2005,2005,410510072011044,41051007201
12105 N. Center Ave. ,Portland,BJ's Restaurant and Brewery,OR,BrewPub,-122.679899328,45.6131237912,97217,2006,2015,410510072011043,41051007201
915 SE Hawthorne Blvd. ,Portland,Lucky Labrador Brewpub,OR,BrewPub,-122.656086797,45.5122594295,97214,2006,2015,410510011011184,41051001101
915 SE Hawthorne Boulevard ,Portland,Lucky Labrador Brewpub,OR,BrewPub,-122.6562754,45.5124139,97214,2005,2005,410510011011184,41051001101
2705 SE Ankeny St.,Portland,Coalition Brewing Co.,OR,Brewery,-122.638049,45.522376,97214,2015,2015,410510020004007,41051002000
2724 SE Ankeny St.,Portland,Coalition Brewing Co.,OR,BrewPub,-122.637976,45.521998,97214,2011,2014,410510020004016,41051002000
4765 NE Fremont St.,Portland,Alameda Brewhouse,OR,BrewPub,-122.613794339,45.5484734835,97213,2012,2015,410510075002012,41051007500
4765 NE Fremont ,Portland,Alameda Brewhouse,OR,BrewPub,-122.613645,45.5484823,97213,2005,2011,410510075002012,41051007500
1728 NE 40th Avenue ,Portland,Laurelwood Public House & Brewery ,OR,BrewPub,-122.6217602,45.5357234,97212,2005,2005,410510027021047,41051002702
1728 NE 40th Ave. ,Portland,Laurelwood Public House & Brewery ,OR,BrewPub,-122.621414203,45.5354350801,97212,2006,2015,410510027021046,41051002702
1616 NW 23rd  Ave. ,Portland,New Old Lompoc Pub & Brewery ,OR,BrewPub,-122.698289931,45.5341723695,97210,2006,2012,410510049001005,41051004900
1616 NW 23rd  Avenue ,Portland,New Old Lompoc Pub & Brewery ,OR,BrewPub,-122.698466,45.534297,97210,2005,2005,410510049001005,41051004900
1624 NW Glisan St.,Portland,Mission Theater & Pub,OR,BrewHouse,-122.687278718,45.5261052318,97209,2010,2015,410510050001112,41051005000
1313 NW Marshall St. ,Portland,BridgePort Brewpub,OR,BrewPub,-122.684317163,45.5308410743,97209,2006,2015,410510050001065,41051005000
1624 NW Glisan,Portland,Mission Theater & Pub,OR,BrewPub,-122.688113,45.526201,97209,2005,2009,410510050001111,41051005000
432 NW 21st St. ,Portland,Blue Moon Tavern & Grill ,OR,BrewPub,-122.693901168,45.5257090009,97209,2006,2015,410510048003003,41051004800
1313 NW Marshall Street ,Portland,BridgePort Brewpub,OR,BrewPub,-122.6852592,45.5309456,97209,2005,2005,410510050001064,41051005000
432 NW 21st Street ,Portland,Blue Moon Tavern & Grill ,OR,BrewPub,-122.6941044,45.526196,97209,2005,2005,410510048003003,41051004800
711 SW Ankeny Street ,Portland,Tugboat Brewing Company ,OR,BrewPub,-122.6779211,45.5225948,97205,2005,2005,410510106001016,41051010600
711 SW Ankeny St. ,Portland,Tugboat Brewing Company ,OR,BrewPub,-122.677498819,45.5226035012,97205,2006,2015,410510106001002,41051010600
206 SW Morrison St.,Portland,Rock Bottom Restaurant & Brewery ,OR,BrewPub,-122.67473,45.518023,97204,2012,2015,410510106003051,41051010600
210 SW Morrison St.,Portland,Rock Bottom Restaurant & Brewery ,OR,BrewPub,-122.6747299,45.5178108,97204,2005,2011,410510106003051,41051010600
4509 SE 23rd Ave. ,Portland,Hair of the Dog Brewing Company ,OR,MicroBrewery,-122.642655373,45.4899904985,97202,2006,2011,410510003012033,41051000301
6410 SE Milwaukie Avenue,Portland,Philadelphia's Steaks & Hoagies,OR,BrewPub,-122.6488352,45.4762533,97202,2005,2005,410510002002023,41051000200
6410 SE Milwaukie Ave.,Portland,Philadelphia's Steaks & Hoagies,OR,BrewPub,-122.648680492,45.4765994314,97202,2006,2015,410510002002023,41051000200
4509 SE 23rd Avenue ,Portland,Hair of the Dog Brewing Company ,OR,MicroBrewery,-122.6425292,45.4900834,97202,2005,2005,410510003012033,41051000301
307 SW Montgomery St. ,Portland,Full Sail at Riverplace ,OR,BrewPub,-122.672922324,45.5093829084,97201,2006,2015,410510057003001,41051005700
307 SW Montgomery Street ,Portland,Full Sail at Riverplace ,OR,BrewPub,-122.6737808,45.509638,97201,2005,2005,410510057003007,41051005700
1909 Second St.,Tillamook,De Garde Brewing,OR,Brewery,-123.844458,45.457049,97141,2015,2015,410579605001098,41057960500
1014 Stillwell Ave.,Tillamook,De Garde Brewing,OR,MicroBrewery,-123.84607,45.450975,97141,2014,2014,410579605003011,41057960500
980 NE. 4th St.,McMinnville,Golden Valley Brewery,OR,BrewPub,-123.188851583,45.2105629094,97128,2006,2015,410710308012089,41071030801
980 E. 4th,McMinnville,Golden Valley Brewery,OR,BrewPub,-123.1890153,45.2102673,97128,2005,2005,410710308012089,41071030801
10000 NW Old Cornelius Pass Rd. ,Hillsboro,Rock Creek Tavern ,OR,BrewPub,-122.873096017,45.5924231471,97124,2006,2015,410670315092004,41067031509
4045 NW Cornelius Pass Rd. ,Hillsboro,Cornelius Pass Roadhouse ,OR,BrewPub,-122.900166324,45.5490531911,97124,2006,2015,410670326071075,41067032607
10000 NW Old Cornelius Pass Road ,Hillsboro,Rock Creek Tavern ,OR,BrewPub,-122.8729884,45.5918148,97124,2005,2005,410670315092013,41067031509
4045 NW Cornelius Pass Road ,Hillsboro,Cornelius Pass Roadhouse ,OR,BrewPub,-122.9004755,45.5490951,97124,2005,2005,410670326071075,41067032607
2090 SW Eighth Avenue ,West Linn,McMenamins West Linn,OR,BrewPub,-122.6521883,45.3461139,97068,2005,2005,410050207002007,41005020700
2090 SW 8th Ave. ,West Linn,McMenamins West Linn,OR,BrewPub,-122.652049801,45.3459122969,97068,2010,2015,410050207002017,41005020700
2090 SW Eighth Ave. ,West Linn,McMenamins West Linn,OR,BrewPub,-122.652049801,45.3459122969,97068,2006,2009,410050207002017,41005020700
102 9th Street ,Oregon City,McMenamins Oregon City,OR,BrewPub,-122.6069778,45.3592618,97045,2005,2005,410050224005007,41005022400
102 9th St. ,Oregon City,McMenamins Oregon City,OR,BrewPub,-122.607068058,45.3592582328,97045,2006,2015,410050224005007,41005022400
4225 SE 182nd St.,Gresham,Highland Pub & Brewery ,OR,BrewPub,-122.47551498,45.4919870154,97030,2010,2015,410510098031007,41051009803
333 N. Main Ave.,Gresham,Main Street Ale House,OR,BrewPub,-122.430732917,45.4997735696,97030,2006,2008,410510100012020,41051010001
4225 SE 182nd ,Gresham,Highland Pub & Brewery ,OR,BrewPub,-122.4757774,45.4915177,97030,2005,2009,410510098034000,41051009803
333 North Main Ave.,Gresham,Main Street Ale House,OR,BrewPub,-122.4309806,45.5002633,97030,2005,2005,410510100013043,41051010001
9757 SE Sunnyside Rd. ,Clackamas,McMenamins Sunnyside,OR,BrewPub,-122.563089978,45.433505335,97015,2006,2015,410050222051012,41005022205
9757 SE Sunnyside Road ,Clackamas,McMenamins Sunnyside,OR,BrewPub,-122.5633108,45.4338074,97015,2005,2005,410050222051012,41005022205
2927 SW Cedar Hills Boulevard ,Beaverton,McMenamins Cedar Hills ,OR,BrewPub,-122.8092536,45.4990655,97005,2005,2005,410670314021000,41067031402
2927 SW Cedar Hills Blvd. ,Beaverton,McMenamins Cedar Hills ,OR,BrewPub,-122.807935987,45.4981926443,97005,2006,2015,410670314021000,41067031402
19400 Kaumualii Highway,Waimea,Waimea Brewing Co.,HI,BrewPub,-159.675325155,21.9595592443,96796,2006,2006,150070409003005,15007040900
9400 Kaumualii Highway,"Waimea, Kauai",Waimea Brewing Co.,HI,BrewPub,-159.6760337,21.9594716,96796,2005,2005,150070409003004,15007040900
9400 Kaumualii Highway,Waimea,Waimea Brewing Co.,HI,BrewPub,-159.675325155,21.9595592443,96796,2007,2012,150070409003005,15007040900
2976 Aukele St.,"Lihue, Kauai",Keoki Brewing Co.,HI,MicroBrewery,-159.355987,21.965809,96766,2005,2005,150070405001004,15007040500
2976 Aukele St.,Lihue,Keoki Brewing Co.,HI,MicroBrewery,-159.356752499,21.9676138033,96766,2006,2010,150070405001006,15007040500
4405 Honoapi'ilani Highway,Lahaina,Maui Brewing Co. Fish & Game Rotisserie,HI,BrewPub,-156.676832485,20.9718193731,96761,2007,2015,150090315022005,15009031502
4405 Honoapi'ilani Highway,Kahana,Maui Brewing Co. Fish & Game Rotisserie,HI,BrewPub,-156.676832485,20.9718193731,96761,2006,2006,150090315022005,15009031502
131 Callahan St.,Etna,Etna Brewing Co.,CA,BrewPub,-122.892840979,41.4573200108,96027,2006,2015,060930008002026,06093000800
131 Callahan Street,Etna,Etna Brewing Co.,CA,BrewPub,-122.891817,41.45699,96027,2005,2005,060930008003110,06093000800
2004 Capitol Avenue ,Sacramento,Rubicon Brewing Company ,CA,BrewPub,-121.4810826,38.5731152,95816,2005,2005,060670012002000,06067001200
2004 Capitol Ave. ,Sacramento,Rubicon Brewing Company ,CA,BrewPub,-121.481325265,38.5731256969,95816,2006,2015,060670012002000,06067001200
7811 Madison ,Citrus Heights,Sacramento Brewing Co.'s Oasis ,CA,BrewPub,-121.2748018,38.6645566,95814,2005,2005,060670081381008,06067008138
1029 K Street ,Sacramento,"Pyramid Alehouse, Brewery & Restaurant ",CA,BrewPub,-121.4929869,38.5791177,95814,2005,2005,060670011011021,06067001101
1029 K St. ,Sacramento,"Pyramid Alehouse, Brewery & Restaurant ",CA,BrewPub,-121.493568922,38.5791518788,95814,2006,2013,060670011011021,06067001101
801 14th St. ,Sacramento,Brew It Up! Personal Brewery & Grill ,CA,BrewPub,-121.486939949,38.5808309928,95814,2006,2011,060670011011001,06067001101
801 14th Street ,Sacramento,Brew It Up! Personal Brewery & Grill ,CA,BrewPub,-121.4866931,38.5807078,95814,2005,2005,060670011011001,06067001101
114 J St. ,Sacramento,Hogshead Brewery & Pub ,CA,BrewPub,-121.505081338,38.5832337178,95814,2006,2006,060670007001019,06067000700
114 J Street ,Sacramento,Hogshead Brewery & Pub ,CA,BrewPub,-121.5049326,38.583107,95814,2005,2005,060670007001019,06067000700
6645 Mill Road,Somerset,El Dorado Brewing Co.,CA,MicroBrewery,-120.559725,38.578366,95684,2005,2005,060170314023160,06017031402
6645 Mill Rd.,Somerset,El Dorado Brewing Co.,CA,MicroBrewery,-120.560895366,38.578221761,95684,2006,2007,060170314023160,06017031402
7811 Madison Ave.,Citrus Heights,Sacramento Brewing Co.'s Oasis ,CA,BrewPub,-121.274563183,38.6639029702,95610,2006,2008,060670081381008,06067008138
101 Taylor Way ,Blue Lake,Mad River Brewing Co.,CA,MicroBrewery,-123.9919289,40.8786025,95525,2011,2015,060230103003049,06023010300
195 Taylor Way ,Arcata,Mad River Brewing Co.,CA,MicroBrewery,-123.99379,40.8787166,95521,2005,2010,060230103003049,06023010300
345 Healdsburg Avenue,Healdsburg,Bear Republic Brewing Co.,CA,BrewPub,-122.870982,38.6112447,95448,2005,2005,060971539021010,06097153902
345 Healdsburg Ave.,Healdsburg,Bear Republic Brewing Co.,CA,BrewPub,-122.870912806,38.6112768903,95448,2006,2015,060971539021010,06097153902
725 4th St.,Santa Rosa,Russian River Brewing Co.,CA,BrewPub,-122.712003795,38.4414280004,95404,2006,2015,060971520001027,06097152000
725 4th Street,Santa Rosa,Russian River Brewing Co.,CA,BrewPub,-122.71165,38.441806,95404,2005,2005,060971520001027,06097152000
2050 Hwy 4,Arnold,Snowshoe Brewing Co.,CA,BrewPub,-120.3616035,38.2423859,95223,2005,2005,060090005011017,06009000501
2050 Highway 4,Arnold,Snowshoe Brewing Co.,CA,BrewPub,-120.368895251,38.2072973733,95223,2006,2015,060090005012003,06009000501
157 W. Adams St.,Stockton,Valley Brewing Co.,CA,MicroBrewery,-121.300100006,37.9727796611,95204,2006,2014,060770013004001,06077001300
157 West Adams Street,Stockton,Valley Brewing Co.,CA,MicroBrewery,-121.300479,37.972719,95204,2005,2005,060770013004001,06077001300
,San Jose,Shizmo Brewing Co. (by appt only),CA,MicroBrewery,-121.894955,37.339386,95128,2012,2012,060855008001000,06085500800
,San Jose,Shizmo Brewing Co. (by appt only),CA,MicroBrewery,-121.894955,37.339386,95128,2014,2014,060855008001000,06085500800
,San Jose,Shizmo Brewing Co. (by appt only),CA,Brewery,-121.894955,37.339386,95128,2015,2015,060855008001000,06085500800
,San Jose,Shizmo Brewing Co. (by appt only),CA,MicroBrewery,-121.894955,37.339386,95128,2013,2013,060855008001000,06085500800
65 N. San Pedro St. ,San Jose,Tied House Cafe & Brewery ,CA,BrewPub,-121.893937338,37.3362011218,95113,2006,2009,060855008001013,06085500800
65 N. San Pedro Street ,San Jose,Tied House Cafe & Brewery ,CA,BrewPub,-121.8937489,37.3362473,95113,2005,2005,060855008001013,06085500800
33 E. San Fernando St. ,San Jose,Gordon Biersch Brewery Restaurant ,CA,BrewPub,-121.888789055,37.3349193183,95113,2006,2015,060855009012003,06085500901
33 E. San Fernando Street ,San Jose,Gordon Biersch Brewery Restaurant ,CA,BrewPub,-121.88863,37.3348003,95113,2005,2005,060855009012003,06085500901
17370 Hill Rd. ,Morgan Hill,El Toro Brewing Co.,CA,MicroBrewery,-121.62255894,37.1456236977,95037,2006,2015,060855123083001,06085512308
17370 Hill Road ,Morgan Hill,El Toro Brewing Co.,CA,MicroBrewery,-121.6218982,37.1464936,95037,2005,2005,060855123083001,06085512308
130 N. Santa Cruz Avenue ,Los Gatos,Los Gatos Brewing Company ,CA,BrewPub,-121.982234,37.225349,95030,2005,2005,060855070011020,06085507001
130 N. Santa Cruz Ave. ,Los Gatos,Los Gatos Brewing Company ,CA,BrewPub,-121.982548219,37.224791712,95030,2006,2015,060855070011052,06085507001
1132 Fourth St. ,San Rafael,Broken Drum Brewery & Wood Grill ,CA,BrewPub,-122.528773852,37.9732492565,94901,2006,2015,060411110001027,06041111000
812 4th St. ,San Rafael,Rafter's Grille & Brewery,CA,BrewPub,-122.524039594,37.9726361609,94901,2006,2009,060411110001023,06041111000
1132 Fourth Street ,San Rafael,Broken Drum Brewery & Wood Grill ,CA,BrewPub,-122.5290004,37.9733896,94901,2005,2005,060411110001027,06041111000
812 4th Street ,San Rafael,Rafter's Grille & Brewery,CA,BrewPub,-122.524119,37.972912,94901,2005,2005,060411110001013,06041111000
901 Gilman St. ,Berkeley,"Pyramid Alehouse, Brewery & Restaurant ",CA,BrewPub,-122.300589777,37.8797093182,94710,2006,2015,060014220002031,06001422000
901 Gilman Street ,Berkeley,"Pyramid Alehouse, Brewery & Restaurant ",CA,BrewPub,-122.3002697,37.8795972,94710,2005,2005,060014220002032,06001422000
2598 Telegraph Avenue ,Berkeley,Bison Brewing ,CA,MicroBrewery,-122.2589055,37.8633312,94704,2005,2005,060014236021008,06001423602
2598 Telegraph Ave. ,Berkeley,Bison Brewing ,CA,MicroBrewery,-122.259387697,37.8632985397,94704,2006,2012,060014236021007,06001423602
906 Washington St. ,Oakland,Pacific Coast Brewing Company ,CA,BrewPub,-122.274749806,37.8018578233,94607,2006,2015,060014031001018,06001403100
906 Washington Street ,Oakland,Pacific Coast Brewing Company ,CA,BrewPub,-122.2741712,37.8015344,94607,2005,2005,060014031001017,06001403100
1536 Cypress St.,Walnut Creek,"Pyramid Alehouse, Brewery & Restaurant ",CA,BrewPub,-122.0615739,37.8990837,94596,2005,2008,060133390021015,06013339002
1410 Locust St.,Walnut Creek,"Pyramid Alehouse, Brewery & Restaurant ",CA,BrewPub,-122.061944,37.899125,94596,2009,2015,060133390021015,06013339002
3020 N. St. Helena Hwy,St. Helena,Silverado Brewing Co.,CA,BrewPub,-122.49710301,38.524474015,94574,2006,2012,060552015001005,06055201500
3020 Hwy 29,St. Helena,Silverado Brewing Co.,CA,BrewPub,-122.496925,38.5242872,94574,2005,2005,060552015001005,06055201500
830 Main Street ,Pleasanton,Main Street Brewery ,CA,BrewPub,-121.8737386,37.6645095,94566,2005,2005,060014506072000,06001450607
830 Main St. ,Pleasanton,Main Street Brewery ,CA,BrewPub,-121.874152755,37.6645397623,94566,2006,2015,060014506072002,06001450607
1082 B St. ,Hayward,Buffalo Bill's Brewery,CA,BrewPub,-122.081480364,37.6740898296,94541,2006,2015,060014354002019,06001435400
1082 B Street ,Hayward,Buffalo Bill's Brewery,CA,BrewPub,-122.0815232,37.673993,94541,2005,2005,060014354002019,06001435400
385 Sun Valley Mall,Concord,BJ's Restaurant and Brewery,CA,BrewPub,-122.06196,37.967176,94520,2011,2015,060133270005068,06013327000
385 Sunvalley Mall,Concord,BJ's Restaurant and Brewery,CA,BrewPub,-122.06196,37.967176,94520,2010,2010,060133270005068,06013327000
640 Emerson Street ,Palo Alto,Gordon Biersch Brewery Restaurant ,CA,BrewPub,-122.161028,37.4432934,94301,2005,2005,060855113022016,06085511302
640 Emerson St. ,Palo Alto,Gordon Biersch Brewery Restaurant ,CA,BrewPub,-122.161308935,37.4433710858,94301,2006,2015,060855113022016,06085511302
155 Columbus Avenue ,San Francisco,San Francisco Brewing Company ,CA,BrewPub,-122.405655,37.7969383,94133,2005,2005,060750611003000,06075061100
673 Union Street ,San Francisco,Rogue Ales Public House ,CA,BrewPub,-122.4105724,37.8000725,94133,2005,2005,060750107001005,06075010700
673 Union St. ,San Francisco,Rogue Ales Public House ,CA,BrewPub,-122.410284489,37.8002507137,94133,2006,2015,060750107001005,06075010700
155 Columbus Ave. ,San Francisco,San Francisco Brewing Company ,CA,BrewPub,-122.404830478,37.7967511333,94133,2006,2009,060750611001002,06075061100
1195 Evans Ave. ,San Francisco,Speakeasy Brewery ,CA,MicroBrewery,-122.381019221,37.738682082,94124,2006,2015,060750231031006,06075023103
1195 Evans Avenue ,San Francisco,Speakeasy Brewery ,CA,MicroBrewery,-122.3806219,37.7381083,94124,2005,2005,060750231031006,06075023103
1326 9th Avenue ,San Francisco,Eldos Grill and Brewery ,CA,BrewPub,-122.4660283,37.7634951,94122,2005,2005,060750302022001,06075030202
1326 9th Ave. ,San Francisco,Eldos Grill and Brewery ,CA,BrewPub,-122.466135796,37.7634727991,94122,2006,2015,060750302022001,06075030202
1398 Haight Street ,San Francisco,Magnolia Pub & Brewery ,CA,BrewPub,-122.4451741,37.7703879,94117,2005,2005,060750166001003,06075016600
1398 Haight St. ,San Francisco,Magnolia Pub & Brewery ,CA,BrewPub,-122.445060879,37.7702714772,94117,2006,2015,060750166001003,06075016600
1705 Mariposa Street ,San Francisco,Anchor Brewing Company ,CA,MicroBrewery,-122.4007543,37.7634514,94107,2005,2005,060750227041012,06075022704
1705 Mariposa St. ,San Francisco,Anchor Brewing Company ,CA,MicroBrewery,-122.400513907,37.7635721126,94107,2006,2015,060750227041012,06075022704
661 Howard Street ,San Francisco,Thirsty Bear Brewing Company ,CA,BrewPub,-122.3995991,37.785486,94105,2005,2005,060750615002009,06075061500
2 Harrison St. ,San Francisco,Gordon Biersch Brewery Restaurant ,CA,BrewPub,-122.388627876,37.7896066631,94105,2006,2012,060750615003003,06075061500
661 Howard St. ,San Francisco,Thirsty Bear Brewing Company ,CA,BrewPub,-122.399515553,37.7856001797,94105,2006,2015,060750615002009,06075061500
2 Harrison Street ,San Francisco,Gordon Biersch Brewery Restaurant ,CA,BrewPub,-122.3890646,37.7895035,94105,2005,2005,060750615003006,06075061500
935 Washington St.,San Carlos,Devil's Canyon Brewing Co.,CA,MicroBrewery,-122.24379,37.498523,94070,2014,2015,060816091002033,06081609100
954 Villa Street ,Mountain View,Tied House Cafe & Brewery ,CA,BrewPub,-122.0806784,37.3947277,94042,2005,2005,060855096001015,06085509600
954 Villa St. ,Mountain View,Tied House Cafe & Brewery ,CA,BrewPub,-122.080857394,37.3946816127,94042,2006,2015,060855096001015,06085509600
333 California Dr. ,Burlingame,Steelhead Brewing Company ,CA,BrewPub,-122.346352636,37.5797922846,94010,2006,2015,060816055001007,06081605500
333 California Drive ,Burlingame,Steelhead Brewing Company ,CA,BrewPub,-122.3462964,37.5799472,94010,2005,2005,060816055001007,06081605500
111 Industrial Rd.,Belmont,Devil's Canyon Brewing Co.,CA,MicroBrewery,-122.2670645,37.5209552,94002,2005,2015,060816091001005,06081609100
2200 El Camino Real,Santa Margarita,Dunbar Brewing,CA,MicroBrewery,-120.60625,35.392733,93453,2014,2015,060790127023045,06079012702
22720 El Camino Real,Santa Margarita,Dunbar Brewing,CA,MicroBrewery,-120.6129641,35.3887533,93453,2011,2013,060790127023049,06079012702
416 North Salsipuedes St.,Santa Barbara,Telegraph Brewing Co.,CA,BrewPub,-119.6877,34.4224,93103,2007,2011,060830009001017,06083000900
418 N. Salsipuedes St.,Santa Barbara,Telegraph Brewing Co.,CA,Brewery,-119.6877,34.4224,93103,2015,2015,060830009001017,06083000900
416 N. Salsipuedes St.,Santa Barbara,Telegraph Brewing Co.,CA,MicroBrewery,-119.6877,34.4224,93103,2012,2014,060830009001017,06083000900
4187 Carpinteria Ave.,Carpinteria,Island Brewing Co.,CA,MicroBrewery,-119.534497,34.4039731,93013,2005,2005,060830016041011,06083001604
5049 6th St.,Carpinteria,Island Brewing Co.,CA,MicroBrewery,-119.521186352,34.3960832336,93013,2006,2015,060830016044031,06083001604
20 City Blvd. W.,Orange  ,Alcatraz Brewing Company ,CA,BrewPub,-117.89281732,33.7807446151,92868,2006,2013,060590761024003,06059076102
20 City Blvd. West,Orange  ,Alcatraz Brewing Company ,CA,BrewPub,-117.8922272,33.7828653,92868,2005,2005,060590761024003,06059076102
401 S. Richman Ave.,Fullerton,Bootlegger's Brewery,CA,MicroBrewery,-117.933227,33.867685,92832,2009,2013,060590112004029,06059011200
130 S. Highland Ave.,Fullerton,Bootlegger's Brewery,CA,MicroBrewery,-117.928694,33.870031,92832,2014,2015,060590112001014,06059011200
1006 S. Hathaway St.,Santa Ana,Deans Brothers Brewing Co.,CA,Brewery,-117.8531742,33.7351868,92705,2015,2015,060590744031025,06059074403
1004 S Hathaway St.,Santa Ana,Deans Brothers Brewing Co.,CA,MicroBrewery,-117.853127,33.735166,92705,2014,2014,060590744031025,06059074403
2920 Newport Boulevard ,Newport Beach,Newport Beach Brewing Company ,CA,BrewPub,-117.929796,33.614472,92663,2005,2005,060590635001025,06059063500
2920 Newport Blvd. ,Newport Beach,Newport Beach Brewing Company ,CA,BrewPub,-117.929686799,33.6142169027,92663,2006,2015,060590635001025,06059063500
200 Main St.,Huntington Beach,BJ's Restaurant and Brewery,CA,BrewPub,-118.000838561,33.6577572181,92648,2006,2015,060590993111022,06059099311
201 Main Street ,Huntington Beach,Huntington Beach Beer Company ,CA,BrewPub,-118.001283,33.6583415,92648,2005,2005,060590993111016,06059099311
201 Main St. ,Huntington Beach,Huntington Beach Beer Company ,CA,BrewPub,-118.001091668,33.6579325867,92648,2006,2015,060590993111022,06059099311
200 Main Street,Huntington Beach,BJ's Restaurant and Brewery,CA,BrewPub,-118.0006609,33.6584295,92648,2005,2005,060590993111023,06059099311
7424 Heil Ave. ,Huntington Beach,"Brewbakers, A Personal Craft-Brewery",CA,MicroBrewery,-117.998988263,33.7222829407,92647,2006,2015,060590994112001,06059099411
7424 Heil Avenue ,Huntington Beach,"Brewbakers, A Personal Craft-Brewery",CA,MicroBrewery,-117.9990513,33.7228479,92647,2005,2005,060590994112001,06059099411
901 South Coast Drive ,Costa Mesa,Karl Strauss Brewery Restaurant ,CA,BrewPub,-117.8942409,33.6893578,92626,2005,2005,060590639072018,06059063907
901 S. Coast Dr. ,Costa Mesa,Karl Strauss Brewery Restaurant ,CA,BrewPub,-117.894608274,33.6911829255,92626,2006,2015,060590639073018,06059063907
71800 Highway 111,Rancho Mirage,Babe's BBQ Grill & Brewhouse,CA,BrewPub,-116.409737,33.7401083,92270,2005,2005,060650451034012,06065045103
71-800 Highway 111,Rancho Mirage,Babe's BBQ Grill & Brewhouse,CA,BrewPub,-116.411723248,33.7408194531,92270,2006,2015,060650451034012,06065045103
12840 Carmel Country Rd.,San Diego,Oggi's Pizza and Brewing Co.,CA,BrewPub,-117.229310268,32.9541630536,92130,2006,2015,060730083291000,06073008329
12840 Carmel Country Road,San Diego,Oggi's Pizza and Brewing Co.,CA,BrewPub,-117.229427,32.954239,92130,2005,2005,060730083291000,06073008329
13211 Black Mountain Rd.,San Diego,Jose O'Reilly's Cantina ,CA,BrewPub,-117.129694173,32.9557405806,92129,2006,2006,060730170361002,06073017036
13211 Black Mountain Road,San Diego,Jose O'Reilly's Cantina ,CA,BrewPub,-117.12637,32.9577986,92129,2005,2005,060730170361001,06073017036
10155 Rancho Carmel Road ,San Diego,Oggi's Pizza and Brewing Co.,CA,BrewPub,-117.089822,32.96553,92128,2005,2005,060730170562003,06073017056
10155 Rancho Carmel Rd. ,San Diego,Oggi's Pizza and Brewing Co.,CA,BrewPub,-117.090010045,32.9659819136,92128,2006,2015,060730170562003,06073017056
9675 Scranton Road,San Diego,Karl Strauss Brewery Restaurant,CA,BrewPub,-117.2018129,32.8965882,92121,2005,2005,060730083461053,06073008346
9675 Scranton Rd.,San Diego,Karl Strauss Brewery Restaurant,CA,BrewPub,-117.201977002,32.895182458,92121,2006,2015,060730083461053,06073008346
"10450 Friar's Road, Ste. L",San Diego,San Diego Brewing Co.,CA,BrewPub,-117.0981332,32.7917003,92120,2005,2005,060730095091010,06073009509
10450 Friars Rd.,San Diego,San Diego Brewing Co.,CA,BrewPub,-117.098829385,32.7910564022,92120,2006,2015,060730095091010,06073009509
721 Grand Avenue ,San Diego,Taylor's Restaurant and Brewery,CA,BrewPub,-117.2553097,32.7942275,92109,2005,2005,060730079101018,06073007910
721 Grand Ave. ,San Diego,Taylor's Restaurant and Brewery,CA,BrewPub,-117.256168391,32.7944402675,92109,2006,2015,060730079101001,06073007910
5010 Mission Center Road ,San Diego,Gordon Biersch Brewery Restaurant ,CA,BrewPub,-117.1539169,32.7671084,92108,2005,2005,060730093042044,06073009304
5010 Mission Center Rd. ,San Diego,Gordon Biersch Brewery Restaurant ,CA,BrewPub,-117.153543231,32.7670268558,92108,2006,2015,060730093042044,06073009304
1157 Columbia St. ,San Diego,Karl Strauss Brewery Restaurant,CA,BrewPub,-117.167392422,32.7175212705,92101,2006,2015,060730054002019,06073005400
401 G St. ,San Diego,Rock Bottom Restaurant & Brewery ,CA,BrewPub,-117.161143008,32.7126129439,92101,2006,2013,060730053003022,06073005300
1157 Columbia Street ,San Diego,Karl Strauss Brewery Restaurant,CA,BrewPub,-117.167106,32.71745,92101,2005,2005,060730054002014,06073005400
401 G Street ,San Diego,Rock Bottom Restaurant & Brewery ,CA,BrewPub,-117.16075,32.712247,92101,2005,2005,060730053002015,06073005300
"1430 Vantage Court, Suite 104",Vista,Green Flash Brewing Co.,CA,MicroBrewery,-117.2244859,33.1362843,92081,2005,2005,060730200172028,06073020017
1430 Vantage Ct.,Vista,Green Flash Brewing Co.,CA,MicroBrewery,-117.224407965,33.1372278857,92081,2006,2015,060730200172028,06073020017
8980 Villa La Jolla Drive,La Jolla,Rock Bottom Restaurant & Brewery ,CA,BrewPub,-117.2342497,32.8713663,92037,2005,2005,060730083611003,06073008361
1044 Wall Street,La Jolla,Karl Strauss Brewery Restaurant,CA,BrewPub,-117.2735723,32.8469857,92037,2005,2005,060730082003014,06073008200
1044 Wall St.,La Jolla,Karl Strauss Brewery Restaurant,CA,BrewPub,-117.273901462,32.8471289922,92037,2006,2015,060730082003014,06073008200
8980 Villa La Jolla Dr.,La Jolla,Rock Bottom Restaurant & Brewery ,CA,BrewPub,-117.234221145,32.8710330865,92037,2006,2015,060730083611003,06073008361
5801 Armada Drive,Carlsbad,Karl Strauss Brewery Restaurant,CA,BrewPub,-117.3140585,33.1244883,92008,2005,2005,060730221001033,06073022100
5801 Armada Dr.,Carlsbad,Karl Strauss Brewery Restaurant,CA,BrewPub,-117.314823932,33.1253594864,92008,2006,2015,060730221001030,06073022100
5500 Grossmont Center Dr. ,La Mesa,BJ's Restaurant and Brewery,CA,BrewPub,-117.008116955,32.7791801847,91941,2006,2015,060730150002016,06073015000
5500 Grossmont Center Drive ,La Mesa,BJ's Restaurant and Brewery,CA,BrewPub,-117.0114334,32.7790051,91941,2005,2005,060730150002030,06073015000
2351 Alpine Blvd,Alpine,Alpine Beer Co.,CA,MicroBrewery,-116.7628953,32.8352225,91901,2005,2015,060730212053016,06073021205
2363 Alpine Blvd.,Alpine,Alpine Beer Co.,CA,BrewPub,-116.7651405,32.8354684,91901,2011,2013,060730212053016,06073021205
100 W. Main St. ,Alhambra,California Brewing Company ,CA,MicroBrewery,-118.127839123,34.0944569764,91801,2006,2008,060374810011001,06037481001
100 West Main Street ,Alhambra,California Brewing Company ,CA,MicroBrewery,-118.1279421,34.0943808,91801,2005,2005,060374810011001,06037481001
107 S. 1st St. ,Burbank,BJ's Restaurant and Brewery,CA,BrewPub,-118.310135734,34.1794219242,91502,2006,2015,060373107022032,06037310702
145 S. San Fernando Blvd. ,Burbank,Gordon Biersch Brewery Restaurant ,CA,BrewPub,-118.30841703,34.1803450305,91502,2006,2015,060373107022019,06037310702
107 South 1st Street ,Burbank,BJ's Restaurant and Brewery,CA,BrewPub,-118.310053,34.1797029,91502,2005,2005,060373107022026,06037310702
145 S. San Fernando Boulevard ,Burbank,Gordon Biersch Brewery Restaurant ,CA,BrewPub,-118.308159,34.180046,91502,2005,2005,060373107022019,06037310702
300 S. Raymond Ave. ,Pasadena,Crown City Brewery ,CA,BrewPub,-118.148687734,34.1408781863,91105,2006,2015,060374636021006,06037463602
300 South Raymond Avenue ,Pasadena,Crown City Brewery ,CA,BrewPub,-118.1484027,34.1400463,91105,2005,2005,060374636024002,06037463602
"1260 Lincoln Ave., Unit 100   ",Pasadena,Craftsman Brewing Co.,CA,MicroBrewery,-118.15946022,34.1682273336,91103,2006,2015,060374616002000,06037461600
"1260 Lincoln Avenue, Unit 100   ",Pasadena,Craftsman Brewing Co.,CA,MicroBrewery,-118.1585792,34.1688142,91103,2005,2005,060374616002000,06037461600
1 Pine Avenue ,Long Beach,Rock Bottom Restaurant & Brewery ,CA,BrewPub,-118.1927515,33.7674048,90802,2005,2005,060375760012032,06037576001
1 Pine Ave. ,Long Beach,Rock Bottom Restaurant & Brewery ,CA,BrewPub,-118.192762817,33.7671463723,90802,2006,2015,060375760012032,06037576001
331 W. 6th St. ,San Pedro,San Pedro Brewing Company ,CA,BrewPub,-118.284260478,33.7382377793,90731,2006,2015,060372962203015,06037296220
331 West 6th Street ,San Pedro,San Pedro Brewing Company ,CA,BrewPub,-118.284185,33.7385356,90731,2005,2005,060372962203015,06037296220
1266 Sartori Ave. ,Torrance,Red Car Brewery & Restaurant ,CA,BrewPub,-118.315884517,33.8354979843,90501,2006,2015,060376509014071,06037650901
1266 Sartori Avenue ,Torrance,Red Car Brewery & Restaurant ,CA,BrewPub,-118.31597,33.835734,90501,2005,2005,060376509014071,06037650901
124 Manhattan Beach Boulevard ,Manhattan Beach,Manhattan Beach Brewing Company ,CA,BrewPub,-118.4109935,33.8843712,90266,2005,2005,060376209041003,06037620904
124 Manhattan Beach Blvd. ,Manhattan Beach,Manhattan Beach Brewing Company ,CA,BrewPub,-118.411289059,33.8841405466,90266,2006,2010,060376209041004,06037620904
400 East 1st Street ,Los Angeles,Weiland Brewery Restaurant ,CA,BrewPub,-118.2391348,34.0491857,90012,2005,2005,060372062002001,06037206200
400 E. 1st St. ,Los Angeles,Weiland Brewery Restaurant ,CA,BrewPub,-118.239107637,34.0490706786,90012,2006,2014,060372062002001,06037206200
SR-232,Clover Valley,Ruby Mountain Brewing Co.,NV,MicroBrewery,-114.993124008,41.0689175763,89835,2006,2007,320079502001152,32007950200
Angel Creek Ranch on SR-232,Clover Valley,Ruby Mountain Brewing Co.,NV,MicroBrewery,-114.993124008,41.0689175763,89835,2008,2015,320079502001152,32007950200
4543 N. Rancho Rd. ,Las Vegas,Big Dog's Brewing Co.,NV,BrewPub,-115.235029832,36.2422415335,89130,2006,2015,320030034091017,32003003409
4543 North Rancho Road ,Las Vegas,Big Dog's Brewing Co.,NV,BrewPub,-115.2358276,36.242387,89130,2005,2005,320030034091017,32003003409
3101 N. Tenaya Way ,Las Vegas,Tenaya Creek Restaurant & Brewery ,NV,BrewPub,-115.252443191,36.2166258959,89128,2006,2015,320030034151007,32003003415
3101 North Tenaya Way ,Las Vegas,Tenaya Creek Restaurant & Brewery ,NV,BrewPub,-115.2512402,36.215781,89128,2005,2005,320030034151007,32003003415
200 N. Main,Las Vegas,Triple 7 Restaurant & Brewery,NV,BrewPub,-115.145126,36.17488,89125,2005,2005,320030007003032,32003000700
200 N. Main St.,Las Vegas,Triple 7 Restaurant & Brewery,NV,BrewPub,-115.145708273,36.1730091174,89125,2006,2015,320030007003032,32003000700
2100 S. Casino Dr.,Laughlin,Boiler Room Brewpub,NV,BrewPub,-114.574703337,35.1587356788,89029,2006,2015,320030057022001,32003005702
2100 S. Casino Drive,Laughlin,Boiler Room Brewpub,NV,BrewPub,-114.5721888,35.1582608,89029,2005,2005,320030057022001,32003005702
155 N. Gibson,Henderson,Joseph James Brewing Co.,NV,MicroBrewery,-115.029585,36.039001,89014,2009,2013,320030051094015,32003005109
155 N. Gibson Rd.,Henderson,Joseph James Brewing Co.,NV,MicroBrewery,-115.029585,36.039001,89014,2014,2015,320030051094015,32003005109
392 George St.,New Brunswick,Harvest Moon Brewery/Café,NJ,BrewPub,-74.4445591784,40.495790134,8901,2006,2015,340230093002015,34023009300
392 George Street,New Brunswick,Harvest Moon Brewery/Café,NJ,BrewPub,-74.444346,40.4961207,8901,2005,2005,340230093002020,34023009300
61 Bridge St.,Milford,Ship Inn Restaurant & Brewery,NJ,BrewPub,-75.0959084852,40.5677989317,8848,2006,2015,340190106003020,34019010600
61 Bridge Street,Milford,Ship Inn Restaurant & Brewery,NJ,BrewPub,-75.095697,40.568994,8848,2005,2005,340190106003010,34019010600
500 S. Telshor,Las Cruces,De La Vega's Pecan Grill & Brewery,NM,BrewHouse,-106.744,32.3144,88011,2011,2015,350130012031000,35013001203
500 S. Telshor Blvd.,Las Cruces,De La Vega's Pecan Grill & Brewery,NM,BrewHouse,-106.7435724,32.309312,88011,2010,2010,350130012031000,35013001203
1171 Hooper Ave.,Tom River,Basil T's Brewpub & Italian Grill,NJ,BrewPub,-74.1827710366,39.9751814704,8753,2006,2006,340297232002007,34029723200
1171 Hooper Avenue,Tom River,Basil T's Brewpub & Italian Grill,NJ,BrewPub,-74.1823786,39.9771823,8753,2005,2005,340297232002017,34029723200
27 Fire Place,Santa Fe,Santa Fe Brewing Co. Pub & Grill,NM,BrewPub,-106.0491,35.5975,87508,2007,2012,350490106011107,35049010601
35 Fire Place,Santa Fe,Santa Fe Brewing Co. Pub & Grill,NM,BrewPub,-106.048908,35.595822,87508,2013,2015,350490106011116,35049010601
27 Fire Pl.,Santa Fe,Santa Fe Brewing Co. Pub & Grill,NM,BrewPub,-106.028853597,35.6072447367,87505,2006,2006,350490106011035,35049010601
"505 Cerrillos Rd., Suite A105",Santa Fe,Marble Brewery Taproom,NM,BrewHouse,-105.9447552,35.6824377,87501,2015,2015,350490004001063,35049000400
60 E. San Francisco St.,Santa Fe,Marble Brewery Taproom,NM,BrewHouse,-105.9381399,35.6869435,87501,2010,2014,350490004001032,35049000400
3755 Southern Blvd. ,Rio Rancho,Turtle Mountain Brewing Co.,NM,BrewPub,-106.662745336,35.2417870575,87124,2006,2015,350430107152021,35043010715
905 36th Place,Rio Rancho,Turtle Mountain Brewing Co.,NM,BrewPub,-106.664586067,35.2425698307,87124,2007,2015,350430107152003,35043010715
3755 Southern Boulevard ,Rio Rancho,Turtle Mountain Brewing Co.,NM,BrewPub,-106.6625339,35.2415994,87124,2005,2005,350430107152022,35043010715
4000 Vassar Dr. NE,Albuquerque,Il Vicino Brewing Co. Tap Room,NM,MicroBrewery,-106.615,35.1255,87107,2006,2010,350010034002005,35001003400
2381 Aztec Rd. NE,Albuquerque,Il Vicino Brewing Co. Tap Room,NM,MicroBrewery,-106.617866,35.120668,87107,2011,2015,350010034002012,35001003400
1st St NW & Marble Ave.,Albuquerque,Marble Brewery,NM,MicroBrewery,-106.6464,35.0925,87102,2009,2009,350010027001081,35001002700
111 Marble Ave. NW,Albuquerque,Marble Brewery,NM,MicroBrewery,-106.6464,35.0925,87102,2010,2015,350010027001081,35001002700
1425 McCulloch Blvd,Lake Havasu City,Barley Brothers Brewery & Grill,AZ,BrewPub,-114.34901,34.471041,86403,2011,2015,040159532003031,04015953200
210 Swanson Ave.,Lake Havasu City,Mudshark Brewing,AZ,BrewPub,-114.342896211,34.469603727,86403,2006,2015,040159532001039,04015953200
1425 McCulloch Blvd,Lake Havasu,Barley Brothers Brewery & Grill,AZ,BrewPub,-114.3500388,34.4701889,86403,2005,2010,040159532003031,04015953200
210 Swampton Ave,Lake Havasu,Mudshark Brewing,AZ,BrewPub,-114.3383583,34.46882,86403,2005,2005,040159532001025,04015953200
Tlaquepacque Village Hwy 179,Sedona,Oak Creek Brewery & Grill,AZ,BrewPub,-111.76,34.87,86339,2005,2005,040050016002052,04005001600
Tlaquepacque Village 336 Hwy 179,Sedona,Oak Creek Brewery & Grill,AZ,BrewPub,-111.761903433,34.8621595024,86339,2006,2015,040050016003006,04005001600
7401 N. La Cholla Boulevard,Tucson,Thunder Canyon Brewery Restaurant & Pub,AZ,BrewPub,-111.0149434,32.3408464,85741,2005,2005,040190046262000,04019004626
7401 N. La Cholla Blvd.,Tucson,Thunder Canyon Brewery Restaurant & Pub,AZ,BrewPub,-111.01287449,32.3399386766,85741,2006,2015,040190046262000,04019004626
1520 West Mineral Road ,Tempe,Rio Salado Brewing Company ,AZ,BrewPub,-111.9648644,33.3567734,85283,2005,2005,040133200012002,04013320001
1520 W. Mineral Rd. ,Tempe,Rio Salado Brewing Company ,AZ,BrewPub,-111.966105952,33.3561006427,85283,2006,2015,040133200012003,04013320001
1470 E. Southern Avenue ,Tempe,Streets of New York Brewery,AZ,BrewPub,-111.914427,33.3931546,85282,2005,2005,040133195004016,04013319500
1470 E. Southern Ave. ,Tempe,Streets of New York Brewery,AZ,BrewPub,-111.914643936,33.3930870683,85282,2006,2007,040133195004016,04013319500
1340 E. 8th St.,Tempe,Four Peaks Brewing Co.,AZ,BrewPub,-111.916274,33.419386,85281,2014,2015,040133191033000,04013319103
1430 E. 8th St.,Tempe,Four Peaks Brewing Co.,AZ,MicroBrewery,-111.9142123,33.4194806,85281,2005,2013,040133191033002,04013319103
8668 E. Shea Blvd. ,Scottsdale,Rock Bottom Restaurant & Brewery ,AZ,BrewPub,-111.893415084,33.5824770613,85260,2006,2011,040132168163014,04013216816
8763 E. Bell Road,Scottsdale,Oggi's Pizza and Brewing Co.,AZ,BrewPub,-111.8913939,33.6396513,85260,2005,2005,040132168451022,04013216845
8763 E. Bell Rd.,Scottsdale,Oggi's Pizza and Brewing Co.,AZ,BrewPub,-111.892962456,33.6399724114,85260,2006,2009,040132168451022,04013216845
8668 East Shea Boulevard ,Scottsdale,Rock Bottom Restaurant & Brewery ,AZ,BrewPub,-111.8937255,33.5826968,85260,2005,2005,040132168163014,04013216816
7107 East McDowell Road ,Scottsdale,Papago Brewing ,AZ,BrewPub,-111.9282932,33.4656219,85257,2005,2005,040132181001000,04013218100
7107 E. McDowell Rd. ,Scottsdale,Papago Brewing ,AZ,BrewPub,-111.928261824,33.4655029511,85257,2006,2015,040132181001000,04013218100
10426 E. Jomax Rd. ,Scottsdale,Sonoran Brewing Co.,AZ,BrewPub,-111.852993172,33.7271367139,85255,2006,2015,040132168292019,04013216829
10426 East Jomax Road ,Scottsdale,Sonoran Brewing Co.,AZ,BrewPub,-111.8530532,33.7268108,85255,2005,2005,040132168292019,04013216829
6910 E. Shea Boulevard ,Scottsdale,Streets of New York Brewery,AZ,BrewPub,-111.9320452,33.5826323,85254,2005,2005,040132168302001,04013216830
6910 E. Shea Blvd. ,Scottsdale,Streets of New York Brewery,AZ,BrewPub,-111.931836492,33.5825208165,85254,2006,2007,040132168302001,04013216830
5945 West Ray Road ,Chandler,Copper Canyon Grill & Brew Pub ,AZ,BrewPub,-111.9444041,33.3197568,85226,2005,2005,040138105003013,04013810500
5945 W. Ray Rd. ,Chandler,Copper Canyon Grill & Brew Pub ,AZ,BrewPub,-111.944252565,33.3198129347,85226,2006,2007,040138105003013,04013810500
14205 S. 50th St.,Ahwatukee,Rock Bottom Restaurant & Brewery ,AZ,BrewPub,-111.9756219,33.3182085,85044,2005,2005,040131167192002,04013116719
14205 S. 50th St.,Phoenix,Rock Bottom Restaurant & Brewery ,AZ,BrewPub,-111.975812046,33.3166867689,85044,2006,2011,040131167192006,04013116719
686 S. Main Street,Moab,Moab Brewery,UT,BrewPub,-109.5497764,38.5627592,84532,2005,2005,490190003001007,49019000300
57 S. Main St.,Moab,Eddie McStiff's Restaurant & MicroBrewery,UT,BrewPub,-109.550604691,38.572510523,84532,2006,2014,490190002004006,49019000200
686 S. Main St.,Moab,Moab Brewery,UT,BrewPub,-109.54910734,38.5627161113,84532,2006,2015,490190003001007,49019000300
57 Main,Moab,Eddie McStiff's Restaurant & MicroBrewery,UT,BrewPub,-109.5510165,38.5741204,84532,2005,2005,490190002004004,49019000200
1653 N. Carbonville Rd.,Helper,Groggs - Pinnacle Brewing Co.,UT,BrewPub,-110.843820578,39.6258459207,84501,2006,2015,490070002003011,49007000200
1653 North Carbonville Road,Helper,Groggs - Pinnacle Brewing Co.,UT,BrewPub,-110.8431654,39.6258667,84501,2005,2005,490070002003011,49007000200
825 South State St.,Salt Lake City,EPIC Brewing Co.,UT,MicroBrewery,-111.887675,40.751162,84111,2011,2011,490351023002010,49035102300
825 S. State St.,Salt Lake City,EPIC Brewing Co.,UT,MicroBrewery,-111.887675,40.751162,84111,2012,2015,490351023002010,49035102300
250 Main Street,Park City,Wasatch Brew Pub,UT,BrewPub,-111.4945634,40.6418105,84060,2005,2005,490439644021030,49043964402
250 Main St.,Park City,Wasatch Brew Pub,UT,BrewPub,-111.494526568,40.6417618133,84060,2006,2015,490439644021030,49043964402
94 E. Fort Union Blvd.  ,Salt Lake City,Bohemian Brewery & Grill ,UT,BrewPub,-111.887610642,40.6201129147,84047,2006,2009,490351125032002,49035112503
94 E. Fort Union Blvd. (7200 South),Midvale,Bohemian Brewery & Grill ,UT,BrewPub,-111.887610642,40.6201129147,84047,2010,2015,490351125032002,49035112503
1109 Fontaine Dr.,Ponderay,Laughing Dog Brewing,ID,MicroBrewery,-116.546428,48.297458,83852,2013,2015,160179502006038,16017950200
55 Emerald Industrial Park Rd.,Ponderay,Laughing Dog Brewing,ID,MicroBrewery,-116.538502,48.300305,83852,2008,2012,160179502006015,16017950200
209 Lakeside Ave.,Coeur d'Alene,Coeur d'Alene Brewing Co.,ID,BrewPub,-116.783947801,47.674524152,83814,2006,2010,160550014001094,16055001400
209 Lakeside Avenue,Coeur d'Alene,Coeur d'Alene Brewing Co.,ID,BrewPub,-116.7837391,47.6745297,83814,2005,2005,160550014001094,16055001400
5181 Glenwood,Garden City,Crooked Fence Brewing Barrelhouse,ID,BrewPub,-116.279762,43.652303,83714,2014,2014,160010024122017,16001002412
5181 N. Glenwood St.,Garden City,Crooked Fence Brewing Barrelhouse,ID,BrewPub,-116.279762,43.652303,83714,2015,2015,160010024122017,16001002412
709 E. Park Blvd. ,Boise,Ram Restaurant & Brewery,ID,BrewPub,-116.191252073,43.604026137,83712,2006,2015,160010007013036,16001000701
709 E. Park Boulevard ,Boise,Ram Restaurant & Brewery,ID,BrewPub,-116.1925,43.6044387,83712,2005,2005,160010007013036,16001000701
3019 N. Cole Rd. ,Boise,Sockeye Grill & Brewery,ID,BrewPub,-116.274449371,43.6337106622,83704,2006,2015,160010023024000,16001002302
3019 N. Cole Road ,Boise,Sockeye Grill & Brewery,ID,BrewPub,-116.2752137,43.6323958,83704,2005,2005,160010023024000,16001002302
807 N. 3rd Street,McCall,McCall Brewing Co.,ID,BrewPub,-116.0975814,44.9088994,83638,2005,2005,160859702002267,16085970200
807 N. 3rd St.,McCall,McCall Brewing Co.,ID,BrewPub,-116.09737617,44.9089000046,83638,2006,2015,160859702002267,16085970200
621 21st St.,Lewiston,M.J. Barleyhoppers,ID,BrewPub,-117.001472842,46.4140806043,83501,2006,2015,160699603002052,16069960300
621 21st Street,Lewiston,M.J. Barleyhoppers,ID,BrewPub,-117.0007671,46.414349,83501,2005,2005,160699603002052,16069960300
101 S. Andrews,Salmon,Bertram's Brewery & Restaurant,ID,BrewPub,-113.893139223,45.1750804568,83467,2006,2015,160599702001003,16059970200
101 South Andrews,Salmon,Bertram's Brewery & Restaurant,ID,BrewPub,-113.8933618,45.1750048,83467,2005,2005,160599702001003,16059970200
601 West 19th Street,Idaho Falls,Idaho Brewing Co./Dr. Hops,ID,BrewPub,-112.04628,43.48013,83402,2005,2005,160199710006009,16019971000
601 W. 19th St.,Idaho Falls,Idaho Brewing Co./Dr. Hops,ID,BrewPub,-112.046101684,43.4805161216,83402,2006,2006,160199710006009,16019971000
516 2nd St. South,Twin Falls,Twin Falls Brewing Co./Mugger's Brewpub,ID,BrewPub,-114.4725932,42.552101,83301,2005,2005,160830011003035,16083001100
516 2nd St. S.,Twin Falls,Twin Falls Brewing Co./Mugger's Brewpub,ID,BrewPub,-114.472477683,42.5520967226,83301,2006,2006,160830011003077,16083001100
406 West Pine Street,Pinedale,Bottom's Up Brewery,WY,BrewPub,-109.8658982,42.8662962,82941,2005,2005,560350001021151,56035000102
406 W. Pine St.,Pinedale,Bottom's Up Brewery,WY,BrewPub,-109.865652549,42.8664019682,82941,2006,2015,560350001021151,56035000102
128 Main St.,Lander,Snake River Brewing/Cowfish Restaurant,WY,BrewPub,-108.72792,42.832582,82520,2010,2015,560130002001011,56013000200
148 Main Street,Lander,Snake River Brewing/Cowfish Restaurant,WY,BrewPub,-108.7279069,42.8327448,82520,2005,2005,560130002001011,56013000200
148 Main St.,Lander,Snake River Brewing/Cowfish Restaurant,WY,BrewPub,-108.727972163,42.8328617999,82520,2006,2009,560130002001011,56013000200
601 Pic Pike Country Rd. ,Saratoga,Sierra Madre Brewing Co. @ Saratoga Inn,WY,BrewPub,-106.801638711,41.4534622427,82331,2006,2007,560079680002104,56007968000
601 Pic Pike Country Road ,Saratoga,Sierra Madre Brewing Co. @ Saratoga Inn,WY,BrewPub,-106.8064263,41.4549621,82331,2005,2005,560079680002178,56007968000
1622 Grand Ave.,Laramie,Library Restaurant & Brewing Co.,WY,BrewPub,-105.575758963,41.3098648095,82070,2006,2008,560019636003001,56001963600
1622 Grand Avenue,Laramie,Library Restaurant & Brewing Co.,WY,BrewPub,-105.5750957,41.3097038,82070,2005,2005,560019636003001,56001963600
320 S. 2nd St.,Laramie,Altitude Chophouse & Brewery,WY,BrewPub,-105.594897694,41.3108549174,82010,2006,2015,560019634001025,56001963400
320 South Second Street,Laramie,Altitude Chophouse & Brewery,WY,BrewPub,-105.595231,41.3103382,82010,2005,2005,560019634001009,56001963400
1509 Pioneer Ave.,Cheyenne,Freedom's Edge Brewing Co.,WY,Brewery,-104.8170537,41.1312246,82001,2015,2015,560210007001129,56021000700
301 W. Lincolnway,Cheyenne,Freedom's Edge Brewing Co.,WY,MicroBrewery,-104.816563,41.132277,82001,2013,2014,560210007001122,56021000700
105 Edwards Village Boulevard,Edwards,Gore Range Brewery,CO,BrewPub,-106.5961512,39.6443301,81632,2005,2005,080370004022000,08037000402
105 Edwards Village Blvd.,Edwards,Gore Range Brewery,CO,BrewPub,-106.595098401,39.6433930087,81632,2006,2015,080370004022016,08037000402
225 Girard St.,Durango,Ska Brewing Co.,CO,MicroBrewery,-107.874903,37.239474,81301,2010,2015,080679711001113,08067971100
545 Turner Dr.,Durango,Ska Brewing Co.,CO,MicroBrewery,-107.879349,37.2440349,81301,2005,2009,080679711001075,08067971100
100 N. Pagosa Blvd.,Pagosa Springs,Pagosa Brewing Co.,CO,MicroBrewery,-107.079995871,37.2556694406,81147,2007,2008,080079742003037,08007974200
118 N. Pagosa Blvd.,Pagosa Springs,Pagosa Brewing Co.,CO,MicroBrewery,-107.078971,37.255176,81147,2009,2015,080079742003037,08007974200
442 Wolverine Drive,Bayfield,Steamworks Brewing Co.,CO,BrewPub,-107.5969552,37.2345111,81122,2005,2005,080679706002105,08067970600
442 Wolverine Dr.,Bayfield,Steamworks Brewing Co.,CO,BrewPub,-107.597587109,37.2361113734,81122,2006,2009,080679706002105,08067970600
625 Paonia St. ,Colorado Springs,Blicks Brewing Company ,CO,MicroBrewery,-104.715527682,38.8412983692,80915,2006,2015,080410050004021,08041005000
625 Paonia Street ,Colorado Springs,Blicks Brewing Company ,CO,MicroBrewery,-104.7164896,38.8412113,80915,2005,2005,080410050004012,08041005000
1647 S. Tejon St. ,Colorado Springs,Bristol Brewing Company ,CO,BrewPub,-104.825844482,38.8093456453,80906,2006,2013,080410030001029,08041003000
1647 S. Tejon Street ,Colorado Springs,Bristol Brewing Company ,CO,BrewPub,-104.8257733,38.8098878,80906,2005,2005,080410030001034,08041003000
4 S. Cascade Ave. ,Colorado Springs,Judge Baldwin's Brewing Company ,CO,BrewPub,-104.825409623,38.8337438623,80903,2006,2013,080410023001048,08041002300
11 S. Tejon St. ,Colorado Springs,Il Vicino Wood Oven Pizza and Brewery ,CO,BrewPub,-104.823162984,38.8336274356,80903,2006,2015,080410023001045,08041002300
4 South Cascade Avenue ,Colorado Springs,Judge Baldwin's Brewing Company ,CO,BrewPub,-104.826673,38.833327,80903,2005,2005,080410023001032,08041002300
2 East Pikes Peak Avenue ,Colorado Springs,Phantom Canyon Brewing Company ,CO,BrewPub,-104.8254185,38.8346139,80903,2005,2005,080410023001026,08041002300
11 South Tejon Street ,Colorado Springs,Il Vicino Wood Oven Pizza and Brewery ,CO,BrewPub,-104.8232174,38.8333598,80903,2005,2005,080410023001045,08041002300
2 E. Pikes Peak Ave. ,Colorado Springs,Phantom Canyon Brewing Company ,CO,BrewPub,-104.82516468,38.8340247945,80903,2006,2015,080410023001024,08041002300
780 N. Ninth Avenue ,Brighton,Platte Bottom Brewing Company ,CO,MicroBrewery,-104.8114215,39.9743383,80601,2005,2005,080010086052020,08001008605
780 N. Ninth Ave. ,Brighton,Platte Bottom Brewing Company ,CO,MicroBrewery,-104.811251173,39.9745630733,80601,2006,2006,080010086052020,08001008605
500 Linden Street,Fort Collins,New Belgium Brewing Co.,CO,MicroBrewery,-105.066874,40.593415,80524,2005,2005,080690013061024,08069001306
1900 E. Lincon Ave.,Fort Collins,Fort Collins Brewery,CO,MicroBrewery,-105.0420578,40.5830931,80524,2005,2010,080690013061035,08069001306
500 Linden St.,Fort Collins,New Belgium Brewing Co.,CO,MicroBrewery,-105.06972526,40.5927668471,80524,2006,2015,080690013061078,08069001306
1020 E. Lincoln Ave.,Fort Collins,Fort Collins Brewery,CO,BrewPub,-105.058459,40.588593,80524,2011,2015,080690013061076,08069001306
321 Main St.,Berthoud,City Star Brewing,CO,MicroBrewery,-105.093271,40.30212,80513,2013,2014,080690027004011,08069002700
321 Mountain Ave.,Berthoud,City Star Brewing,CO,Brewery,-105.078995,40.304884,80513,2015,2015,080690027004001,08069002700
115 E. 7th Street,Leadville,Boomtown Brewpub,CO,BrewPub,-106.291502,39.24942,80461,2005,2005,080659617004015,08065961700
115 E. 7th St.,Leadville,Boomtown Brewpub,CO,BrewPub,-106.291608267,39.249582555,80461,2006,2009,080659617004015,08065961700
1401 Miner St.,Idaho Springs,Tommyknocker Brewery & Pub,CO,BrewPub,-105.51829078,39.7419067612,80452,2006,2015,080190148001081,08019014800
1401 E. Miner St.,Idaho Springs,Tommyknocker Brewery & Pub,CO,BrewPub,-105.5176984,39.7415739,80452,2005,2005,080190148001136,08019014800
9921 US Highway 34,Grand Lake,Grand Lake Brewing Co.,CO,BrewPub,-105.878387,40.193954,80447,2013,2013,080490002012316,08049000201
915 Grand Ave.,Grand Lake,Grand Lake Brewing Co.,CO,BrewPub,-105.8204516,40.2518,80447,2005,2012,080490002012183,08049000201
720 Main St.,Frisco,Backcountry Brewery,CO,BrewPub,-106.0940619,39.576458,80443,2012,2015,081170003004008,08117000300
710 Main St.,Frisco,Backcountry Brewery,CO,BrewPub,-106.0936413,39.5765134,80443,2005,2011,081170003004007,08117000300
920 12th Street ,Golden,Golden City Brewery ,CO,MicroBrewery,-105.2236543,39.7546856,80401,2005,2005,080590100002007,08059010000
14285 W. Colfax Ave. ,Golden,Hops Restaurant and Brewery ,CO,BrewPub,-105.158510776,39.736077719,80401,2006,2013,080590098072029,08059009807
14285 West Colfax Avenue ,Golden,Hops Restaurant and Brewery ,CO,BrewPub,-105.1615574,39.7337562,80401,2005,2005,080590098072028,08059009807
920 12th St. ,Golden,Golden City Brewery ,CO,MicroBrewery,-105.222727768,39.7548326952,80401,2006,2015,080590100002007,08059010000
3201 Walnut Street ,Boulder,Twisted Pine Brewing Company ,CO,MicroBrewery,-105.2510584,40.0207415,80307,2005,2005,080130122034024,08013012203
3201 Walnut St. ,Boulder,Twisted Pine Brewing Company ,CO,MicroBrewery,-105.251276509,40.0203170801,80307,2006,2015,080130122034024,08013012203
1001 16th Street ,Denver,Rock Bottom Restaurant & Brewery ,CO,BrewPub,-104.9949079,39.7478393,80265,2005,2005,080310017021010,08031001702
1001 16th St. ,Denver,Rock Bottom Restaurant & Brewery ,CO,BrewPub,-104.994939874,39.7472958878,80265,2006,2015,080310017022003,08031001702
1257 West 120th Avenue ,Westminster,C.B. & Potts Restaurants-Big Horn Breweries ,CO,BrewPub,-105.0007694,39.9149286,80234,2005,2005,080010602002028,08001060200
1257 W. 120th Ave. ,Westminster,C.B. & Potts Restaurants-Big Horn Breweries ,CO,BrewPub,-105.002012025,39.9144270615,80234,2006,2015,080010602002033,08001060200
311 West 104th Avenue ,Northglenn,Hops Restaurant and Brewery ,CO,BrewPub,-104.990094,39.886632,80234,2005,2005,080010093234000,08001009323
311 W. 104th Ave. ,Northglenn,Hops Restaurant and Brewery ,CO,BrewPub,-104.99119135,39.8854520221,80234,2006,2009,080010093234000,08001009323
12354 West Alameda Parkway ,Lakewood,Ironworks Brewery and Pub ,CO,BrewPub,-105.1362121,39.7033476,80228,2005,2005,080590117114001,08059011711
12354 W. Alameda Parkway ,Lakewood,Ironworks Brewery and Pub ,CO,BrewPub,-105.137664856,39.7048722299,80228,2006,2015,080590117114015,08059011711
4700 Cherry Creek Dr. South ,Denver,Bull & Bush Pub & Brewery ,CO,BrewPub,-104.9324133,39.7030961,80222,2005,2005,080050049522010,08005004952
4700 Cherry Creek Dr. S. ,Denver,Bull & Bush Pub & Brewery ,CO,BrewPub,-104.932783435,39.7040243264,80222,2006,2015,080050049522010,08005004952
2401 Blake St. ,Denver,Flying Dog Brewery ,CO,MicroBrewery,-104.989796781,39.7580856693,80205,2006,2015,080310016002020,08031001600
2401 Blake Street ,Denver,Flying Dog Brewery ,CO,MicroBrewery,-104.9893989,39.7583991,80205,2005,2005,080310016002017,08031001600
471 Kalamath St. ,Denver,Breckenridge BBQ & Brew Pub,CO,BrewPub,-105.00041817,39.7236111523,80204,2006,2015,080310021003032,08031002100
2220 Blake Street ,Denver,Breckenridge Ball Park Brew Pub,CO,BrewPub,-104.991249,39.756297,80204,2005,2005,080310016002024,08031001600
2220 Blake St. ,Denver,Breckenridge Ball Park Brew Pub,CO,BrewPub,-104.991720285,39.7561864149,80204,2006,2015,080310016002024,08031001600
471 Kalamath Street ,Denver,Breckenridge BBQ & Brew Pub,CO,BrewPub,-105.0006015,39.7236683,80204,2005,2005,080310021003032,08031002100
1919 Blake Street ,Denver,Falling Rock Tap House ,CO,BrewPub,-104.9954029,39.753935,80202,2005,2005,080310017013004,08031001701
1634 18th Street ,Denver,Wynkoop Brewing Company ,CO,BrewPub,-104.9984271,39.7533936,80202,2005,2005,080310017013002,08031001701
1634 18th St. ,Denver,Wynkoop Brewing Company ,CO,BrewPub,-104.998341757,39.7531780614,80202,2006,2015,080310017013002,08031001701
1919 Blake St. ,Denver,Falling Rock Tap House ,CO,BrewPub,-104.995615461,39.7535229218,80202,2006,2007,080310017013004,08031001701
19751 East Main Street ,Parker,Parker Station Grill & Brewing Co.,CO,BrewPub,-104.7604804,39.5185062,80134,2005,2005,080350139041017,08035013904
19751 E. Main St. ,Parker,Parker Station Grill & Brewing Co.,CO,BrewPub,-104.758031185,39.5180098734,80134,2006,2006,080350139041010,08035013904
8026 W. Bowles Ave. ,Littleton,Hops Restaurant and Brewery ,CO,BrewPub,-105.087985266,39.609695159,80123,2006,2013,080590120481002,08059012048
8026 W. Bowles Avenue ,Littleton,Hops Restaurant and Brewery ,CO,BrewPub,-105.085005,39.6091987,80123,2005,2005,080590120481002,08059012048
5798 S. Rapp Street ,Littleton,5280 Roadhouse & Brewery ,CO,BrewPub,-105.0195986,39.6119764,80120,2005,2005,080050065011036,08005006501
5798 S. Rapp St. ,Littleton,5280 Roadhouse & Brewery ,CO,BrewPub,-105.019566424,39.6121331542,80120,2006,2015,080050065011036,08005006501
9627 E. County Line Road ,Englewood,Rock Bottom Restaurant & Brewery ,CO,BrewPub,-104.873876,39.567775,80112,2005,2005,080050067092001,08005006709
9627 E. County Line Rd. ,Englewood,Rock Bottom Restaurant & Brewery ,CO,BrewPub,-104.877094919,39.5661525336,80112,2006,2015,080050067092000,08005006709
18 Olney Avenue ,Cherry Hill,Flying Fish Brewing Company ,NJ,MicroBrewery,-74.965166,39.9190742,8003,2005,2005,340076035011007,34007603501
1940 Olney Ave.,Cherry Hill,Flying Fish Brewing Company ,NJ,MicroBrewery,-74.969,39.9065,8003,2006,2015,340076035011029,34007603501
1 W. Flatiron Circle ,Broomfield,Gordon Biersch Brewery Restaurant ,CO,BrewPub,-105.128690008,39.92939,80021,2006,2015,080140311001043,08014031100
1 West Flatiron Circle ,Broomfield,Gordon Biersch Brewery Restaurant ,CO,BrewPub,-105.132472,39.932939,80021,2005,2005,080140311001035,08014031100
555 Zang St. ,Broomfield,C.B. & Potts Restaurants-Big Horn Breweries ,CO,BrewPub,-105.133319401,39.9289470442,80020,2006,2015,080140311001038,08014031100
555 Zang Street ,Broomfield,C.B. & Potts Restaurants-Big Horn Breweries ,CO,BrewPub,-105.1337949,39.9280582,80020,2005,2005,080140311001058,08014031100
15110 E. Hampden St.,Aurora,Dry Dock Brewing Co.,CO,MicroBrewery,-104.812,39.6514,80014,2006,2013,080050838001000,08005083800
15120 E. Hampden St.,Aurora,Dry Dock Brewing Co.,CO,MicroBrewery,-104.81208,39.652922,80014,2014,2015,080050838001000,08005083800
11905 Gateway Boulevard West,El Paso,BJ's Brewhouse,TX,BrewHouse,-106.3063,31.7227,79936,2007,2009,481410043093019,48141004309
11905 Gateway Blvd. West,El Paso,BJ's Brewhouse,TX,BrewHouse,-106.3063,31.7227,79936,2010,2015,481410043093019,48141004309
209 West Holland Avenue ,Alpine,Edelweiss Brewery & Restaurant,TX,BrewPub,-103.662458673,30.3572826442,79830,2006,2006,480439504002015,48043950400
209 West Holland Ave.,Alpine,Edelweiss Brewery & Restaurant,TX,BrewPub,-103.662458673,30.3572826442,79830,2007,2008,480439504002015,48043950400
279 Springfield Ave.,Berkeley Heights,Trap Rock Restaurant & Brewery,NJ,BrewPub,-74.4348849233,40.6890708669,7922,2006,2015,340390382025005,34039038202
279 Springfield Avenue,Berkeley Heights,Trap Rock Restaurant & Brewery,NJ,BrewPub,-74.4347612,40.6890147,7922,2005,2005,340390382025005,34039038202
3301 E. 5th Street ,Austin,Live Oak Brewing Company ,TX,MicroBrewery,-97.7056538,30.2543061,78702,2005,2005,484530009022037,48453000902
3301 E. 5th St. ,Austin,Live Oak Brewing Company ,TX,MicroBrewery,-97.7056462846,30.2546745161,78702,2006,2015,484530009022037,48453000902
604 Neches St. ,Austin,Lovejoy's Tap Room & Brewery ,TX,BrewPub,-97.738429753,30.2670119124,78701,2006,2013,484530011001096,48453001100
604 Neches Street ,Austin,Lovejoy's Tap Room & Brewery ,TX,BrewPub,-97.7382482,30.2668326,78701,2005,2005,484530011001096,48453001100
405 3rd St.,Blanco,Real Ale Brewing Co.,TX,MicroBrewery,-98.4222795,30.0969286,78606,2005,2014,480319502002050,48031950200
231 San Saba Ct.,Blanco,Real Ale Brewing Co.,TX,MicroBrewery,-98.4128231,30.1132717,78606,2011,2015,480319502002001,48031950200
1414 South Alamo Street ,San Antonio,Blue Star Brewing Company ,TX,BrewPub,-98.4954787,29.4099534,78212,2005,2005,480291921002007,48029192100
1414 S. Alamo St. ,San Antonio,Blue Star Brewing Company ,TX,BrewPub,-98.4956060831,29.4099867736,78212,2006,2015,480291921002007,48029192100
402 River Rd. ,Boerne,Dodging Duck Brewhaus ,TX,BrewPub,-98.7260900051,29.7897099939,78006,2006,2015,482599705002035,48259970500
402 River Road ,Boerne,Dodging Duck Brewhaus ,TX,BrewPub,-98.7259811,29.7898434,78006,2005,2005,482599705002035,48259970500
515 W. Bay Area Boulevard ,Webster,BJ's Restaurant and Brewery,TX,BrewPub,-95.1323744,29.5451201,77598,2005,2005,482013411002002,48201341100
515 W. Bay Area Blvd. ,Webster,BJ's Restaurant and Brewery,TX,BrewPub,-95.1330679913,29.5453930841,77598,2006,2006,482013411002002,48201341100
183 Riverside Avenue,Red Bank,Basil T's Brewpub & Italian Grill,NJ,BrewPub,-74.0748821,40.3533527,7701,2005,2005,340258036005006,34025803600
183 Riverside Ave.,Red Bank,Basil T's Brewpub & Italian Grill,NJ,BrewPub,-74.075221713,40.3532957699,7701,2006,2015,340258036005006,34025803600
2400 University Blvd. ,Houston,Two Rows Restaurant & Brewery ,TX,BrewPub,-95.414967548,29.7151027089,77005,2006,2010,482014120002033,48201412000
2400 University Boulevard ,Houston,Two Rows Restaurant & Brewery ,TX,BrewPub,-95.4157594,29.7155942,77005,2005,2005,482014120002033,48201412000
4901 Belt Line Road ,Addison,BJ's Restaurant and Brewery,TX,BrewPub,-96.8280404,32.9546307,75240,2005,2005,481130136162022,48113013616
4901 Belt Line Rd. ,Addison,BJ's Restaurant and Brewery,TX,BrewPub,-96.8262181148,32.9541870535,75240,2006,2015,481130136162023,48113013616
5500 Greenville Ave. ,Dallas,Two Rows Restaurant & Brewery ,TX,BrewPub,-96.7691601435,32.8530541605,75206,2006,2008,481130079092007,48113007909
6050 Greenville Ave. ,Dallas,Humperdink's Big Horn Brewing Co.,TX,BrewPub,-96.7680075136,32.8591257064,75206,2006,2015,481130079122000,48113007912
6050 Greenville Avenue ,Dallas,Humperdink's Big Horn Brewing Co.,TX,BrewPub,-96.767987,32.858649,75206,2005,2005,481130079122000,48113007912
5500 Greenville Avenue ,Dallas,Two Rows Restaurant & Brewery ,TX,BrewPub,-96.7685161,32.854427,75206,2005,2005,481130079092007,48113007909
4959 N. OConner Blvd,Irving,Humperdink's Big Horn Brewing Co.,TX,BrewPub,-96.9464179,32.8667718,75062,2005,2005,481130143121012,48113014312
4959 N. OConnor Blvd,Irving,Humperdink's Big Horn Brewing Co.,TX,BrewPub,-96.9468208265,32.8661190803,75062,2006,2006,481130143121015,48113014312
1124 NW 51st St.,Oklahoma City,COOP Ale Works,OK,MicroBrewery,-97.530535,35.523588,73118,2012,2015,401091001001021,40109100100
1114 NW 51st St.,Oklahoma City,COOP Ale Works,OK,MicroBrewery,-97.530322,35.52346,73118,2009,2011,401091001001021,40109100100
421 SW 26 Street ,Oklahoma City,Huebert Brewing Company ,OK,MicroBrewery,-97.520902,35.438605,73109,2005,2005,401091047001014,40109104700
421 SW 26 St. ,Oklahoma City,Huebert Brewing Company ,OK,MicroBrewery,-97.5203826918,35.4383970725,73109,2006,2013,401091047001014,40109104700
1 N. Oklahoma Ave.,Oklahoma City,Bricktown Brewery ,OK,BrewPub,-97.510878586,35.4664644563,73104,2012,2015,401091038001041,40109103800
1 N. Oklahoma ,Oklahoma City,Bricktown Brewery ,OK,BrewPub,-97.5108091,35.4667607,73104,2005,2011,401091038001040,40109103800
500 President Clinton Ave.,Little Rock,Boscos ,AR,BrewPub,-92.2654772799,34.7475004738,72201,2006,2014,051190044001058,05119004400
323 Cross Street ,Little Rock,Diamond Bear Brewing Co ,AR,MicroBrewery,-92.2835991,34.7472109,72201,2005,2005,051190044002063,05119004400
500 President Clinton Avenue,Little Rock,Boscos ,AR,BrewPub,-92.26469,34.747606,72201,2005,2005,051190044001058,05119004400
323 Cross St. ,Little Rock,Diamond Bear Brewing Co ,AR,MicroBrewery,-92.2836438575,34.7474732045,72201,2006,2015,051190044002063,05119004400
15 S. Orange Ave.,S. Orange,Gaslight Brewery & Restaurant,NJ,BrewPub,-74.2595521092,40.7461877261,7079,2006,2015,340130193001006,34013019300
15 South Orange Avenue,South Orange,Gaslight Brewery & Restaurant,NJ,BrewPub,-74.2593603,40.7464022,7079,2005,2005,340130193001002,34013019300
166 Barbee Rd.,Covington,Abita Brewing Co. ,LA,MicroBrewery,-90.055515,30.481436,70433,2010,2010,221030406052006,22103040605
166 Barbee Rd.,Abita Springs,Abita Brewing Co. ,LA,MicroBrewery,-90.055515,30.481436,70420,2011,2015,221030406052006,22103040605
527 Decatur Street ,New Orleans,Crescent City Brewhouse ,LA,BrewPub,-90.0640251,29.9557642,70130,2005,2005,220710135003015,22071013500
200 Poydras Street ,New Orleans,Gordon Biersch Brewery Restaurant ,LA,BrewPub,-90.0650167,29.9480629,70130,2005,2005,220710134001008,22071013400
200 Poydras St. ,New Orleans,Gordon Biersch Brewery Restaurant ,LA,BrewPub,-90.0648242842,29.948170735,70130,2006,2015,220710134001008,22071013400
527 Decatur St. ,New Orleans,Crescent City Brewhouse ,LA,BrewPub,-90.0640566604,29.9554846977,70130,2006,2015,220710135003015,22071013500
2537 Tulane Avenue ,New Orleans,Dixie Brewing Company ,LA,MicroBrewery,-90.088496,29.961248,70119,2005,2005,220710060001005,22071006000
201 Carrollton Avenue ,New Orleans,Brewhouse Grill ,LA,BrewPub,-90.099843,29.975716,70119,2005,2005,220710054003038,22071005400
2537 Tulane Ave. ,New Orleans,Dixie Brewing Company ,LA,MicroBrewery,-90.0879949693,29.9610513134,70119,2006,2006,220710060001005,22071006000
201 Carrollton Ave. ,New Orleans,Brewhouse Grill ,LA,BrewPub,-90.0996621379,29.9756148404,70119,2006,2006,220710054003038,22071005400
5200 Taravella Rd. ,Marrero,Big Easy Brewing Company ,LA,MicroBrewery,-90.1043016859,29.881457793,70072,2006,2007,220510267001012,22051026700
5200 Taravella Road ,Marrero,Big Easy Brewing Company ,LA,MicroBrewery,-90.10512,29.8809949,70072,2005,2005,220510267001012,22051026700
24 Kulick Road,Fairfield,Cricket Hill Brewery,NJ,MicroBrewery,-74.296359,40.872566,7004,2005,2005,340130216013027,34013021601
24 Kulick Rd.,Fairfield,Cricket Hill Brewery,NJ,MicroBrewery,-74.2964451016,40.8732729776,7004,2006,2015,340130216013010,34013021601
131 Summer Street,Stamford,SBC Downtown Restaurant & Brewery,CT,BrewPub,-73.5404473,41.0544461,6901,2005,2005,090010201002002,09001020100
131 Summer St.,Stamford,SBC Downtown Restaurant & Brewery,CT,BrewPub,-73.5399136179,41.0533322584,6901,2006,2014,090010201002002,09001020100
107 N. Lincoln Ave.,Hastings,Murphy's Wagon Wheel,NE,BrewPub,-98.3912904598,40.584357736,68901,2006,2006,310019657001039,31001965700
107 N. Lincoln Avenue,Hastings,Murphy's Wagon Wheel,NE,BrewPub,-98.3911904,40.5844219,68901,2005,2005,310019657001039,31001965700
18 E. 21st St.,Kearney,Thunderhead Brewing Co.,NE,BrewPub,-99.0816031996,40.6967260706,68847,2006,2015,310199695003004,31019969500
18 East 21st Street,Kearney,Thunderhead Brewing Co.,NE,BrewPub,-99.0808817,40.6967545,68847,2005,2005,310199695003004,31019969500
14 E. Railroad St.,Kearney,Platte Valley Brewing Co.,NE,BrewPub,-99.0817057056,40.6955165085,68847,2006,2010,310199695003021,31019969500
14 East Railroad Street,Kearney,Platte Valley Brewing Co.,NE,BrewPub,-99.0811672,40.6953842,68847,2005,2005,310199695003021,31019969500
120 East Third Street,Grand Island,Copper Eagle Brewing Co.,NE,BrewPub,-98.3397408,40.9259496,68801,2005,2005,310790010001010,31079001000
120 E. 3rd St.,Grand Island,Copper Eagle Brewing Co.,NE,BrewPub,-98.339737735,40.9259984128,68801,2006,2015,310790010001010,31079001000
2804 13th Street,Columbus,Gottberg Brewpub,NE,BrewPub,-97.3621953,41.4296772,68601,2005,2005,311419656002100,31141965600
2804 13th St.,Columbus,Gottberg Brewpub,NE,BrewPub,-97.3619053294,41.4295208162,68601,2006,2015,311419656002099,31141965600
200 N. 11th St.,Lincoln,Misty's Steakhouse & Brewery,NE,BrewPub,-96.7051089082,40.8148320435,68508,2006,2015,311090019001009,31109001900
710 P Street,Lincoln,Lazlo's Brewery & Grill,NE,BrewPub,-96.710548,40.815109,68508,2005,2005,311090005001044,31109000500
200 N. 11th Street,Lincoln,Misty's Steakhouse & Brewery,NE,BrewPub,-96.7050646,40.8150086,68508,2005,2005,311090019001009,31109001900
710 P St.,Lincoln,Lazlo's Brewery & Grill,NE,BrewPub,-96.7110058283,40.8149386917,68508,2006,2007,311090005001043,31109000500
210 N 7th St.,Lincoln,Lazlo's Brewery & Grill,NE,BrewHouse,-96.710796,40.81496,68508,2008,2015,311090005001044,31109000500
6150 O St.,Lincoln,Granite City Food & Brewery ,NE,BrewPub,-96.6355027591,40.8135270597,68505,2006,2015,311090012003011,31109001200
6150 O Street,Lincoln,Granite City Food & Brewery ,NE,BrewPub,-96.6380559,40.8135114,68505,2005,2005,311090012003011,31109001200
300 West Fourth Street,Cortland,Spilker Ales,NE,MicroBrewery,-96.7070351,40.5057653,68331,2005,2005,310679647001280,31067964700
300 W. 4th St.,Cortland,Spilker Ales,NE,MicroBrewery,-96.7073090348,40.5057976397,68331,2006,2015,310679647001280,31067964700
636 N. 114th St.,Omaha,DJ's Dugout,NE,BrewPub,-96.0900823531,41.2646322402,68154,2006,2010,310550074443013,31055007444
636 N. 114th Street,Omaha,DJ's Dugout,NE,BrewPub,-96.0927397,41.2651029,68154,2005,2005,310550074443016,31055007444
10922 Elm Street,Omaha,Jaipur Indian Restaurant & Brewpub,NE,BrewPub,-96.0833532,41.2328688,68144,2005,2005,310550069043009,31055006904
10922 Elm St.,Omaha,Jaipur Indian Restaurant & Brewpub,NE,BrewPub,-96.0821435316,41.2326629202,68144,2006,2015,310550069043012,31055006904
17070 W. Center Rd.,Omaha,Upstream Brewing Company ,NE,BrewPub,-96.1818909645,41.2329531026,68130,2006,2015,310550074511006,31055007451
17070 Wright Plaza,Omaha,Upstream Brewing Company ,NE,BrewPub,-96.1820539,41.2332584,68130,2005,2005,310550074511006,31055007451
514 South 11th Street ,Omaha,Upstream Brewing Company ,NE,BrewPub,-95.930883,41.254724,68102,2005,2005,310550018002043,31055001800
514 S. 11th St. ,Omaha,Upstream Brewing Company ,NE,BrewPub,-95.9303739608,41.2553349585,68102,2006,2015,310550018002033,31055001800
150 N. Mosley St. ,Wichita,River City Brewing Company ,KS,BrewPub,-97.3273172313,37.6870548891,67202,2006,2015,201730043002040,20173004300
150 North Mosley Street ,Wichita,River City Brewing Company ,KS,BrewPub,-97.327228,37.6874309,67202,2005,2005,201730043002040,20173004300
417 SW 37th Street,Topeka,Blind Tiger,KS,BrewPub,-95.6758635,39.0006513,66605,2005,2005,201770029003001,20177002900
417 SW 37th St.,Topeka,Blind Tiger,KS,BrewPub,-95.6842426365,39.0005629337,66605,2006,2015,201770029003010,20177002900
311 North Burch Street ,Olathe,Pony Express Brewing Company ,KS,MicroBrewery,-94.79547,38.8858869,66061,2005,2005,200910529052017,20091052905
311 N. Burch St. ,Olathe,Pony Express Brewing Company ,KS,MicroBrewery,-94.7949667849,38.885142356,66061,2006,2015,200910529052018,20091052905
206 Choctaw Street,Leavenworth,High Noon Saloon & Brewery,KS,BrewPub,-94.9111194,39.3169425,66048,2005,2005,201030701001044,20103070100
206 Choctaw St.,Leavenworth,High Noon Saloon & Brewery,KS,BrewPub,-94.9104985297,39.3169758832,66048,2006,2015,201030701001044,20103070100
636 Massachusetts St.,Lawrence,Free State Brewing Co.,KS,BrewPub,-95.2357736975,38.9724869295,66044,2006,2015,200450002001008,20045000200
636 Massachusetts Street,Lawrence,Free State Brewing Co.,KS,BrewPub,-95.2355254,38.9717476,66044,2005,2005,200450002001008,20045000200
300 S. Market Avenue,Springfield,Springfield Brewing Co.,MO,BrewPub,-93.2955223,37.2079053,65806,2005,2005,290770001001019,29077000100
305 S. Market Ave.,Springfield,Springfield Brewing Co.,MO,BrewPub,-93.295487,37.207681,65806,2014,2015,290770001001030,29077000100
300 S. Market Ave.,Springfield,Springfield Brewing Co.,MO,BrewPub,-93.2953176279,37.207750534,65806,2006,2013,290770001001030,29077000100
12581 Dallas Lane (off M Highway),Cabool,Little Yeoman Brewery,MO,MicroBrewery,-92.13624,37.1748165147,65689,2010,2014,292154804001175,29215480400
Dallas Lane (off M Highway),Cabool,Little Yeoman Brewery,MO,MicroBrewery,-92.13624,37.1748165147,65689,2008,2009,292154804001175,29215480400
4317 Native Stone Road,Jefferson City,Bull Rock Brewery,MO,BrewPub,-92.338865,38.670929,65109,2005,2005,290510206001004,29051020600
4317 Native Stone Rd.,Jefferson City,Bull Rock Brewery,MO,BrewPub,-92.3376181793,38.6606201687,65109,2006,2014,290510206001047,29051020600
3200 N. Ameristar Dr.,Kansas City,Amerisports Brew Pub,MO,BrewPub,-94.4771146286,39.1513753737,64161,2006,2015,290470222002091,29047022200
8201 NE Birmingham Road,Kansas City,Amerisports Brew Pub,MO,BrewPub,-94.4820352,39.1550735,64161,2005,2005,290470222002092,29047022200
Two Main Street ,Parkville,Power Plant Restaurant & Brewery ,MO,BrewPub,-94.684402,39.188879,64152,2005,2005,291650303052026,29165030305
2 Main St. ,Parkville,Power Plant Restaurant & Brewery ,MO,BrewPub,-94.6841911909,39.188970795,64152,2006,2009,291650303052026,29165030305
4057 Pennsylvania Avenue ,Kansas City,McCoy's Public House & Brewkitchen ,MO,BrewPub,-94.5915451,39.0531397,64111,2005,2005,290950168004030,29095016800
4057 Pennsylvania Ave. ,Kansas City,McCoy's Public House & Brewkitchen ,MO,BrewPub,-94.5917003107,39.0534002655,64111,2006,2015,290950168004030,29095016800
2501 Southwest Blvd. ,Kansas City,Boulevard Brewing Company ,MO,MicroBrewery,-94.5966017799,39.0822501527,64108,2006,2015,290950153002004,29095015300
2501 Southwest Boulevard ,Kansas City,Boulevard Brewing Company ,MO,MicroBrewery,-94.5966532,39.0821348,64108,2005,2005,290950153002004,29095015300
500 Walnut St. ,Kansas City,River Market Brewing Company ,MO,BrewPub,-94.5819921575,39.1084779072,64106,2006,2010,290950152001076,29095015200
500 Walnut Street ,Kansas City,River Market Brewing Company ,MO,BrewPub,-94.5818005,39.1083806,64106,2005,2005,290950152001076,29095015200
215 W. Washington St.,Kirksville,Il Spazio Brewery Pub & Restaurant,MO,BrewPub,-92.5846161414,40.1945754428,63501,2006,2009,290019503004020,29001950300
215 West Washington Street,Kirksville,Il Spazio Brewery Pub & Restaurant,MO,BrewPub,-92.5850616,40.194473,63501,2005,2005,290019503004020,29001950300
3446 Pheasant Meadow Dr.,O'Fallon,Yippie-ie-O Grill,MO,BrewPub,-90.6963995917,38.7458714897,63366,2006,2006,291833111242022,29183311124
26 West Industrial Drive,O'Fallon,O'Fallon Brewery,MO,MicroBrewery,-90.753246,38.805807,63366,2005,2005,291833118022064,29183311802
26 W. Industrial Dr.,O'Fallon,O'Fallon Brewery,MO,MicroBrewery,-90.7514336048,38.8059129485,63366,2006,2015,291833118022064,29183311802
3446 Pheasant Meadow Drive,O'Fallon,Yippie-ie-O Grill,MO,BrewPub,-90.69752,38.74597,63366,2005,2005,291833111242022,29183311124
5221 Water St.,Augusta,Augusta Brewing Co. Beer Garden,MO,BrewPub,-90.8801165648,38.5706047933,63332,2006,2015,291833122042087,29183312204
5221 Water Street,Augusta,Augusta Brewing Co. Beer Garden,MO,BrewPub,-90.8801856,38.5702182,63332,2005,2005,291833122042087,29183312204
921 South Riverside Drive ,St. Charles,Trailhead Brewing Company ,MO,BrewPub,-90.4839869,38.7744654,63301,2005,2005,291833105022041,29183310502
921 S. Riverside Dr. ,St. Charles,Trailhead Brewing Company ,MO,BrewPub,-90.4848338514,38.7746123001,63301,2006,2015,291833105022011,29183310502
7260 Southwest Avenue ,Maplewood,Schlafly Bottleworks ,MO,BrewPub,-90.3153033,38.6130246,63143,2005,2005,291892170001003,29189217000
7260 Southwest Ave. ,Maplewood,Schlafly Bottleworks ,MO,BrewPub,-90.3159722654,38.6132711604,63143,2006,2015,291892170001003,29189217000
41 N. Central,Clayton,Il Vicino Wood Oven Pizza and Brewery ,MO,BrewPub,-90.3382075,38.6508769,63105,2005,2005,291892165002014,29189216500
41 North Central Ave.,Clayton,Il Vicino Wood Oven Pizza and Brewery ,MO,BrewHouse,-90.338335,38.650872,63105,2010,2010,291892165002014,29189216500
2100 Locust Street ,St. Louis,Schlafly Tap Room,MO,BrewPub,-90.209769,38.632968,63103,2005,2005,295101275002045,29510127500
2100 Locust St. ,St. Louis,Schlafly Tap Room,MO,BrewPub,-90.2094384368,38.6331168189,63103,2006,2015,295101275002055,29510127500
721 N. 2nd St. ,St. Louis,Morgan Street Brewery,MO,BrewPub,-90.1845848882,38.6305288064,63102,2006,2015,295101256002026,29510125600
721 N. 2nd Street ,St. Louis,Morgan Street Brewery,MO,BrewPub,-90.18528,38.630903,63102,2005,2005,295101256002026,29510125600
415 Hampshire Street,Quincy,O'Griff's Irish Pub & Brewhouse,IL,BrewPub,-91.409297,39.9334848,62301,2005,2005,170010007002032,17001000700
415 Hampshire St.,Quincy,O'Griff's Irish Pub & Brewhouse,IL,BrewPub,-91.4097761352,39.9332817749,62301,2006,2015,170010007002032,17001000700
102 N. Center St.,Bloomington,Illinois Brewing Co.,IL,BrewPub,-88.9950506084,40.4785600961,61701,2006,2015,171130016002022,17113001600
102 North Center Street,Bloomington,Illinois Brewing Co.,IL,BrewPub,-88.9945967,40.4787778,61701,2005,2005,171130016002019,17113001600
619 Water St.,Peoria,John S. Rhodell Brewery,IL,BrewPub,-89.5945252211,40.6861395854,61602,2006,2015,171430009001050,17143000900
619 Water Street,Peoria,John S. Rhodell Brewery,IL,BrewPub,-89.5947892,40.6857255,61602,2005,2005,171430009001050,17143000900
118 East Main Street,Elmwood,Elmwood Brewing Co. Restaurant & Brewery,IL,BrewPub,-89.9652,40.777759,61529,2005,2005,171430040003080,17143004000
118 E. Main St.,Elmwood,Elmwood Brewing Co. Restaurant & Brewery,IL,BrewPub,-89.9660535417,40.7778032229,61529,2006,2008,171430040003080,17143004000
215 E. State St.,Rockford,Carlyle Brewing Co.,IL,BrewPub,-89.090470661,42.2689440908,61104,2006,2015,172010011001048,17201001100
215 East State Street,Rockford,Carlyle Brewing Co.,IL,BrewPub,-89.0906289,42.2689583,61104,2005,2005,172010011001048,17201001100
3535 N. Clark St. ,Chicago,Goose Island Beer Company,IL,BrewPub,-87.6559611626,41.9466858983,60657,2006,2014,170318320001010,17031832000
3535 North Clark Street ,Chicago,Goose Island Beer Company,IL,BrewPub,-87.6555026,41.9464894,60657,2005,2005,170318320001010,17031832000
1927 West North Avenue,Chicago,Piece Brewery & Pizzeria,IL,BrewPub,-87.6762094,41.910469,60622,2005,2005,170312415003002,17031241500
1927 W. North Ave.,Chicago,Piece Brewery & Pizzeria,IL,BrewPub,-87.6762320602,41.9103638088,60622,2006,2015,170312415003002,17031241500
1800 N. Clybourn ,Chicago,Goose Island Beer Company,IL,BrewPub,-87.6537134397,41.9136912687,60614,2006,2015,170318326002019,17031832600
1800 North Clybourn ,Chicago,Goose Island Beer Company,IL,BrewPub,-87.6537358,41.9137245,60614,2005,2005,170318326002019,17031832600
1 W. Grand Ave. ,Chicago,Rock Bottom Restaurant & Brewery ,IL,BrewPub,-87.6282351666,41.8915920745,60610,2006,2015,170310816001004,17031081600
1 West Grand Avenue ,Chicago,Rock Bottom Restaurant & Brewery ,IL,BrewPub,-87.628304,41.8914934,60610,2005,2005,170310816001004,17031081600
15845 S. La Grange Rd. ,Orland Park,Harrison's Brewing Company ,IL,BrewPub,-87.8526760533,41.6023334271,60462,2006,2013,170318241063034,17031824106
15845 S. LaGrange Road ,Orland Park,Harrison's Brewing Company ,IL,BrewPub,-87.852193,41.602799,60462,2005,2005,170318241063034,17031824106
54 E. St. Charles Road ,Villa Park,Lunar Brewing ,IL,BrewPub,-87.9766096,41.8899874,60181,2005,2005,170438431003012,17043843100
54 E. St. Charles Rd. ,Villa Park,Lunar Brewing ,IL,BrewPub,-87.9773513437,41.8898188638,60181,2006,2015,170438431003012,17043843100
1385 N. Meacham Rd.,Schaumburg,Prairie Rock Brewing Co.,IL,BrewPub,-88.0450113673,42.0534365253,60173,2006,2007,170318046032027,17031804603
1385 North Meacham Road,Schaumburg,Prairie Rock Brewing Co.,IL,BrewPub,-88.0443365,42.0560863,60173,2005,2005,170318046032020,17031804603
717 East Butterfield Road,Lombard,Taylor Brewing Co.,IL,BrewPub,-87.9985715,41.8392754,60148,2005,2005,170438444012002,17043844401
717 E. Butterfield Rd.,Lombard,Taylor Brewing Co.,IL,BrewPub,-87.9988574982,41.8396654873,60148,2006,2011,170438444012002,17043844401
306 W. State St.,Geneva,Stockholm's Vardsus,IL,BrewPub,-88.3077200091,41.8877644195,60134,2006,2015,170898526013011,17089852601
306 W. State Street,Geneva,Stockholm's Vardsus,IL,BrewPub,-88.3083238,41.8877604,60134,2005,2005,170898526013010,17089852601
127 South Grove Ave.,Elgin,Prairie Rock Brewing Co.,IL,BrewPub,-88.2818123,42.0346724,60120,2005,2005,170898546002036,17089854600
127 S. Grove Ave.,Elgin,Prairie Rock Brewing Co.,IL,BrewPub,-88.2816108867,42.0344701101,60120,2006,2008,170898546002054,17089854600
441 W. Bonner Rd.,Wauconda,Small Town Brewery,IL,MicroBrewery,-88.150657,42.2777,60084,2012,2013,170978642051059,17097864205
"1000 Brown St., Suite 212",Wauconda,Small Town Brewery,IL,MicroBrewery,-88.151442,42.274353,60084,2014,2015,170978642051116,17097864205
9520 W. Higgins Rd.,Rosemont,Ram Restaurant & Brewery,IL,BrewPub,-87.8630636949,41.9926432255,60018,2007,2015,170317707001001,17031770700
9520 Higgins Rd.,Rosemont,Ram Restaurant & Brewery,IL,BrewPub,-87.8633927,41.9937762,60018,2005,2006,170317707001001,17031770700
105 Hollywood Blvd.,South Barrington,Brass Restaurant & Brewery,IL,BrewPub,-88.1473179742,42.0688219637,60010,2006,2015,170318042013024,17031804201
22221 N. Pepper Rd.,Lake Barrington,Onion Pub Restaurant & Brewery,IL,BrewPub,-88.1844690094,42.1864194916,60010,2006,2015,170978643071011,17097864307
22221 North Pepper Road,Lake Barrington,Onion Pub Restaurant & Brewery,IL,BrewPub,-88.1833268,42.1866726,60010,2005,2005,170978643071011,17097864307
105 Hollywood Boulevard,South Barrington,Brass Restaurant & Brewery,IL,BrewPub,-88.144299,42.070986,60010,2005,2005,170318042013024,17031804201
2 Central Ave.,Whitefish,Great Northern Brewing Co.,MT,MicroBrewery,-114.33682647,48.4123544913,59937,2006,2015,300290004023007,30029000402
2 Central Avenue,Whitefish,Great Northern Brewing Co.,MT,MicroBrewery,-114.3372852,48.412315,59937,2005,2005,300290004023007,30029000402
285 N. Main,Kalispell,Barley's Brewhouse & Grill,MT,BrewPub,-114.314871,48.202789,59901,2005,2006,300290009003046,30029000900
285 N. Main St.,Kalispell,Barley's Brewhouse & Grill,MT,BrewPub,-114.315329117,48.2028531005,59901,2007,2009,300290009004023,30029000900
6 10th Avenue East,Polson,Glacier Brewing Co.,MT,MicroBrewery,-114.162841,47.685975,59860,2005,2005,300479403035088,30047940303
6 10th Ave. E.,Polson,Glacier Brewing Co.,MT,MicroBrewery,-114.16339751,47.6861902236,59860,2006,2015,300479403035073,30047940303
101 Marcus Street,Hamilton,Bitter Root Brewing,MT,MicroBrewery,-114.1542115,46.2472779,59840,2005,2005,300810006001051,30081000600
101 Marcus St.,Hamilton,Bitter Root Brewing,MT,MicroBrewery,-114.153976626,46.2476302953,59840,2006,2015,300810006001051,30081000600
120 Hickory Street,Missoula,Big Sky Brewing Co.,MT,MicroBrewery,-114.0057897,46.87063,59801,2005,2005,300630007001009,30063000700
602 Myrtle Street,Missoula,Kettlehouse Brewing Co.,MT,MicroBrewery,-113.9987713,46.865937,59801,2005,2005,300630007002016,30063000700
602 Myrtle St.,Missoula,Kettlehouse Brewing Co.,MT,MicroBrewery,-113.998939555,46.8658760898,59801,2006,2015,300630007002015,30063000700
120 Hickory St.,Missoula,Big Sky Brewing Co.,MT,MicroBrewery,-114.006343989,46.8704402387,59801,2006,2006,300630007001010,30063000700
139 N. Canyon Street,West Yellowstone,Wolfpack Brewing Co.,MT,BrewPub,-111.0994608,44.6620529,59758,2005,2005,300310015001027,30031001500
139 N. Canyon St.,West Yellowstone,Wolfpack Brewing Co.,MT,BrewPub,-111.099677311,44.6580133028,59758,2006,2010,300310015001080,30031001500
401 E. Main Street,Belgrade,Big Hole Brewing Co.,MT,MicroBrewery,-111.1715423,45.7735956,59714,2005,2005,300310001032061,30031000103
20900 Frontage Rd.,Belgrade,Lightning Boy Brewery,MT,MicroBrewery,-111.165697323,45.7705756769,59714,2006,2015,300310001032094,30031000103
20900 Frontage Road,Belgrade,Lightning Boy Brewery,MT,MicroBrewery,-111.1651605,45.7700427,59714,2005,2005,300310001033015,30031000103
401 E. Main St.,Belgrade,Big Hole Brewing Co.,MT,MicroBrewery,-111.171154819,45.7739751886,59714,2006,2011,300310001032061,30031000103
54 S. Park Ave.,Helena,Blackfoot River Brewing,MT,MicroBrewery,-112.040904215,46.5874620007,59601,2006,2015,300490007001012,30049000700
54 South Park Avenue,Helena,Blackfoot River Brewing,MT,MicroBrewery,-112.0416433,46.5864494,59601,2005,2005,300490007001012,30049000700
57 Castner St.,Belt,Harvest Moon Brewing Co.,MT,MicroBrewery,-110.929181633,47.3857305676,59412,2006,2015,300130106002024,30013010600
57 Castner Street,Belt,Harvest Moon Brewing Co.,MT,MicroBrewery,-110.926535,47.386581,59412,2005,2005,300130106002044,30013010600
1014 South Haynes Avenue,Miles City,Milestown Brewing @ Golden Spur Casino,MT,BrewPub,-105.8226092,46.3990436,59301,2005,2005,300179619002007,30017961900
1014 S. Haynes Ave.,Miles City,Milestown Brewing @ Golden Spur Casino,MT,BrewPub,-105.822476256,46.3989969141,59301,2006,2008,300179619002007,30017961900
2405 1st Avenue North,Billings,Angry Hanks Taproom,MT,BrewPub,-108.5009,45.7845,59101,2007,2015,301110004023022,30111000402
2123 1st Ave. N.,Billings,Yellowstone Valley Brewing Co.,MT,BrewPub,-108.497562011,45.7862720556,59101,2006,2015,301110002003081,30111000200
2123 1st Avenue N.,Billings,Yellowstone Valley Brewing Co.,MT,MicroBrewery,-108.498138,45.786058,59101,2005,2005,301110002003081,30111000200
20 N. 30th St.,Billings,Angry Hanks Taproom,MT,MicroBrewery,-108.507571,45.780274,59101,2013,2015,301110004023054,30111000402
417 N. Broadway,Red Lodge,Red Lodge Ales Brewing Co.,MT,MicroBrewery,-109.24729,45.192174,59068,2005,2011,300090003002005,30009000300
1445 N. Broadway,Red Lodge,Red Lodge Ales Brewing Co.,MT,MicroBrewery,-109.246619,45.19655,59068,2012,2015,300090003001009,30009000300
58 Broad St.,Lyndonville,Trout River Brewing Co.,VT,MicroBrewery,-72.001219517,44.5204597846,5851,2006,2015,500059573002041,50005957300
58 Broad Street,Lyndonville,Trout River Brewing Co.,VT,MicroBrewery,-72.001401,44.520297,5851,2005,2005,500059573002041,50005957300
1636 42nd St. SW,Fargo,Granite City Food & Brewery ,ND,BrewPub,-96.8510098855,46.8559169012,58103,2006,2015,380170101061055,38017010106
1636 SW 42nd Street,Fargo,Granite City Food & Brewery ,ND,BrewPub,-96.8501189,46.855935,58103,2005,2005,380170101061055,38017010106
349 Main Street,Hill City,Mt. Rushmore Brewing Co.,SD,BrewPub,-103.5760685,43.9299033,57745,2005,2005,461030117002052,46103011700
349 Main St.,Hill City,Mt. Rushmore Brewing Co.,SD,BrewPub,-103.575556725,43.9317104838,57745,2006,2006,461030117002050,46103011700
610 Main St.,Rapid City,Firehouse Brewing Co.,SD,BrewPub,-103.227103939,44.0810908355,57701,2006,2015,461030102002006,46103010200
610 Main Street,Rapid City,Firehouse Brewing Co.,SD,BrewPub,-103.2275473,44.0813889,57701,2005,2005,461030102002006,46103010200
127 North Broadway,Watertown,Dempsey's Brewery & Pub Restaurant,SD,BrewPub,-97.1141406,44.9029428,57201,2005,2005,460299544002002,46029954400
127 N. Broadway,Watertown,Dempsey's Brewery & Pub Restaurant,SD,BrewPub,-97.1140664075,44.9022241932,57201,2006,2015,460299544002002,46029954400
23 S. Main St.,Waterbury,Alchemist Pub & Brewery,VT,BrewPub,-72.7563505827,44.337593901,5676,2006,2011,500239543004011,50023954300
23 South Main Street,Waterbury,Alchemist Pub & Brewery,VT,BrewPub,-72.7560944,44.3371394,5676,2005,2005,500239543004013,50023954300
1859 Mountain Rd.,Stowe,Shed Restaurant & Brewery,VT,BrewPub,-72.7115208141,44.4735405444,5672,2006,2015,500159536003014,50015953600
1859 Mountain Road,Stowe,Shed Restaurant & Brewery,VT,BrewPub,-72.713977,44.473824,5672,2005,2005,500159536003014,50015953600
219 N. Red River Ave.,Cold Spring,Gluek Brewing Co.,MN,MicroBrewery,-94.429273601,45.4582544402,56320,2006,2015,271450113022046,27145011302
219 N. Red River Avenue,Cold Spring,Gluek Brewing Co.,MN,MicroBrewery,-94.42905,45.4582466,56320,2005,2005,271450113022046,27145011302
3308 3rd St. N.,St. Cloud,O'Hara's Brewpub & Restaurant,MN,BrewPub,-94.1985560757,45.5584840112,56303,2006,2008,271450006012009,27145000601
3308 3rd Street North,St. Cloud,O'Hara's Brewpub & Restaurant,MN,BrewPub,-94.1983753,45.5585683,56303,2005,2005,271450006012009,27145000601
1429 Service Dr.,Winona,Wellington's Backwater Brewing Co.,MN,BrewPub,-91.675637,44.047111,55987,2012,2015,271696703002022,27169670300
1455 Service Dr.,Winona,Wellington's Backwater Brewing Co.,MN,BrewPub,-91.6773853,44.0486648,55987,2005,2011,271696703002004,27169670300
105 East Fifth Street,Mantorville,Mantorville Brewing Co.,MN,MicroBrewery,-92.7409006,44.0674392,55955,2005,2005,270399501003065,27039950100
105 E. 5th St.,Mantorville,Mantorville Brewing Co.,MN,MicroBrewery,-92.7565599845,44.0665617168,55955,2006,2015,270399501003052,27039950100
2711 West Superior Street,Duluth,Lake Superior Brewing Co.,MN,MicroBrewery,-92.1325495,46.7606355,55806,2005,2005,271370156002021,27137015600
2711 W. Superior St.,Duluth,Lake Superior Brewing Co.,MN,MicroBrewery,-92.1319022165,46.7610027323,55806,2006,2015,271370156002020,27137015600
600 E. Superior St.,Duluth,Fitger's Brewhouse,MN,BrewPub,-92.0908390776,46.7919659541,55802,2006,2015,271370017002019,27137001700
600 E. Superior Street,Duluth,Fitger's Brewhouse,MN,BrewPub,-92.0906002,46.7923757,55802,2005,2005,271370017002019,27137001700
2922 Lyndale Avenue ,South Minneapolis,Herkimer Pub & Brewery ,MN,BrewPub,-93.2885127,44.9491662,55408,2005,2005,270530077002015,27053007700
2922 Lyndale Ave. South,Minneapolis,Herkimer Pub & Brewery ,MN,BrewPub,-93.2882960532,44.9495856734,55408,2006,2015,270530077002015,27053007700
16 N. 6th St.,Minneapolis,Gluek's Bar & Restaurant,MN,BrewPub,-93.2737982258,44.9791115742,55403,2006,2010,270531261003015,27053126100
16 North 6th Street,Minneapolis,Gluek's Bar & Restaurant,MN,BrewPub,-93.274181,44.979303,55403,2005,2005,270531261003015,27053126100
430 1st Ave. North ,Minneapolis,District Warehouse Brewing Company ,MN,BrewPub,-93.2735726,44.9808684,55401,2005,2005,270531261003006,27053126100
430 1st Ave. N. ,Minneapolis,District Warehouse Brewing Company ,MN,BrewPub,-93.27303269,44.9810543301,55401,2006,2006,270531261003006,27053126100
7855 Elm Creek Boulevard ,Maple Grove,Hops Restaurant and Brewery ,MN,BrewPub,-93.450007,45.097594,55369,2005,2005,270530267105011,27053026710
11909 Main Street N.,Maple Grove,Granite City Food & Brewery ,MN,BrewPub,-93.4319936,45.0904761,55369,2005,2005,270530267105011,27053026710
11909 Main St. N.,Maple Grove,Granite City Food & Brewery ,MN,BrewPub,-93.44113586,45.0940760667,55369,2006,2015,270530267105015,27053026710
7855 Elm Creek Blvd. ,Maple Grove,Hops Restaurant and Brewery ,MN,BrewPub,-93.4492362461,45.0970002888,55369,2006,2008,270530267105011,27053026710
164 North Snelling Avenue,St. Paul,O'Gara's Bar & Grill,MN,BrewPub,-93.1666046,44.9462724,55104,2005,2005,271230352001005,27123035200
164 N. Snelling Ave.,St. Paul,O'Gara's Bar & Grill,MN,BrewPub,-93.1666931479,44.9461155888,55104,2006,2007,271230352001005,27123035200
426 St. Peter Street ,St. Paul,Great Waters Brewing Company ,MN,BrewPub,-93.0968155,44.9467327,55102,2005,2005,271230342011037,27123034201
426 St. Peter St. ,St. Paul,Great Waters Brewing Company ,MN,BrewPub,-93.097074986,44.9467686111,55102,2006,2015,271230342011037,27123034201
4301 W. Wisconsin Ave.,Appleton,Fox River Brewing Co.,WI,BrewPub,-88.4690056377,44.2731203849,54915,2006,2015,550870125062013,55087012506
4301 W. Wisconsin,Appleton,Fox River Brewing Co.,WI,BrewPub,-88.4700678,44.2696721,54915,2005,2005,550870125062025,55087012506
808 W. Main St.,Ashland,Deep Water Grille & South Shore Brewery,WI,BrewPub,-90.8921902,46.5873176,54806,2005,2005,550039504003013,55003950400
808 Main St. W.,Ashland,Deep Water Grille & South Shore Brewery,WI,BrewPub,-90.8918808417,46.5875063359,54806,2006,2015,550039504003013,55003950400
234 Dallas St. W,Dallas,Viking Brewing Co.,WI,MicroBrewery,-91.818056,45.258505,54733,2005,2005,550050009005073,55005000900
234 W. Dallas St.,Dallas,Viking Brewing Co.,WI,MicroBrewery,-91.8152605032,45.2592193097,54733,2006,2015,550050009005064,55005000900
840 25 5/8 Street,Chetek,Northwoods Brewpub at Pokegama,WI,BrewPub,-91.631534,45.326042,54728,2005,2005,550050010023002,55005001002
840 25 5/8 St.,Chetek,Northwoods Brewpub at Pokegama,WI,BrewPub,-91.6315194655,45.3263435943,54728,2006,2008,550050010023002,55005001002
320 S. Pierce St.,Black River Falls,Sand Creek Brewing Co.,WI,MicroBrewery,-90.8511256227,44.2928322544,54615,2006,2015,550539605004001,55053960500
320 S. Pierce,Black River Falls,Sand Creek Brewing Co.,WI,MicroBrewery,-90.8516272,44.2926728,54615,2005,2005,550539605004001,55053960500
200 Main St.,La Crosse,Doc Powell's Brewing Co.,WI,BrewPub,-91.2532914387,43.8129352593,54601,2006,2006,550630003001065,55063000300
200 Main Street,La Crosse,Doc Powell's Brewing Co.,WI,BrewPub,-91.2536949,43.813006,54601,2005,2005,550630003001065,55063000300
5 Main St. ,Bristol,Bobcat Cafe & Brewery ,VT,BrewPub,-73.0785328565,44.1329124185,5443,2006,2015,500019605001020,50001960500
5 Main Street ,Bristol,Bobcat Cafe & Brewery ,VT,BrewPub,-73.0781451,44.132911,5443,2005,2005,500019605001020,50001960500
2201 Sherman Street,Wausau,Hereford & Hops Restaurant & Brewpub,WI,BrewPub,-89.6621525,44.9518397,54401,2005,2005,550730006012011,55073000601
2201 Sherman St.,Wausau,Hereford & Hops Restaurant & Brewpub,WI,BrewPub,-89.6629870284,44.9515328965,54401,2006,2008,550730006012011,55073000601
2840 Shawano Avenue,Green Bay,Legends Brewhouse & Eatery,WI,BrewPub,-88.0975927,44.5532643,54313,2005,2005,550090205033015,55009020503
2840 Shawano Ave.,Green Bay,Legends Brewhouse & Eatery,WI,BrewPub,-88.0985600045,44.553142111,54313,2006,2015,550090205033015,55009020503
313 Dousman St.,Green Bay,Hinterland Brewery Restaurant Lounge,WI,BrewPub,-88.0194679069,44.5190051431,54303,2006,2015,550090008001004,55009000800
200 Dousman St.,Green Bay,Titletown Brewing Co.,WI,BrewPub,-88.0188693928,44.5191077682,54303,2006,2015,550090001001059,55009000100
313 Dousman Street,Green Bay,Hinterland Brewery Restaurant Lounge,WI,BrewPub,-88.019631,44.5189329,54303,2005,2005,550090008001004,55009000800
200 Dousman Street,Green Bay,Titletown Brewing Co.,WI,BrewPub,-88.0178045,44.519455,54303,2005,2005,550090001001059,55009000100
701 W. Glendale Ave. ,Milwaukee,Sprecher Brewing Co.,WI,MicroBrewery,-87.9192756756,43.1001028402,54209,2006,2015,550790602002041,55079060200
7791 Egg Harbor Rd.,Egg Harbor,Shipwrecked Brew Pub Restaurant & Inn,WI,BrewPub,-87.2805386576,45.0496440285,54209,2006,2015,550291004002076,55029100400
7791 Egg Harbor Road,Egg Harbor,Shipwrecked Brew Pub Restaurant & Inn,WI,BrewPub,-87.2802958,45.0495318,54209,2005,2005,550291004002076,55029100400
701 W. Glendale Avenue ,Milwaukee,Sprecher Brewing Co.,WI,MicroBrewery,-87.919625,43.099589,54209,2005,2005,550790602002041,55079060200
2299 Brewery Lane,Florence,Nicolet Brewing Co.,WI,BrewPub,-88.2393788,45.9263826,54121,2005,2010,550371901002002,55037190100
3578 Brewery Lane,Florence,Nicolet Brewing Co.,WI,BrewPub,-88.292191,45.889953,54121,2011,2013,550371901003015,55037190100
875 Heritage Road,DePere,Legends Brewhouse & Eatery,WI,BrewPub,-88.0577454,44.4288856,54115,2005,2005,550090103003032,55009010300
875 Heritage Rd.,DePere,Legends Brewhouse & Eatery,WI,BrewPub,-88.0587375695,44.4280919329,54115,2006,2015,550090103003032,55009010300
5 Bartlett Bay Rd. ,South Burlington,Magic Hat Brewing Company ,VT,MicroBrewery,-73.2117991326,44.4285910509,5403,2006,2015,500070033042021,50007003304
5 Bartlett Bay Road ,South Burlington,Magic Hat Brewing Company ,VT,MicroBrewery,-73.2131557,44.4284066,5403,2005,2005,500070033042021,50007003304
144 College St. ,Burlington,Vermont Pub and Brewery ,VT,BrewPub,-73.2140370429,44.477254949,5401,2006,2015,500070010001020,50007001000
160 Flynn Ave. ,Burlington,Switchback Brewing Company ,VT,MicroBrewery,-73.219794363,44.4558518566,5401,2006,2015,500070010002008,50007001000
144 College Street ,Burlington,Vermont Pub and Brewery ,VT,BrewPub,-73.214394,44.477262,5401,2005,2005,500070010001019,50007001000
207 College St.,Burlington,Three Needs Brewery & Taproom,VT,BrewPub,-73.211455802,44.4770475614,5401,2006,2012,500070010001023,50007001000
160 Flynn Avenue ,Burlington,Switchback Brewing Company ,VT,MicroBrewery,-73.220686,44.456184,5401,2005,2005,500070010002008,50007001000
207 College Street,Burlington,Three Needs Brewery & Taproom,VT,BrewPub,-73.2114261,44.4770773,5401,2005,2005,500070010001023,50007001000
1020 E. Main St.,Reedsburg,Corner Pub,WI,BrewPub,-89.9961725434,43.5321285252,53959,2006,2015,551110010022045,55111001002
1020 E. Main Street,Reedsburg,Corner Pub,WI,BrewPub,-89.9959408,43.5321195,53959,2005,2005,551110010022045,55111001002
2002 Pankratz St.,Madison,Ale Asylum,WI,BrewPub,-89.35292,43.120966,53704,2013,2015,550250025002007,55025002500
3698 Kinsman Blvd.,Madison,Ale Asylum,WI,MicroBrewery,-89.3268,43.1257,53704,2007,2015,550250025001076,55025002500
3 N. Main Street,Wilmington,Maple Leaf Malt & Brewing,VT,BrewPub,-72.8706801,42.8684739,5363,2005,2005,500259680002008,50025968000
3 N. Main St.,Wilmington,Maple Leaf Malt & Brewing,VT,BrewPub,-72.8697346779,42.869058438,5363,2006,2009,500259680002008,50025968000
105 S. Second Street,Mt. Horeb,Grumpy Troll,WI,BrewPub,-89.738062,43.008107,53572,2005,2005,550250128003013,55025012800
105 S. Second St.,Mt. Horeb,Grumpy Troll,WI,BrewPub,-89.7382625935,43.0082986813,53572,2006,2006,550250128003005,55025012800
1025 Owen Street,Lake Mills,Tyranena Brewing Co.,WI,MicroBrewery,-88.8968103,43.0862454,53551,2005,2005,550551005002012,55055100500
1025 Owen St.,Lake Mills,Tyranena Brewing Co.,WI,MicroBrewery,-88.895284253,43.0867717484,53551,2006,2015,550551005002013,55055100500
735 E Center Street ,Milwaukee,Onopa Brewing Company ,WI,BrewPub,-87.9018211,43.0672995,53212,2005,2005,550790080002001,55079008000
1872 N. Commerce Street ,Milwaukee,Lakefront Brewery ,WI,MicroBrewery,-87.905173,43.054752,53212,2005,2005,550790114001012,55079011400
735 E Center St. ,Milwaukee,Onopa Brewing Company ,WI,BrewPub,-87.9025247142,43.0673555136,53212,2006,2015,550790080002001,55079008000
1872 N. Commerce St. ,Milwaukee,Lakefront Brewery ,WI,MicroBrewery,-87.9055744541,43.054841743,53212,2006,2015,550790114001012,55079011400
740 N. Plankinton Ave. ,Milwaukee,Rock Bottom Restaurant & Brewery ,WI,BrewPub,-87.911717623,43.0392679248,53203,2006,2015,550791863002024,55079186300
740 N. Plankinton Avenue ,Milwaukee,Rock Bottom Restaurant & Brewery ,WI,BrewPub,-87.9114977,43.0397345,53203,2005,2005,550791863002024,55079186300
223 N. Water Street ,Milwaukee,Milwaukee Ale House ,WI,BrewPub,-87.9095986,43.0331327,53202,2005,2005,550791874001055,55079187400
1101 N. Water Street ,Milwaukee,Water Street Brewery ,WI,BrewPub,-87.9112757,43.0448129,53202,2005,2005,550790144001003,55079014400
1101 N. Water St. ,Milwaukee,Water Street Brewery ,WI,BrewPub,-87.9113675265,43.0445526972,53202,2006,2015,550790144001008,55079014400
223 N. Water St. ,Milwaukee,Milwaukee Ale House ,WI,BrewPub,-87.9096849903,43.0327497217,53202,2006,2015,550791874001055,55079187400
1327 N. 14th St.,Sheboygan,Hops Haven Brew Haus,WI,BrewPub,-87.7225654581,43.7587831719,53081,2006,2010,551170005001016,55117000500
1327 N. 14th Street,Sheboygan,Hops Haven Brew Haus,WI,BrewPub,-87.7225846,43.7594231,53081,2005,2005,551170005001016,55117000500
750 E. Wisconsin Ave.,Oconomowoc,Oconomowoc Brewing Co.,WI,MicroBrewery,-88.4889382935,43.1075020014,53066,2006,2006,551332043014032,55133204301
750 E. Wisconsin Avenue,Oconomowoc,Oconomowoc Brewing Co.,WI,MicroBrewery,-88.486693,43.1075287,53066,2005,2005,551332043014025,55133204301
25 N. Madison St.,Chilton,Rowland's Calumet Brewing Co./Roll Inn,WI,BrewPub,-88.1630244023,44.0295050009,53014,2006,2015,550150205002055,55015020500
25 N. Madison,Chilton,Rowland's Calumet Brewing Co./Roll Inn,WI,BrewPub,-88.163129,44.029302,53014,2005,2005,550150205002054,55015020500
90 Elliot St.,Brattleboro,McNeill's Brewery,VT,BrewPub,-72.5598765194,42.8516242635,5301,2006,2015,500259685002006,50025968500
90 Elliot Street,Brattleboro,McNeill's Brewery,VT,BrewPub,-72.5600685,42.8515972,5301,2005,2005,500259685002006,50025968500
208 E. River Dr.,Davenport,Front Street Brewery,IA,BrewPub,-90.572731877,41.5201866282,52801,2006,2015,191630109001071,19163010900
208 East River Dr.,Davenport,Front Street Brewery,IA,BrewPub,-90.572185,41.52055,52801,2005,2005,191630109001063,19163010900
723-725 Avenue H,Fort Madison,Lost Duck Brewery,IA,BrewPub,-91.3107626,40.6301768,52627,2005,2005,191114902002078,19111490200
723-725 Ave. H,Fort Madison,Lost Duck Brewery,IA,BrewPub,-91.3101609967,40.6300939959,52627,2006,2015,191114902002078,19111490200
525 S. Gilbert St.,Iowa City,Old Capitol Brew Works & Public House,IA,BrewPub,-91.5303386172,41.6550347884,52240,2006,2015,191030016001000,19103001600
525 S. Gilbert Street,Iowa City,Old Capitol Brew Works & Public House,IA,BrewPub,-91.5305168,41.6546764,52240,2005,2005,191030016001000,19103001600
428 Main Street,Bennington,Madison Brewing Co.,VT,BrewPub,-73.196419,42.8783839,5201,2005,2005,500039712006004,50003971200
428 Main St.,Bennington,Madison Brewing Co.,VT,BrewPub,-73.1964009401,42.8783223801,5201,2006,2015,500039712006004,50003971200
101 N Railroad Street,Shenandoah,Depot Deli & Lounge,IA,BrewPub,-95.3769919,40.7649898,51601,2005,2005,191454903002002,19145490300
101 N. Railroad St.,Shenandoah,Depot Deli & Lounge,IA,BrewPub,-95.3767365274,40.7648551799,51601,2006,2015,191454903002001,19145490300
336 Ruth Carney Dr.,Windsor,Harpoon Brewery,VT,MicroBrewery,-72.4014641397,43.5136105772,5089,2006,2015,500279660001002,50027966000
336 Ruth Carney,Windsor,Harpoon Brewery,VT,BrewPub,-72.4016913,43.5130201,5089,2005,2005,500279660001002,50027966000
325 Main St.,Norwich,Jasper Murdock's Aleshouse @ Norwich Inn,VT,BrewPub,-72.3088250744,43.7151779343,5055,2006,2015,500279650002084,50027965000
325 Main Street,Norwich,Jasper Murdock's Aleshouse @ Norwich Inn,VT,BrewPub,-72.3090578,43.7150796,5055,2005,2005,500279650002084,50027965000
12801 University Ave. SE ,Clive,Granite City Food & Brewery ,IA,BrewPub,-93.7944933937,41.6005270516,50325,2006,2015,191530112032012,19153011203
12801 University Avenue SE ,Clive,Granite City Food & Brewery ,IA,BrewPub,-93.7949935,41.600935,50325,2005,2005,191530112032012,19153011203
309 Court Ave. ,Des Moines,Court Avenue Brewing Company ,IA,BrewPub,-93.620565637,41.5852140252,50309,2006,2015,191530051003046,19153005100
309 Court Avenue ,Des Moines,Court Avenue Brewing Company ,IA,BrewPub,-93.6208808,41.5856426,50309,2005,2005,191530051003027,19153005100
4508 University Ave. ,West Des Moines,Rock Bottom Restaurant & Brewery ,IA,BrewPub,-93.766483698,41.6002277602,50266,2006,2015,191530111141017,19153011114
4508 University Avenue ,Des Moines,Rock Bottom Restaurant & Brewery ,IA,BrewPub,-93.765648,41.5991465,50266,2005,2005,191530111141017,19153011114
408 Shelden Avenue,Houghton,Keweenaw Brewing Co.,MI,MicroBrewery,-88.5687572,47.1220815,49931,2005,2005,260610008004007,26061000800
52 N. Isle Royale St.,Houghton,Library Bar & Restaurant,MI,BrewPub,-88.5671862053,47.1224285726,49931,2006,2008,260610008004002,26061000800
52 North Isle Royale Street,Houghton,Library Bar & Restaurant,MI,BrewPub,-88.5669052,47.1221078,49931,2005,2005,260610008004008,26061000800
408 Shelden Ave.,Houghton,Keweenaw Brewing Co.,MI,MicroBrewery,-88.5693192219,47.1223220874,49931,2006,2015,260610008004007,26061000800
400 W. Front St.,Traverse City,North Peak Brewing Co.,MI,BrewPub,-85.628453109,44.7643270754,49864,2006,2015,260555515003039,26055551500
400 West Front Street,Traverse City,North Peak Brewing Co.,MI,BrewPub,-85.6285292,44.7643153,49864,2005,2005,260555515003039,26055551500
Route 201,The Forks,Kennebec River Brewery,ME,BrewPub,-69.9739974,45.3428109,4985,2005,2005,230259653023039,23025965302
1771 Route 201,The Forks,Kennebec River Brewery,ME,BrewPub,-69.9873733521,45.2142733155,4985,2006,2011,230259653023134,23025965302
N-14283 Lake Avenue,Grand Marais ,Lake Superior Brewing Co.,MI,BrewPub,-85.9849304,46.6708093,49839,2005,2005,260030001001062,26003000100
N-14283 Lake Ave.,Grand Marais ,Lake Superior Brewing Co.,MI,BrewPub,-85.9852647002,46.6722074702,49839,2006,2015,260030001001061,26003000100
318 W. Fletcher St.,Alpena,Fletcher Street Brewing Co.,MI,BrewPub,-83.4321,45.0665,49707,2007,2008,260070004003024,26007000400
124 W. Fletcher St.,Alpena,Fletcher Street Brewing Co.,MI,BrewPub,-83.430058,45.064724,49707,2009,2015,260070004003024,26007000400
5690 U.S. 31 North,Williamsburg,Bravo Zulu Brewing,MI,MicroBrewery,-85.503499,44.769432,49690,2014,2014,260555501021089,26055550102
6060 U.S. 31 North,Williamsburg,Bravo Zulu Brewing,MI,Brewery,-85.499405,44.774927,49690,2015,2015,260555501021020,26055550102
161 East Front Street,Traverse City,Mackinaw Brewing Co.,MI,BrewPub,-85.6212413,44.7642992,49684,2005,2005,260555512001011,26055551200
161 E. Front St.,Traverse City,Mackinaw Brewing Co.,MI,BrewPub,-85.6220959511,44.7643691588,49684,2006,2015,260555512001011,26055551200
121 N. Bridge St.,Bellaire,Short's Brewing Co.,MI,BrewPub,-85.2104887122,44.976737669,49615,2006,2015,260099604001089,26009960400
121 North Bridge Street,Bellaire,Short's Brewing Co.,MI,BrewPub,-85.2104208,44.976252,49615,2005,2005,260099604001098,26009960400
25 Ionia Ave. SW,Grand Rapids,HopCat Brewing Co.,MI,BrewPub,-85.670406,42.962348,49503,2011,2015,260810020002005,26081002000
25 Ionia SW,Grand Rapids,HopCat Brewing Co.,MI,BrewPub,-85.670406,42.962348,49503,2009,2010,260810020002005,26081002000
648 Monroe Ave. NW,Grand Rapids,Founders Brewing Co.,MI,MicroBrewery,-85.6723426908,42.974265912,49503,2006,2008,260810014001029,26081001400
648 Monroe Avenue NW,Grand Rapids,Founders Brewing Co.,MI,MicroBrewery,-85.6721779,42.9748694,49503,2005,2005,260810014001029,26081001400
971 W. Savidge St.,Spring Lake,Old Boys' Brew House,MI,BrewPub,-86.211408972,43.076438948,49456,2015,2015,261390211001025,26139021100
971 West Savidge,Spring Lake,Old Boys' Brew House,MI,BrewPub,-86.2127575,43.0769329,49456,2005,2005,261390211001025,26139021100
971 W. Savidge,Spring Lake,Old Boys' Brew House,MI,BrewPub,-86.211408972,43.076438948,49456,2006,2014,261390211001025,26139021100
410 S. James St.,Ludington,Jamesport Brewing Co.,MI,BrewPub,-86.4481203641,43.952346573,49431,2006,2015,261059505001057,26105950500
410 South James Street,Ludington,Jamesport Brewing Co.,MI,BrewPub,-86.4480145,43.9521957,49431,2005,2005,261059505001057,26105950500
684 Commerce St.,Holland,New Holland Brewing Co.,MI,Brewery,-86.114154,42.818513,49424,2015,2015,261390222031000,26139022203
690 Commerce St.,Holland,New Holland Brewing Co.,MI,MicroBrewery,-86.113379,42.817528,49424,2009,2014,261390222031000,26139022203
13 W. 7th St.,Holland,Via Maria,MI,BrewPub,-86.1080723961,42.791344688,49423,2006,2008,261390249002019,26139024900
13 West 7th Street,Holland,Via Maria,MI,BrewPub,-86.1079063,42.7914589,49423,2005,2005,261390249002019,26139024900
100 Searsport Avenue,Belfast,Belfast Bay Brewing Co.,ME,MicroBrewery,-68.9749966,44.4294813,4915,2005,2005,230270430001060,23027043000
511 S. Kalamazoo St.,Marshall,Dark Horse Brewing Co.,MI,MicroBrewery,-84.9639648579,42.2665229912,49068,2006,2015,260250040003022,26025004000
511 South Kalamazoo Street,Marshall,Dark Horse Brewing Co.,MI,MicroBrewery,-84.9635125,42.2667135,49068,2005,2005,260250040003022,26025004000
114 North Main Street,Lawton,Old Hat Brewery & Grill,MI,BrewPub,-85.8497241,42.1682616,49065,2005,2005,261590110023062,26159011002
114 N. Main St.,Lawton,Old Hat Brewery & Grill,MI,BrewPub,-85.8495003401,42.1682190712,49065,2006,2011,261590110023062,26159011002
103 W. Michigan Avenue,Battle Creek,Arcadia Brewing Co.,MI,BrewPub,-85.1854217,42.3219344,49017,2005,2005,260250041001028,26025004100
103 W. Michigan Ave.,Battle Creek,Arcadia Brewing Co.,MI,BrewPub,-85.1849568743,42.32184921,49017,2006,2015,260250041001029,26025004100
402 E. Kalamazoo Ave.,Kalamazoo,Kraftbrau Brewery,MI,BrewPub,-85.5779781115,42.2941087087,49007,2006,2007,260770002011030,26077000201
200 East Michigan Avenue,Kalamazoo,Olde Peninsula Brewpub & Restaurant,MI,BrewPub,-85.5814087,42.2916059,49007,2005,2005,260770002011050,26077000201
200 E. Michigan Ave.,Kalamazoo,Olde Peninsula Brewpub & Restaurant,MI,BrewPub,-85.5817868146,42.2912635505,49007,2006,2015,260770002011051,26077000201
402 E. Kalamazoo Avenue,Kalamazoo,Kraftbrau Brewery,MI,BrewPub,-85.5780794,42.2943055,49007,2005,2005,260770002011030,26077000201
2582 SR-52 North,Webberville,Michigan Brewing Co.,MI,BrewPub,-84.1982429,42.6615281,48892,2005,2006,260650059002070,26065005900
1093 Highview Dr.,Webberville,Michigan Brewing Co.,MI,BrewPub,-84.1926,42.6603,48892,2007,2012,260650059004011,26065005900
131 Albert Avenue,East Lansing,Harper's Restaurant & Brewpub,MI,BrewPub,-84.482714,42.736284,48823,2005,2005,260650041002004,26065004100
131 Albert Ave.,East Lansing,Harper's Restaurant & Brewpub,MI,BrewPub,-84.4834814228,42.7362543161,48823,2006,2015,260650041002004,26065004100
281 Heinlein St.,Frankenmuth,Black Forest Brew Haus & Grill,MI,BrewPub,-83.7331436331,43.3148729191,48734,2006,2015,261450113003039,26145011300
281 Heinlein Street,Frankenmuth,Black Forest Brew Haus & Grill,MI,BrewPub,-83.7380194,43.331691,48734,2005,2005,261450113004034,26145011300
3770 Bailey Road,Sanford,Sanford Lake Bar & Grill,MI,BrewPub,-84.3905355,43.7201644,48657,2005,2005,261112916022003,26111291602
3770 Bailey Rd.,Sanford,Sanford Lake Bar & Grill,MI,BrewPub,-84.3902061328,43.719929152,48657,2006,2008,261112916022003,26111291602
8115 Richardson Rd.,Commerce Township,C.J.'s Brewing Co.,MI,BrewPub,-83.4426065056,42.5770853092,48382,2006,2015,261251344001009,26125134400
8115 Richardson Road,Commerce Township,C.J.'s Brewing Co.,MI,BrewPub,-83.4427843,42.5770306,48382,2005,2005,261251344001009,26125134400
51 N. Saginaw St. ,Pontiac,Bo's Brewery & Bistro ,MI,BrewPub,-83.2924379328,42.6380869763,48342,2006,2013,261251422002008,26125142200
51 North Saginaw Street ,Pontiac,Bo's Brewery & Bistro ,MI,BrewPub,-83.292818,42.638227,48342,2005,2005,261251422002008,26125142200
895 Oakland Avenue ,Pontiac,King Brewery & Pub,MI,MicroBrewery,-83.3173748,42.6575357,48340,2005,2005,261251409001015,26125140900
895 Oakland Ave. ,Pontiac,King Brewery & Pub,MI,MicroBrewery,-83.3171951565,42.6571564412,48340,2006,2009,261251409001015,26125140900
2550 Takata Dr. ,Auburn Hills,Big Buck Brewery & Steakhouse,MI,BrewPub,-83.2420889115,42.6596698308,48326,2006,2007,261251401001054,26125140100
2550 Takata Drive ,Auburn Hills,Big Buck Brewery & Steakhouse,MI,BrewPub,-83.242949,42.65947,48326,2005,2005,261251401001054,26125140100
310 Water Street ,Rochester,Rochester Mills Beer Company ,MI,BrewPub,-83.13148,42.6796102,48308,2005,2005,261251912004018,26125191200
310 Water St. ,Rochester,Rochester Mills Beer Company ,MI,BrewPub,-83.1314564584,42.6794277639,48308,2006,2013,261251912003009,26125191200
511 West Canfield,Detroit,Traffic Jam & Snug ,MI,BrewPub,-83.0658602376,42.3504449275,48201,2006,2015,261635203001003,26163520300
470 West Canfield ,Detroit,Motor City Brewing Works ,MI,MicroBrewery,-83.0660214,42.3518573,48201,2005,2005,261635203001002,26163520300
470 W. Canfield ,Detroit,Motor City Brewing Works ,MI,MicroBrewery,-83.0651315192,42.351865253,48201,2006,2015,261635203001002,26163520300
4268 2nd,Detroit,Traffic Jam & Snug ,MI,BrewPub,-83.0660446,42.3503515,48201,2005,2005,261635203001003,26163520300
166 Maple Street ,Wyandotte,Sports Brew Pub ,MI,BrewPub,-83.1513337,42.2023036,48192,2005,2005,261635807003017,26163580700
166 Maple St. ,Wyandotte,Sports Brew Pub ,MI,BrewPub,-83.1510933186,42.2022637935,48192,2006,2015,261635807003017,26163580700
39550 7 Mile Rd.,Northville,Bonfire Bistro and Brewery,MI,BrewPub,-83.4348073686,42.4251632001,48167,2006,2007,261635602001012,26163560200
39550 7 Mile Road,Northville,Bonfire Bistro and Brewery,MI,BrewPub,-83.434773,42.426124,48167,2005,2005,261635602001012,26163560200
3115 Broad St.,Dexter,Jolly Pumpkin Artisan Ales,MI,MicroBrewery,-83.8895328199,42.33717919,48130,2006,2014,261614540001020,26161454000
3115 Broad Street,Dexter,Jolly Pumpkin Artisan Ales,MI,MicroBrewery,-83.889488,42.337535,48130,2005,2005,261614540001021,26161454000
114 E. Washington St.,Ann Arbor,Arbor Brewing Co.,MI,BrewPub,-83.7483394146,42.2804165185,48104,2006,2015,261614001001018,26161400100
120 West Washington Street,Ann Arbor,Grizzly Peak Brewing Co.,MI,BrewPub,-83.7495927,42.2807621,48104,2005,2005,261614001001015,26161400100
120 W. Washington St.,Ann Arbor,Grizzly Peak Brewing Co.,MI,BrewPub,-83.7488007545,42.2805355861,48104,2006,2015,261614001001015,26161400100
114 E. Washington,Ann Arbor,Arbor Brewing Co.,MI,BrewPub,-83.747817,42.28025,48104,2005,2005,261614001001018,26161400100
5919 Chicago Road ,Warren,Kuhnhenn Brewing Company ,MI,MicroBrewery,-83.0467647,42.5277682,48092,2005,2005,260992607001000,26099260700
5919 Chicago Rd. ,Warren,Kuhnhenn Brewing Company ,MI,MicroBrewery,-83.0467782053,42.5275959615,48092,2006,2015,260992607001000,26099260700
14600 E. 11 Mile Rd. ,Warren,Dragonmead Microbrewery ,MI,MicroBrewery,-82.9738160381,42.4930346041,48089,2006,2015,260992628001004,26099262800
14600 E. Eleven Mile Road ,Warren,Dragonmead Microbrewery ,MI,MicroBrewery,-82.9752289,42.4926954,48089,2005,2005,260992628001004,26099262800
215 E. 4th St. ,Royal Oak,Royal Oak Brewery ,MI,BrewPub,-83.1425447394,42.4872787062,48067,2006,2015,261251844003014,26125184400
419 South Main Street,Royal Oak,Bastone,MI,BrewPub,-83.1438898,42.4865613,48067,2005,2005,261251844003015,26125184400
215 E. 4th Street ,Royal Oak,Royal Oak Brewery ,MI,BrewPub,-83.1423652,42.4875952,48067,2005,2005,261251844003008,26125184400
410 South Washington ,Royal Oak,Lily's Seafood Grill & Brewery ,MI,BrewPub,-83.1469215,42.4868919,48067,2005,2005,261251845001017,26125184500
419 S. Main St.,Royal Oak,Bastone,MI,BrewPub,-83.1438961404,42.4869747546,48067,2006,2015,261251844003015,26125184400
410 S. Washington ,Royal Oak,Lily's Seafood Grill & Brewery ,MI,BrewPub,-83.146602028,42.4869610047,48067,2006,2015,261251845001017,26125184500
330 Quay Street,Port Huron,Quay Street Brewing Co.,MI,BrewPub,-82.4223671,42.9754884,48060,2005,2005,261476250001007,26147625000
330 Quay St.,Port Huron,Quay Street Brewing Co.,MI,BrewPub,-82.4223754413,42.975566325,48060,2006,2015,261476250001007,26147625000
35905 Utica Road,Clinton Township,Great Baraboo Brewing Co. & Restaurant,MI,BrewPub,-82.9654545,42.5602505,48035,2005,2005,260992415001012,26099241500
35905 Utica Rd.,Clinton Township,Great Baraboo Brewing Co. & Restaurant,MI,BrewPub,-82.965230029,42.5601069558,48035,2006,2015,260992415001012,26099241500
245 South Eton Street ,Birmingham,Big Rock Chop & Brew House ,MI,BrewPub,-83.1955013,42.5465535,48009,2005,2005,261251529001001,26125152900
245 S. Eton St. ,Birmingham,Big Rock Chop & Brew House ,MI,BrewPub,-83.1959118814,42.5468754453,48009,2006,2015,261251529001001,26125152900
327 Second St.,Aurora,Great Crescent Brewery,IN,MicroBrewery,-84.900248,39.056443,47001,2009,2010,180290805002066,18029080500
315 Importing St. (State Rte 56),Aurora,Great Crescent Brewery,IN,MicroBrewery,-84.9013402,39.0570022,47001,2011,2015,180290805002058,18029080500
114 N. Main St.,Auburn  ,Mad Anthony Tap Room,IN,BrewPub,-85.0556177217,41.3670208783,46706,2006,2015,180330205002062,18033020500
114 North Main St.,Auburn  ,Mad Anthony Tap Room,IN,BrewPub,-85.0555942,41.3672741,46706,2005,2005,180330205002062,18033020500
5718 S. Franklin St.,Michigan City,Duneland Brewhouse,IN,BrewPub,-86.8937688409,41.6693110501,46360,2006,2006,180910414002006,18091041400
5718 S. Franklin Street,Michigan City,Duneland Brewhouse,IN,BrewPub,-86.8944727,41.6673127,46360,2005,2005,180910414003017,18091041400
9750 Indiana Parkway ,Munster,Three Floyds Brewing Company ,IN,MicroBrewery,-87.516687,41.535536,46321,2005,2005,180890403003036,18089040300
9750 Indiana Pky ,Munster,Three Floyds Brewing Company ,IN,MicroBrewery,-87.5164630813,41.5363083144,46321,2006,2015,180890403003036,18089040300
150 W. 96th St.,Carmel,Granite City Food & Brewery,IN,BrewPub,-86.161719,39.927073,46290,2014,2015,180571111023041,18057111102
150 W. 96th St.,Indianapolis,Granite City Food & Brewery,IN,BrewPub,-86.161719,39.927073,46290,2010,2013,180571111023041,18057111102
140 S. Illinois St. ,Indianapolis,Ram Restaurant & Brewery,IN,BrewPub,-86.1605525135,39.7645552205,46225,2006,2015,180973910003075,18097391000
140 South Illinois Street ,Indianapolis,Ram Restaurant & Brewery,IN,BrewPub,-86.1603589,39.7648669,46225,2005,2005,180973910003075,18097391000
840 E. 65th St. ,Indianapolis,Broad Ripple Brew Pub,IN,BrewPub,-86.1431205728,39.8733770337,46220,2006,2015,180973207001050,18097320700
840 E. 65th Street ,Indianapolis,Broad Ripple Brew Pub,IN,BrewPub,-86.1427793,39.873599,46220,2005,2005,180973207001044,18097320700
10 W. Washington St. ,Indianapolis,Rock Bottom Restaurant & Brewery ,IN,BrewPub,-86.1586794192,39.7669812116,46204,2006,2015,180973910003062,18097391000
10 West Washington Street ,Indianapolis,Rock Bottom Restaurant & Brewery ,IN,BrewPub,-86.1585959,39.7673992,46204,2005,2005,180973910003058,18097391000
102 Eden Street,Bar Harbor,Maine Coast Brewing Co./Jack Russell Brewpub,ME,BrewPub,-68.2263463,44.3960606,4609,2005,2005,230099659003011,23009965900
102 Eden St.,Bar Harbor,Maine Coast Brewing Co./Jack Russell Brewpub,ME,BrewPub,-68.231039725,44.3999571523,4609,2006,2015,230099659004007,23009965900
135 Otter Creek Drive,Bar Harbor,Bar Harbor Brewing Co.,ME,MicroBrewery,-68.2068,44.32683,4609,2005,2005,230099659002114,23009965900
15 Knox Road,Bar Harbor,Atlantic Brewing Co.'s Estate Brewery,ME,BrewPub,-68.3333,44.399624,4609,2005,2005,230099659005089,23009965900
15 Knox Rd.,Bar Harbor,Atlantic Brewing Co.'s Estate Brewery,ME,BrewPub,-68.3340307481,44.4018944763,4609,2006,2015,230099659005084,23009965900
135 Otter Creek Dr.,Bar Harbor,Bar Harbor Brewing Co.,ME,MicroBrewery,-68.2069552263,44.3320916585,4609,2006,2008,230099659003077,23009965900
639 Conner Street ,Noblesville,Barley Island Brewing Company ,IN,BrewPub,-86.0154924,40.0453333,46060,2005,2005,180571107001011,18057110700
639 Conner St. ,Noblesville,Barley Island Brewing Company ,IN,BrewPub,-86.0158642569,40.0455387456,46060,2006,2015,180571107001011,18057110700
167 Front St.,Marietta,Marietta Brewing Co.,OH,BrewPub,-81.4535103228,39.4117460412,45750,2006,2015,391670205002018,39167020500
167 Front Street,Marietta,Marietta Brewing Co.,OH,BrewPub,-81.4536359,39.4118563,45750,2005,2005,391670205002018,39167020500
24 West Union Street,Athens,O'Hooley's Pub & Brewery,OH,BrewPub,-82.1023249,39.3276114,45701,2005,2005,390099731011016,39009973101
24 W. Union St.,Athens,O'Hooley's Pub & Brewery,OH,BrewPub,-82.1024667945,39.3278189175,45701,2006,2015,390099731011016,39009973101
224 2nd St.,Portsmouth,Portsmouth Brewing Co./Mault's Brewpub,OH,BrewPub,-83.0088116681,38.7316771494,45662,2006,2015,391450036002033,39145003600
224 Second Street,Portsmouth,Portsmouth Brewing Co./Mault's Brewpub,OH,BrewPub,-83.0081439,38.7314979,45662,2005,2005,391450036002033,39145003600
45 Alex Bell Road,Dayton,Thirsty Dog Brewing Co.,OH,BrewPub,-84.23919,39.6755625,45449,2005,2005,391130503012062,39113050301
45 W. Alex Bell Rd.,Dayton,Thirsty Dog Brewing Co.,OH,BrewPub,-84.2389541128,39.675818892,45449,2006,2006,391130503012032,39113050301
22 E. 12th Street ,Cincinnati,Barrel House Brewing Company ,OH,BrewPub,-84.513788,39.1084631,45210,2005,2005,390610010002021,39061001000
22 E. 12th St. ,Cincinnati,Barrel House Brewing Company ,OH,BrewPub,-84.5136350529,39.1083156768,45210,2006,2006,390610010002024,39061001000
73 W. Jackson St.,Millersburg,Rush the Growler,OH,BrewPub,-81.9182619794,40.554143526,44654,2006,2006,390759767003000,39075976700
73 West Jackson Street,Millersburg,Rush the Growler,OH,BrewPub,-81.918173,40.553924,44654,2005,2005,390759767003000,39075976700
25200 Miles Rd. ,Bedford Heights,Buckeye Brewing Co/The Brew Keeper ,OH,BrewPub,-81.5005752069,41.4242351362,44146,2006,2007,390351331041002,39035133104
25200 Miles Road ,Bedford Heights,Buckeye Brewing Co/The Brew Keeper ,OH,BrewPub,-81.500713,41.423539,44146,2005,2005,390351331041002,39035133104
8377 Pearl Rd.,Strongville,Brew Kettle Taproom & Smokehouse,OH,BrewPub,-81.8222654194,41.3484552228,44136,2006,2006,390351861041002,39035186104
8377 Pearl Rd.,Strongsville,Brew Kettle Taproom & Smokehouse,OH,BrewPub,-81.8222654194,41.3484552228,44136,2007,2015,390351861041002,39035186104
2000 Sycamore Street ,Cleveland,Rock Bottom Restaurant & Brewery ,OH,BrewPub,-81.7039,41.4965537,44113,2005,2005,390351033001005,39035103300
824 West St. Clair ,Cleveland,Cleveland Chophouse & Brewery ,OH,BrewPub,-81.6995052,41.4995145,44113,2005,2005,390351071011056,39035107101
824 W. St. Clair ,Cleveland,Cleveland Chophouse & Brewery ,OH,BrewPub,-81.7000135102,41.4991056667,44113,2006,2013,390351071011056,39035107101
2000 Sycamore St. ,Cleveland,Rock Bottom Restaurant & Brewery ,OH,BrewPub,-81.7052439401,41.4965893158,44113,2006,2010,390351033001005,39035103300
4057 Erie Street ,Willoughby,Willoughby Brewing Company ,OH,BrewPub,-81.4055793,41.6414824,44094,2005,2005,390852014001008,39085201400
4057 Erie St. ,Willoughby,Willoughby Brewing Company ,OH,BrewPub,-81.4063031505,41.6413291597,44094,2006,2015,390852014001008,39085201400
10705 Northfield Road ,Northfield,Northfield Park Microbrewery ,OH,BrewPub,-81.523103,41.34681,44067,2005,2005,391535327023000,39153532702
10705 Northfield Rd. ,Northfield,Northfield Park Microbrewery ,OH,BrewPub,-81.5265654657,41.3491629132,44067,2006,2007,391535327023000,39153532702
58 Front St.,Berea,Cornerstone Brewing Co.,OH,BrewPub,-81.8530773792,41.3667755707,44017,2006,2015,390351343002010,39035134300
58 Front Street,Berea,Cornerstone Brewing Co.,OH,BrewPub,-81.852654,41.366911,44017,2005,2005,390351343002010,39035134300
441 Catawba Avenue,Put-in-Bay,Put-in-Bay Brewing Co.,OH,BrewPub,-82.8196503,41.6529554,43456,2005,2005,391230501001058,39123050100
441 Catawba Ave.,Put-in-Bay,Put-in-Bay Brewing Co.,OH,BrewPub,-82.8194837408,41.6524768697,43456,2006,2015,391230501001063,39123050100
504 West Lakeshore Drive,Kelley's Island,Kelley's Island Brewery,OH,BrewPub,-82.725496,41.595914,43438,2005,2005,390430406002000,39043040600
504 W. Lakeshore Dr.,Kelley's Island,Kelley's Island Brewery,OH,BrewPub,-82.7249729347,41.5963908925,43438,2006,2015,390430406002016,39043040600
161 N. High Street ,Columbus ,Elevator Brewery & Restaurant,OH,BrewPub,-83.001838,39.965682,43235,2005,2005,390490030002043,39049003000
1130 Dublin Road ,Columbus,Barley's Smokehouse & Brewpub ,OH,BrewPub,-83.0489648,39.9742977,43215,2005,2005,390490084001028,39049008400
401 N. Front St. ,Columbus,Gordon Biersch Brewery Restaurant ,OH,BrewPub,-83.0044345994,39.9706642038,43215,2006,2015,390490030002005,39049003000
467 N. High St. ,Columbus,Barley's Brewing Company ,OH,BrewPub,-83.003137836,39.9754196099,43215,2006,2015,390490030001040,39049003000
161 N. High St. ,Columbus ,Elevator Brewery & Restaurant,OH,BrewPub,-83.0013309388,39.9657228321,43215,2006,2015,390490030002043,39049003000
401 N. Front Street ,Columbus,Gordon Biersch Brewery Restaurant ,OH,BrewPub,-83.004421,39.9696517,43215,2005,2005,390490030002006,39049003000
1130 Dublin Rd. ,Columbus,Barley's Smokehouse & Brewpub ,OH,BrewPub,-83.0490737353,39.9740365406,43215,2006,2015,390490084001028,39049008400
467 N. High Street ,Columbus,Barley's Brewing Company ,OH,BrewPub,-83.002897,39.971915,43215,2005,2005,390490030001104,39049003000
1 Sunday River Road,Bethel,Sunday River Brewing Co.,ME,BrewPub,-70.8102572,44.4481682,4217,2005,2005,230179659001039,23017965900
1 Sunday River Rd.,Bethel,Sunday River Brewing Co.,ME,BrewPub,-70.8167896217,44.4484610388,4217,2006,2011,230179659001036,23017965900
200 E. 3rd St.,Newport,Hofbrauhaus Newport ,KY,BrewPub,-84.4941593224,39.0943666966,41071,2006,2015,210370532001011,21037053200
200 E. 3rd Street,Newport,Hofbrauhaus Newport ,KY,BrewPub,-84.4937588,39.0950874,41071,2005,2005,210370532001005,21037053200
100 Industrial Way,Portland,Allagash Brewing Co.,ME,MicroBrewery,-70.316915,43.703094,4103,2005,2012,230050021022015,23005002102
401 Cross Street,Lexington,Lexington Brewing Co.,KY,MicroBrewery,-84.5095709,38.049863,40508,2005,2005,210670009001000,21067000900
401 Cross St.,Lexington,Lexington Brewing Co.,KY,MicroBrewery,-84.508757286,38.0499826603,40508,2006,2015,210670009001010,21067000900
46 Durham Road,Freeport,Freeport Brewing Co.,ME,MicroBrewery,-70.1067671,43.8744204,4032,2005,2005,230050045012019,23005004501
46 Durham Rd.,Freeport,Freeport Brewing Co.,ME,MicroBrewery,-70.1067200005,43.8746063339,4032,2006,2012,230050045012019,23005004501
3929 Shelbyville Road ,Louisville,Bluegrass Brewing Co.,KY,BrewPub,-85.6538327,38.2530375,40207,2005,2005,211110098001016,21111009800
3929 Shelbyville Rd. ,Louisville,Bluegrass Brewing Co.,KY,BrewPub,-85.6547326781,38.2530351606,40207,2006,2015,211110098001016,21111009800
401 East Main Street ,Louisville,Browning's Brewery ,KY,BrewPub,-85.7441124,38.2555029,40202,2005,2005,211110049001053,21111004900
"660 S. 4th St., Theatre Sq.",Louisville,Bluegrass Brewing Co.,KY,BrewHouse,-85.7506,38.2541,40202,2008,2015,211110049001083,21111004900
401 E. Main St. ,Louisville,Browning's Brewery ,KY,BrewPub,-85.7457810231,38.2555642071,40202,2006,2015,211110049001053,21111004900
300 W. Main St.,Louisville,Bluegrass Brewing Co.,KY,BrewPub,-85.755071,38.256327,40202,2011,2015,211110049001045,21111004900
P.O. Box 1476,Kiln,Lazy Magnolia Brewing Co.,MS,MicroBrewery,-89.5120084,30.3887582,39556,2005,2005,280450306023225,28045030602
7030 Roscoe Turner Rd ,Kiln,Lazy Magnolia Brewing Co.,MS,MicroBrewery,-89.4373,30.3739,39556,2006,2015,280450306023201,28045030602
768 S. Cooper St.,Memphis,Memphis Made Brewing Co.,TN,Brewery,-89.990789,35.124906,38114,2015,2015,471570066002016,47157006600
768 S. Cooper,Memphis,Memphis Made Brewing Co.,TN,MicroBrewery,-89.990789,35.124906,38114,2014,2014,471570066002016,47157006600
145 South Main Street  ,Memphis,Gordon Biersch Brewery Restaurant ,TN,BrewPub,-90.054736,35.141411,38103,2005,2005,471570042002018,47157004200
145 S. Main St.  ,Memphis,Gordon Biersch Brewery Restaurant ,TN,BrewPub,-90.054468436,35.141249923,38103,2006,2006,471570042002018,47157004200
55 Market St.,Portsmouth,Portsmouth Brewery,NH,BrewPub,-70.7574783,43.078118,3801,2005,2012,330150691001008,33015069100
708 E. Depot Ave.,Knoxville,New Knoxville Brewing Co.,TN,MicroBrewery,-83.9151208339,35.9746250613,37917,2006,2015,470930067001057,47093006700
708 E. Depot Avenue,Knoxville,New Knoxville Brewing Co.,TN,MicroBrewery,-83.914547,35.974813,37917,2005,2005,470930067001057,47093006700
424 South Gay Street,Knoxville,Downtown Grill & Brewery,TN,BrewPub,-83.918128,35.965693,37902,2005,2005,470930001001033,47093000100
424 S. Gay St.,Knoxville,Downtown Grill & Brewery,TN,BrewPub,-83.918253328,35.9653325586,37902,2006,2015,470930001001033,47093000100
1805 21st Ave. S. ,Nashville,Boscos,TN,BrewPub,-86.8009664345,36.1364126224,37212,2006,2014,470370168002010,47037016800
1805 21st Ave. South ,Nashville,Boscos,TN,BrewPub,-86.8012261,36.136314,37212,2005,2005,470370168002010,47037016800
1918 W. End Ave. ,Nashville,Blackstone Restaurant & Brewery ,TN,BrewPub,-86.79785951,36.1521969658,37203,2006,2008,470370195002104,47037019500
1918 W. End Avenue ,Nashville,Blackstone Restaurant & Brewery ,TN,BrewPub,-86.7991006,36.1519283,37203,2005,2005,470370195002104,47037019500
1200 Clinton Street ,Nashville,Yazoo Brewing Company ,TN,MicroBrewery,-86.7954028,36.1649522,37203,2005,2005,470370144001000,47037014400
1200 Clinton St. ,Nashville,Yazoo Brewing Company ,TN,MicroBrewery,-86.7944888617,36.1650471113,37203,2006,2010,470370144001002,47037014400
1918 West End Ave. ,Nashville,Blackstone Restaurant & Brewery ,TN,BrewPub,-86.79785951,36.1521969658,37203,2009,2015,470370195002104,47037019500
134 2nd Ave. N,Nashville,Market Street Brewery & Public House,TN,BrewPub,-86.7760916984,36.1635939359,37201,2006,2006,470370195004029,47037019500
134 N. 2nd Avenue ,Nashville,Market Street Brewery & Public House,TN,BrewPub,-86.775456,36.163155,37201,2005,2005,470370195004029,47037019500
134 Franklin St.,Clarksville,Blackhorse Pub & Brewery,TN,BrewPub,-87.358825,36.5273759,37040,2005,2008,471251001001047,47125100100
132 Franklin St.,Clarksville,Blackhorse Pub & Brewery,TN,BrewPub,-87.3596665891,36.5271794237,37040,2009,2015,471251001001047,47125100100
106 Main St.,Littleton,Italian Oasis Restaurant & Brewery,NH,BrewPub,-71.7739327891,44.3070905689,3561,2006,2015,330099601003007,33009960100
106 Main Street,Littleton,Italian Oasis Restaurant & Brewery,NH,BrewPub,-71.7739644,44.306944,3561,2005,2005,330099601003007,33009960100
4817 South East Dixie Highway,Stuart,Bare Bones Grill & Brewery ,FL,BrewPub,-80.196922,27.146024,34997,2005,2005,120850013014024,12085001301
4817 S. E. Dixie Highway,Stuart,Bare Bones Grill & Brewery ,FL,BrewPub,-80.1978808154,27.1465546401,34997,2006,2014,120850013014026,12085001301
937 Douglas Ave. ,Dunedin,Dunedin Brewery ,FL,BrewPub,-82.7878299738,28.0143455359,34698,2006,2015,121030271013033,12103027101
937 Douglas Avenue ,Dunedin,Dunedin Brewery ,FL,BrewPub,-82.787576,28.014035,34698,2005,2005,121030271013033,12103027101
3438 East Lake Road ,Palm Harbor,Hoppers Grille & Brewery ,FL,BrewPub,-82.7059515,28.0617782,34685,2005,2005,121030273262016,12103027326
3438 E. Lake Rd. ,Palm Harbor,Hoppers Grille & Brewery ,FL,BrewPub,-82.7079319954,28.0610646829,34685,2006,2006,121030273262017,12103027326
8817 Mitchell Blvd ,New Port Richey,Hoppers Grille & Brewery ,FL,BrewPub,-82.6668566832,28.1862752418,34655,2006,2006,121010315073000,12101031507
8817 Mitchell Blvd ,New Port Ritchie,Hoppers Grille & Brewery ,FL,BrewPub,-82.6761897,28.1866984,34655,2005,2005,121010315073002,12101031507
6607 Gateway Avenue,Sarasota,Sarasota Brewing Co.,FL,BrewPub,-82.516167,27.259739,34231,2005,2005,121150020032013,12115002003
6607 Gateway Ave.,Sarasota,Sarasota Brewing Co.,FL,BrewPub,-82.516165841,27.2598510387,34231,2006,2015,121150020032013,12115002003
5043 S. Cleveland Avenue,Fort Myers,Hops Restaurant and Brewery ,FL,BrewPub,-81.8714211,26.5847678,33907,2005,2005,120710013001009,12071001300
5043 S. Cleveland Ave.,Fort Myers,Hops Restaurant and Brewery ,FL,BrewPub,-81.8717805184,26.5829673435,33907,2006,2008,120710013001009,12071001300
202 Gandy Rd.,Auburndale,Florida Brewery,FL,MicroBrewery,-81.7822673885,28.0698470795,33823,2006,2006,121050130024001,12105013002
202 Gandy Road,Auburndale,Florida Brewery,FL,MicroBrewery,-81.7818128,28.0690775,33823,2005,2005,121050130024006,12105013002
8305 Bay Pines Blvd. ,St. Petersburg,Hops Restaurant and Brewery ,FL,BrewPub,-82.7556194673,27.8105722803,33709,2006,2008,121030250191020,12103025019
8305 Bay Pines Boulevard ,St. Petersburg,Hops Restaurant and Brewery ,FL,BrewPub,-82.755247,27.8111352,33709,2005,2005,121030250191003,12103025019
12227 W. Linebaugh Ave. ,Tampa,Hoppers Grille & Brewery ,FL,BrewPub,-82.6164628324,28.0554460954,33626,2006,2006,120570115072003,12057011507
12227 West Linebaugh Avenue ,Tampa,Hoppers Grille & Brewery ,FL,BrewPub,-82.6269803,28.0559299,33626,2005,2005,120570115071009,12057011507
1812 N 15th St. ,Tampa,Tampa Bay Brewing Company ,FL,BrewPub,-82.4429751502,27.960801278,33605,2006,2007,120570039001060,12057003900
1812 N 15th Street ,Tampa,Tampa Bay Brewing Company ,FL,BrewPub,-82.4431991,27.9607475,33605,2005,2005,120570039001060,12057003900
9050 S.W. 136th Street ,Miami,Hops Restaurant and Brewery ,FL,BrewPub,-80.3387081,25.6466103,33176,2005,2005,120860084091031,12086008409
9050 S.W. 136th St. ,Miami,Hops Restaurant and Brewery ,FL,BrewPub,-80.3384380433,25.6434157523,33176,2006,2008,120860084091032,12086008409
5813 Ponce De Leon Blvd. ,Coral Gables,Titanic Restaurant & Brewery,FL,BrewPub,-80.2841346061,25.7095744177,33146,2006,2015,120869803001031,12086980300
5813 Ponce De Leon Boulevard ,Coral Gables,Titanic Restaurant & Brewery,FL,BrewPub,-80.2830804,25.7106517,33146,2005,2005,120869803001027,12086980300
1115 16th St. ,Miami Beach,Abbey Brewing Company ,FL,BrewPub,-80.1400799054,25.7888220837,33139,2006,2015,120860042041011,12086004204
1115 16th Street ,Miami Beach,Abbey Brewing Company ,FL,BrewPub,-80.1403462,25.7890852,33139,2005,2005,120860042041004,12086004204
1201 Brickell Avenue #250 ,Miami,Gordon Biersch Brewery Restaurant ,FL,BrewPub,-80.1912652,25.7619293,33131,2005,2005,120860067132002,12086006713
1201 Brickell Ave. #250 ,Miami,Gordon Biersch Brewery Restaurant ,FL,BrewPub,-80.1916468057,25.7619311313,33131,2006,2014,120860067132002,12086006713
301 Whitehead St.,Key West,Kelly's Caribbean Bar Grill & Brewery,FL,BrewPub,-81.8055175379,24.5571969646,33040,2006,2015,120879725001088,12087972500
301 Whitehead Street,Key West,Kelly's Caribbean Bar Grill & Brewery,FL,BrewPub,-81.8053126,24.557359,33040,2005,2005,120879725001082,12087972500
11555 Pines Boulevard ,Pembroke Pines,Hops Restaurant and Brewery ,FL,BrewPub,-80.303887,26.0083884,33026,2005,2005,120111103092012,12011110309
11555 Pines Blvd. ,Pembroke Pines,Hops Restaurant and Brewery ,FL,BrewPub,-80.3022843628,26.0079676395,33026,2006,2008,120111103092012,12011110309
6300 North Wickham Road,Melbourne,Charlie & Jake's Brewery Grill,FL,BrewPub,-80.6740236,28.2143023,32937,2005,2005,120090641274005,12009064127
6300 N. Wickham Rd.,Melbourne,Charlie & Jake's Brewery Grill,FL,BrewPub,-80.6735515252,28.2151432536,32937,2006,2015,120090641274005,12009064127
11448 University Boulevard ,Orlando,Hops Restaurant and Brewery ,FL,BrewPub,-81.2219512,28.5970668,32817,2005,2005,120950165101006,12095016510
11448 University Blvd. ,Orlando,Hops Restaurant and Brewery ,FL,BrewPub,-81.2210237859,28.5973876921,32817,2006,2008,120950165101006,12095016510
111 Oregon Ave. ,Sanford,Hops Restaurant and Brewery ,FL,BrewPub,-81.3358750624,28.8110557852,32771,2006,2008,121170206002091,12117020600
111 Oregon Avenue ,Sanford,Hops Restaurant and Brewery ,FL,BrewPub,-81.3362003,28.8106395,32771,2005,2005,121170206002090,12117020600
135 Main St.,North Woodstock,"Woodstock Inn, Station & Brewery",NH,BrewPub,-71.6866862672,44.0322243105,3262,2006,2015,330099605001016,33009960500
135 Main Street,North Woodstock,"Woodstock Inn, Station & Brewery",NH,BrewPub,-71.6869033,44.0324136,3262,2005,2005,330099605001016,33009960500
3770 SW Archer Road,Gainesville,Hops Restaurant and Brewery ,FL,BrewPub,-82.380135,29.621068,32608,2005,2005,120010015213029,12001001521
3770 SW Archer Rd.,Gainesville,Hops Restaurant and Brewery ,FL,BrewPub,-82.3808918517,29.6204220649,32608,2006,2008,120010015213032,12001001521
120 SW First Avenue,Gainesville,Market Street Pub Brewery & Eatery,FL,BrewPub,-82.3264372,29.6512983,32601,2005,2005,120010005001061,12001000500
120 SW 1st Ave.,Gainesville,Market Street Pub Brewery & Eatery,FL,BrewPub,-82.3259807637,29.6512870514,32601,2006,2010,120010005001061,12001000500
155 Route 11 ,New London,Flying Goose Brew Pub & Grille,NH,BrewPub,-72.0295836,43.4256704,3257,2005,2005,330130410003001,33013041000
40 Andover Rd.,New London,Flying Goose Brew Pub & Grille,NH,BrewPub,-71.9599981364,43.4005888,3257,2006,2015,330130410002018,33013041000
9735 Gate Parkway North ,Jacksonville,Seven Bridges Grille & Brewery ,FL,BrewPub,-81.553811,30.261599,32246,2005,2005,120310144014020,12031014401
9735 Gate Parkway N. ,Jacksonville,Seven Bridges Grille & Brewery ,FL,BrewPub,-81.5500588298,30.2562886805,32246,2006,2015,120310144014026,12031014401
835 Museum Dr. ,Jacksonville,River City Brewing Company ,FL,BrewPub,-97.3273172313,37.6870548891,32207,2006,2015,201730043002040,20173004300
1100 Main Street,Lady Lake,Spanish Springs Brewing Co.,FL,MicroBrewery,-81.9494958,28.9410712,32159,2005,2005,120690304082021,12069030408
1100 Main St.,Lady Lake,Spanish Springs Brewing Co.,FL,MicroBrewery,-81.9500285709,28.941779749,32159,2006,2007,120690304082016,12069030408
1 King St.,St. Augustine,A1A Aleworks,FL,BrewPub,-81.310737041,29.8921222953,32084,2006,2015,121090205001003,12109020500
1 King Street,St. Augustine,A1A Aleworks,FL,BrewPub,-81.3111442,29.8919786,32084,2005,2005,121090205001007,12109020500
1780 Wells Road ,Orange Park,Hops Restaurant and Brewery ,FL,BrewPub,-81.7292929,30.1861736,32073,2005,2005,120190303042009,12019030304
1780 Wells Rd. ,Orange Park,Hops Restaurant and Brewery ,FL,BrewPub,-81.7311248449,30.1856402723,32073,2006,2008,120190303041039,12019030304
21 West Bay Street,Savannah,Moon River Brewing Co.,GA,BrewPub,-81.0920808,32.0808307,31401,2005,2005,130510003001037,13051000300
21 W. Bay St.,Savannah,Moon River Brewing Co.,GA,BrewPub,-81.0914322467,32.0807482507,31401,2006,2015,130510003001037,13051000300
500 Commercial Street ,Manchester,Milly's Tavern,NH,BrewPub,-71.4677636,42.9946336,3101,2005,2005,330112004001006,33011200400
500 Commercial St. ,Manchester,Milly's Tavern,NH,BrewPub,-71.4677337976,42.9946457884,3101,2006,2015,330112004001006,33011200400
196 Alps Rd.,Athens,Terrapin Beer Co.,GA,MicroBrewery,-83.409047618,33.945540617,30606,2006,2007,130590012001000,13059001200
196 Alps Road,Athens,Terrapin Beer Co.,GA,MicroBrewery,-83.4097617,33.9452428,30606,2005,2005,130590012001000,13059001200
140 East Washington Street,Athens,Copper Creek Brewing Co.,GA,BrewPub,-83.376666,33.958886,30601,2005,2005,130590001001033,13059000100
140 E. Washington St.,Athens,Copper Creek Brewing Co.,GA,BrewPub,-83.3766489977,33.9590166367,30601,2006,2015,130590001001033,13059000100
185 Main Street ,Nashua,Martha's Exchange Restaurant & Brewing Co.,NH,BrewPub,-71.4654801,42.760417,3060,2005,2005,330110107001013,33011010700
185 Main St. ,Nashua,Martha's Exchange Restaurant & Brewing Co.,NH,BrewPub,-71.4652508196,42.7602039011,3060,2006,2015,330110107001013,33011010700
333 Buford Drive,Buford,Max Lager's American Grill & Brewery ,GA,BrewPub,-83.9893045,34.0869863,30519,2005,2005,131350501063018,13135050106
3333 Buford Dr.,Buford,Max Lager's American Grill & Brewery ,GA,BrewPub,-83.985269077,34.073002182,30519,2006,2008,131350501061020,13135050106
900-A Wendell Ct.,Atlanta,Zuma Brewing Co.,GA,MicroBrewery,-84.5203034261,33.7677221699,30336,2007,2008,131210078051003,13121007805
900 Wendell Ct.,Atlanta,Zuma Brewing Co.,GA,MicroBrewery,-84.5203034261,33.7677221699,30336,2006,2006,131210078051003,13121007805
1219 Williams St. ,Atlanta,Atlanta Brewing Company ,GA,MicroBrewery,-84.3898070981,33.7878826602,30309,2006,2007,131210005001083,13121000500
1219 Williams Street ,Atlanta,Atlanta Brewing Company ,GA,MicroBrewery,-84.390109,33.787922,30309,2005,2005,131210005001083,13121000500
"848 Peachtree Street, NE ",Atlanta,Gordon Biersch Brewery Restaurant ,GA,BrewPub,-84.384799,33.777841,30308,2005,2005,131210012021016,13121001202
"848 Peachtree St., NE ",Atlanta,Gordon Biersch Brewery Restaurant ,GA,BrewPub,-84.3840531842,33.7777672839,30308,2006,2015,131210012021017,13121001202
320 Peachtree Street ,Atlanta,Max Lager's American Grill & Brewery ,GA,BrewPub,-84.387035,33.763337,30308,2005,2005,131210019002047,13121001900
320 Peachtree St. ,Atlanta,Max Lager's American Grill & Brewery ,GA,BrewPub,-84.3858779048,33.7638901497,30308,2006,2015,131210019002040,13121001900
9340 The Landing Drive ,Douglasville,Hops Restaurant and Brewery ,GA,BrewPub,-84.7377596,33.7292288,30135,2005,2005,130970805081002,13097080508
9340 The Landing Dr. ,Douglasville,Hops Restaurant and Brewery ,GA,BrewPub,-84.7382354736,33.7293009119,30135,2006,2008,130970805081002,13097080508
11715 Medlock Bridge Road ,Duluth ,Hops Restaurant and Brewery ,GA,BrewPub,-84.1683371,34.0664304,30097,2005,2005,131210116222003,13121011622
11715 Medlock Bridge Rd. ,Duluth ,Hops Restaurant and Brewery ,GA,BrewPub,-84.1731687713,34.0581212624,30097,2006,2008,131210116222005,13121011622
217 N. Main Street,Greenville,Blue Ridge Brewing Co.,SC,BrewPub,-82.3983779,34.8530553,29601,2005,2005,450450002001006,45045000200
217 N. Main St.,Greenville,Blue Ridge Brewing Co.,SC,BrewPub,-82.3983016631,34.8528674702,29601,2006,2015,450450002001006,45045000200
851 Campbell Street,Myrtle Beach,New South Brewing,SC,MicroBrewery,-78.8870682,33.6972348,29577,2005,2005,450510506002039,45051050600
1109 Campbell St.,Myrtle Beach,New South Brewing,SC,MicroBrewery,-78.888849,33.698178,29577,2013,2015,450510506002019,45051050600
851 Campbell St.,Myrtle Beach,New South Brewing,SC,MicroBrewery,-78.8872976903,33.6970815467,29577,2006,2012,450510506002039,45051050600
4155 Dorchester Rd.,North Charleston,Holy City Brewing,SC,MicroBrewery,-80.002189,32.852785,29405,2012,2012,450190039003003,45019003900
4155-C Dorchester Rd.,North Charleston,Holy City Brewing,SC,MicroBrewery,-80.002189,32.852785,29405,2013,2015,450190039003003,45019003900
289 Huger St. ,Charleston,Palmetto Brewing Company ,SC,MicroBrewery,-79.9457336545,32.8011606299,29403,2006,2015,450190053002003,45019005300
289 Huger Street ,Charleston,Palmetto Brewing Company ,SC,MicroBrewery,-79.9459408,32.8012595,29403,2005,2005,450190053002003,45019005300
161 E. Bay St. ,Charleston,Southend Brewery & Smokehouse ,SC,BrewPub,-79.9273032615,32.778264858,29401,2006,2015,450190002001019,45019000200
161 E. Bay Street ,Charleston,Southend Brewery & Smokehouse ,SC,BrewPub,-79.9272237,32.7785165,29401,2005,2005,450190002001019,45019000200
900 Main St. ,Columbia,Hunter Gatherer Brewery-Alehouse ,SC,BrewPub,-81.0317406424,33.9972843937,29201,2006,2015,450790029002000,45079002900
900 Main Street ,Columbia,Hunter Gatherer Brewery-Alehouse ,SC,BrewPub,-81.0315607,33.9973766,29201,2005,2005,450790029002000,45079002900
186 Fountain St. ,Providence,Trinity Brewhouse & Restaurant,RI,BrewPub,-71.4168467631,41.8219705224,2903,2006,2015,440070008001083,44007000800
186 Fountain Street ,Providence,Trinity Brewhouse & Restaurant,RI,BrewPub,-71.4167863,41.8223627,2903,2005,2005,440070008001079,44007000800
675 Merrimon Ave.,Asheville,Asheville Pizza & Brewing Co.,NC,BrewPub,-82.5544024258,35.6220271098,28804,2006,2015,370210005003021,37021000500
675 Merrimon Avenue,Asheville,Asheville Pizza & Brewing Co.,NC,BrewPub,-82.553603,35.622131,28804,2005,2005,370210005003021,37021000500
95 Patton Avenue,Asheville,Jack of the Wood Public House & Brewery,NC,BrewPub,-82.556224,35.5942891,28801,2005,2005,370210001001029,37021000100
95 Patton Ave.,Asheville,Jack of the Wood Public House & Brewery,NC,BrewPub,-82.5553187245,35.5944696223,28801,2006,2015,370210001001029,37021000100
42 Biltmore Avenue,Asheville,Highland Brewing Co.,NC,MicroBrewery,-82.5509832,35.5932923,28801,2005,2005,370210001001058,37021000100
42 Biltmore Ave.,Asheville,Highland Brewing Co.,NC,MicroBrewery,-82.5507649221,35.5937385181,28801,2006,2009,370210001001067,37021000100
101 Fairview Road,Asheville,French Broad Brewing Co.,NC,MicroBrewery,-82.537479,35.566345,28801,2005,2005,370210020001023,37021002000
101 Fairview Rd.,Asheville,French Broad Brewing Co.,NC,MicroBrewery,-82.5358528329,35.5663249694,28801,2006,2015,370210020001023,37021002000
150 E. Business Park,Black Mountain,Pisgah Brewing Co.,NC,MicroBrewery,-82.3212302,35.6178951,28711,2005,2005,370210031044006,37021003104
150 Eastside Business Park,Black Mountain,Pisgah Brewing Co.,NC,MicroBrewery,-82.3582363129,35.608830384,28711,2006,2015,370210031043005,37021003104
204 East Main Street,Glen Alpine,Catawba Valley Brewing Co.,NC,MicroBrewery,-81.7756917,35.7286545,28628,2005,2005,370230203014065,37023020301
204 E. Main St.,Glen Alpine,Catawba Valley Brewing Co.,NC,MicroBrewery,-81.7762741276,35.7284746157,28628,2006,2007,370230203014068,37023020301
2828 W. Highway 70 ,Hickory,Olde Hickory Brewery,NC,MicroBrewery,-81.387373641,35.7212251161,28602,2006,2010,370350107003020,37035010700
2828 West Highway 70 ,Hickory,Olde Hickory Brewery,NC,MicroBrewery,-81.3870946,35.721546,28602,2005,2005,370350107003020,37035010700
311 N. Herritage St.,Kinston,Mother Earth Brewing Co.,NC,MicroBrewery,-77.582639,35.262668,28501,2012,2015,371070107002013,37107010700
311 N. Heritage St.,Kinston,Mother Earth Brewing Co.,NC,MicroBrewery,-77.582639,35.262668,28501,2010,2011,371070107002013,37107010700
9 North Front Street,Wilmington,Front Street Brewery,NC,BrewPub,-77.949088,34.235752,28401,2005,2005,371290113001044,37129011300
9 N. Front St.,Wilmington,Front Street Brewery,NC,BrewPub,-77.9489829539,34.2353501091,28401,2006,2015,371290113001044,37129011300
4150 Sycamore Dairy Rd.,Fayetteville,Mash House Restaurant & Brewery,NC,BrewPub,-78.9534250586,35.0693164208,28303,2006,2015,370510020011000,37051002001
4150 Sycamore Dairy Road,Fayetteville,Mash House Restaurant & Brewery,NC,BrewPub,-78.955151,35.070571,28303,2005,2005,370510020011000,37051002001
405 Hay Street,Fayetteville,Huske Hardware House Brewing Co.,NC,BrewPub,-78.8827816,35.0538193,28301,2005,2005,370510038002031,37051003800
405 Hay St.,Fayetteville,Huske Hardware House Brewing Co.,NC,BrewPub,-78.882747938,35.0539247871,28301,2006,2015,370510038002031,37051003800
215 Southside Dr.,Charlotte,Olde Mecklenburg Brewery,NC,MicroBrewery,-80.880483,35.185672,28217,2009,2015,371190038023031,37119003802
4150 Yancey Rd.,Charlotte,Olde Mecklenburg Brewery,NC,BrewPub,-80.881973,35.187442,28217,2015,2015,371190038023021,37119003802
521 University Center Blvd. ,Charlotte,Hops Restaurant and Brewery ,NC,BrewPub,-80.7551495821,35.3081574195,28213,2006,2008,371190055245004,37119005524
521 University Center Boulevard ,Charlotte,Hops Restaurant and Brewery ,NC,BrewPub,-80.7556471,35.3081343,28213,2005,2005,371190055245008,37119005524
2100 South Boulevard ,Charlotte,Southend Brewery & Smokehouse ,NC,BrewPub,-80.860978,35.208298,28203,2005,2005,371190034004000,37119003400
2100 South Blvd. ,Charlotte,Southend Brewery & Smokehouse ,NC,BrewPub,-80.860443077,35.2081970689,28203,2006,2008,371190034004000,37119003400
16815 Caldwell Creek Drive ,Huntersville,Hops Restaurant and Brewery ,NC,BrewPub,-80.867005,35.4427892,28078,2005,2005,371190062093059,37119006209
16815 Caldwell Creek Dr. ,Huntersville,Hops Restaurant and Brewery ,NC,BrewPub,-80.8670866379,35.4436920684,28078,2006,2008,371190062093059,37119006209
213 Water St.,Block Island,Mohegan Café & Brewery,RI,BrewPub,-71.5583131259,41.1726345182,2807,2006,2015,440090415001078,44009041500
213 Water Street,Block Island,Mohegan Café & Brewery,RI,BrewPub,-71.5567266,41.1721652,2807,2005,2005,440090415001001,44009041500
98 Horseneck Road ,Westport,Buzzard's Bay Brewing Company ,MA,MicroBrewery,-71.050277,41.5677219,2790,2005,2005,250056461041000,25005646104
98 Horseneck Rd. ,Westport,Buzzard's Bay Brewing Company ,MA,MicroBrewery,-71.0572552905,41.5715122147,2790,2006,2015,250056461041004,25005646104
701 Evans St.,Greenville,Ham's Restaurant & Brewhouse,NC,BrewPub,-77.3732783649,35.608417626,27834,2006,2010,371470001003051,37147000100
701 Evans Street,Greenville,Ham's Restaurant & Brewhouse,NC,BrewPub,-77.3731619,35.608278,27834,2005,2005,371470001003051,37147000100
4519 West Pine Street,Farmville,Duck-Rabbit Craft Brewery,NC,MicroBrewery,-77.5962962,35.6004028,27828,2005,2005,371470018001016,37147001800
4519 W. Pine St.,Farmville,Duck-Rabbit Craft Brewery,NC,MicroBrewery,-77.6099556072,35.6045549848,27828,2006,2015,371470018001020,37147001800
1249 Wicker Dr. ,Raleigh,Edenton Brewing Company ,NC,MicroBrewery,-78.6181794791,35.8099078002,27604,2006,2015,371830518001003,37183051800
1249 Wicker Drive ,Raleigh,Edenton Brewing Company ,NC,MicroBrewery,-78.617923,35.810418,27604,2005,2005,371830518001003,37183051800
505 W. Jones Street ,Raleigh,Southend Brewery & Smokehouse ,NC,BrewPub,-78.6463856,35.7825842,27603,2005,2005,371830501001060,37183050100
505 W. Jones St. ,Raleigh,Southend Brewery & Smokehouse ,NC,BrewPub,-78.6456699846,35.7823495908,27603,2006,2015,371830501001036,37183050100
214 E. Martin St. ,Raleigh,Greenshields Brewery & Pub ,NC,BrewPub,-78.6419515021,35.7767751701,27601,2006,2006,371830501001087,37183050100
214 East Martin Street ,Raleigh,Greenshields Brewery & Pub ,NC,BrewPub,-78.635986,35.776502,27601,2005,2005,371830501001102,37183050100
140 Thomas Mill Road ,Holly Springs,Carolina Brewing Company ,NC,MicroBrewery,-78.853892,35.655712,27540,2005,2005,371830532072031,37183053207
140 Thomas Mill Rd. ,Holly Springs,Carolina Brewing Company ,NC,MicroBrewery,-78.8528209978,35.6556196984,27540,2006,2015,371830532072060,37183053207
460 W. Franklin St.,Chapel Hill,Carolina Brewery,NC,BrewPub,-79.0612182036,35.9109435216,27516,2006,2015,371350117001004,37135011700
460 West Franklin Street,Chapel Hill,Carolina Brewery,NC,BrewPub,-79.0628267,35.9107497,27516,2005,2005,371350117001001,37135011700
100 E. Franklin St.,Chapel Hill,Top of the Hill Restaurant & Brewery,NC,BrewPub,-79.055718828,35.9130617014,27514,2006,2015,371350116011001,37135011601
100 East Franklin Street,Chapel Hill,Top of the Hill Restaurant & Brewery,NC,BrewPub,-79.0557599,35.9131291,27514,2005,2005,371350116011001,37135011601
714 Francis King Street,Greensboro,Red Oak Brew Pub,NC,BrewPub,-79.8900333,36.088034,27410,2005,2005,370810161023003,37081016102
714 Francis King St.,Greensboro,Red Oak Brew Pub,NC,BrewPub,-79.8898903886,36.0879833102,27410,2006,2008,370810161023003,37081016102
345 South Elm Street,Greensboro,Natty Greene's Pub & Brewing Co.,NC,BrewPub,-79.790336,36.068642,27401,2005,2005,370810108002063,37081010800
345 S. Elm St.,Greensboro,Natty Greene's Pub & Brewing Co.,NC,BrewPub,-79.7902070697,36.0692755416,27401,2006,2015,370810108002063,37081010800
1291 University Avenue,Morgantown,West Virginia Brewing Co.,WV,BrewPub,-79.9580337,39.6304798,26505,2005,2005,540610101022013,54061010102
1291 University Ave.,Morgantown,West Virginia Brewing Co.,WV,BrewPub,-79.9577434289,39.6306301935,26505,2006,2015,540610101022013,54061010102
1 Nelson Blvd.,Thomas,Mountain State Brewing Co.,WV,MicroBrewery,-79.4985176296,39.1422086409,26292,2010,2015,540939652001117,54093965200
Route 32 & Nelson Blvd.,Thomas,Mountain State Brewing Co.,WV,MicroBrewery,-79.4985176296,39.1422086409,26292,2007,2009,540939652001117,54093965200
912 William Ave. (at Thomas),Davis,Blackwater Brewing Co.,WV,BrewPub,-79.4722700222,39.1279800088,26260,2013,2015,540939653002213,54093965300
Williams Ave.,Davis,Blackwater Brewing Co.,WV,BrewPub,-79.46712,39.1283589,26260,2005,2005,540939653002158,54093965300
Thomas St. / Williams Ave.,Davis,Blackwater Brewing Co.,WV,BrewPub,-79.4722700222,39.1279800088,26260,2006,2012,540939653002213,54093965300
720 Main St.,Hyannis,Cape Cod Beer,MA,MicroBrewery,-70.294497,41.648354,2601,2005,2006,250010153002056,25001015300
1400 Main St.,Wheeling,River City Aleworks,WV,BrewPub,-80.7229274382,40.0654296108,26003,2006,2006,540690027001039,54069002700
1400 Main Street,Wheeling,River City Aleworks,WV,BrewPub,-80.7232398,40.0653945,26003,2005,2005,540690027001039,54069002700
5 Bartlett Farm Rd.,Nantucket,Cisco Brewers,MA,MicroBrewery,-70.1288564314,41.2600374775,2584,2006,2015,250199502004026,25019950200
5 Bartlett Farm Road,Nantucket,Cisco Brewers,MA,MicroBrewery,-70.131438,41.263609,2584,2005,2005,250199502004026,25019950200
30 Kennebec Ave.,Oak Bluffs,Offshore Ale Company,MA,BrewPub,-70.5574818073,41.4556318403,2557,2006,2015,250072002002042,25007200200
30 Kennebec Avenue,Oak Bluffs,Offshore Ale Company,MA,BrewPub,-70.5575531,41.4558749,2557,2005,2005,250072002002042,25007200200
3500 Emerson Avenue,Parkersburg,North End Tavern,WV,BrewPub,-81.5329679,39.2874672,25321,2005,2005,541070003001010,54107000300
3500 Emerson Ave.,Parkersburg,North End Tavern,WV,BrewPub,-81.5328337574,39.2872659304,25321,2006,2015,541070003001009,54107000300
256 Moody Street ,Waltham,Watch City Brewing Co.,MA,BrewPub,-71.2364457,42.3717819,2453,2005,2005,250173685001002,25017368500
256 Moody St. ,Waltham,Watch City Brewing Co.,MA,BrewPub,-71.2366039279,42.3718724396,2453,2006,2014,250173685001002,25017368500
2353 Olinger Rd.,Blacksburg,New River Brewing,VA,MicroBrewery,-80.4965079055,37.2246406931,24060,2006,2014,511210212003005,51121021200
2353 Olinger Road,Blacksburg,New River Brewing,VA,MicroBrewery,-80.5007,37.2264,24060,2005,2005,511210212003006,51121021200
2002 Dabney St.,Richmond,Mobjack Brewing Co.,VA,MicroBrewery,-77.4823003349,37.5757835442,23230,2006,2006,510872005022088,51087200502
2002 Dabney Street,Richmond,Mobjack Brewing Co.,VA,MicroBrewery,-77.4827547,37.5769517,23230,2005,2005,510872005022080,51087200502
321 W 7th Street,Richmond,Legend Brewing Co.,VA,BrewPub,-77.4429803,37.5266679,23224,2005,2005,517600610002038,51760061000
321 W 7th St.,Richmond,Legend Brewing Co.,VA,BrewPub,-77.4425475863,37.5261336882,23224,2006,2015,517600610002038,51760061000
1214 East Cary Street,Richmond,Richbrau Brewing Co. & Restaurant,VA,BrewPub,-77.43382,37.53562,23219,2005,2005,517600305001091,51760030500
1214 E. Cary St.,Richmond,Richbrau Brewing Co. & Restaurant,VA,BrewPub,-77.4341082006,37.535735779,23219,2006,2010,517600305001091,51760030500
189 Ewell Rd.,Williamsburg,Williamsburg Brewing Co.,VA,MicroBrewery,-76.7324996716,37.3207779258,23188,2006,2015,511990510003028,51199051000
189 Ewell Road,Williamsburg,Williamsburg Brewing Co.,VA,MicroBrewery,-76.7331616,37.321071,23188,2005,2005,511990510003028,51199051000
1110 Alverser Dr.,Midlothian,Extra Billy's Smokehouse Brewery,VA,BrewPub,-77.617996955,37.5063623294,23113,2006,2015,510411009152036,51041100915
1110 Alverser Drive,Midlothian,Extra Billy's Smokehouse Brewery,VA,BrewPub,-77.6184679,37.5072168,23113,2005,2005,510411009152036,51041100915
1280 Belmont Street,Brockton,Owen O'Leary's,MA,BrewPub,-71.0668052,42.0585565,2301,2005,2005,250235117022024,25023511702
1280 Belmont St.,Brockton,Owen O'Leary's,MA,BrewPub,-71.0678001275,42.0583040974,2301,2006,2015,250235117022024,25023511702
709 W. Main St.,Charlottesville,Starr Hill Restaurant & Brewery,VA,BrewPub,-78.4898204248,38.0314467081,22903,2006,2007,515400010001055,51540001000
106 South Street,Charlottesville,South Street Brewery,VA,BrewPub,-78.482705,38.029328,22902,2005,2005,515400010001048,51540001000
106 W. South St.,Charlottesville,South Street Brewery,VA,BrewPub,-78.4820943871,38.029242174,22902,2006,2015,515400010001057,51540001000
709 West Main Street,Charlottesville,Starr Hill Restaurant & Brewery,VA,BrewPub,-78.489959,38.031769,22901,2005,2005,515400010001054,51540001000
536-590 North Cameron St.,Winchester,Virginia Brewing Co.,VA,MicroBrewery,-78.161081,39.191482,22601,2008,2008,518400001001012,51840000100
574-580 N. Cameron St.,Winchester,Virginia Brewing Co.,VA,MicroBrewery,-78.161081,39.191482,22601,2009,2010,518400001001012,51840000100
3321 Dill Smith Dr.,Fredericksburg,Blue & Gray Brewing Co.,VA,MicroBrewery,-77.4475968431,38.2807185376,22408,2009,2009,511770202011015,51177020201
3321 Dill Smith Dr.,Fredricksburg,Blue and Gray Brewing Co.,VA,MicroBrewery,-77.4475968431,38.2807185376,22408,2006,2008,511770202011015,51177020201
3321 Dill Smith Drive,Fredricksburg,Blue and Gray Brewing Co.,VA,MicroBrewery,-77.4484212,38.280041,22408,2005,2005,511770202011018,51177020201
3300 Dill Smith Dr.,Fredericksburg,Blue & Gray Brewing Co.,VA,MicroBrewery,-77.446589,38.280399,22408,2010,2015,511770202011018,51177020201
652 S. Pickett St. ,Alexandria,Shenandoah Brewing Company ,VA,BrewPub,-77.1327250784,38.8048127761,22304,2006,2011,515102004052001,51510200405
652 South Pickett Street ,Alexandria,Shenandoah Brewing Company ,VA,BrewPub,-77.132142,38.804162,22304,2005,2005,515102004055004,51510200405
2700 South Quincy Street ,Arlington,Capitol City Brewing Co.,VA,BrewPub,-77.086975,38.8410733,22206,2005,2005,510131029021001,51013102902
2700 S. Quincy St. ,Arlington,Capitol City Brewing Co.,VA,BrewPub,-77.0865989712,38.842084818,22206,2006,2015,510131029021000,51013102902
61 Brookline Avenue ,Boston,Boston Beer Works ,MA,BrewPub,-71.0991449,42.347204,2215,2005,2005,250250102043000,25025010204
61 Brookline Ave. ,Boston,Boston Beer Works ,MA,BrewPub,-71.0992882261,42.3469248297,2215,2006,2015,250250102043000,25025010204
250 Granite St. ,Braintree,Rock Bottom Restaurant & Brewery ,MA,BrewPub,-71.0278178048,42.2208518315,2184,2006,2009,250214191001067,25021419100
250 Granite Street ,Braintree,Rock Bottom Restaurant & Brewery ,MA,BrewPub,-71.0265734,42.2215767,2184,2005,2005,250214191001045,25021419100
4607 Wedgewood Boulevard,Frederick,Frederick Brewing Co.,MD,MicroBrewery,-77.426454,39.362696,21703,2005,2005,240217523012022,24021752301
4607 Wedgewood Blvd.,Frederick,Frederick Brewing Co.,MD,MicroBrewery,-77.425701325,39.3606051084,21703,2006,2015,240217523012013,24021752301
124 N. Market St.,Frederick,Brewer's Alley Restaurant & Brewery,MD,BrewPub,-77.4105751074,39.4154887497,21702,2006,2015,240217502002011,24021750200
124 N. Market Street,Frederick,Brewer's Alley Restaurant & Brewery,MD,BrewPub,-77.4105232,39.4160744,21702,2005,2005,240217502002011,24021750200
75 Visitors Center Dr.,McHenry,Deep Creek Brewing Co. Restaurant & Pub,MD,BrewPub,-79.3591950207,39.5620094043,21541,2006,2007,240230005002058,24023000500
75 Visitor Center Dr.,McHenry,Deep Creek Brewing Co. Restaurant & Pub,MD,BrewPub,-79.358667,39.5609759,21541,2005,2005,240230005002063,24023000500
33 West St. ,Annapolis,Rams Head Tavern,MD,BrewPub,-76.4948326641,38.9782206303,21401,2006,2015,240037061011008,24003706101
33 West Street ,Annapolis,Rams Head Tavern,MD,BrewPub,-76.4944801,38.9782264,21401,2005,2005,240037061011008,24003706101
8149 Honeygo Blvd. ,Baltimore,Red Brick Station Restaurant & Brewpub,MD,BrewPub,-76.46635406,39.3719141061,21236,2006,2007,240054406001087,24005440600
8149 Honeygo Blvd. ,White Marsh,Red Brick Station Restaurant & Brewpub,MD,BrewPub,-76.464152,39.372018,21236,2008,2015,240054406001097,24005440600
32-36 E. Cross Street ,Baltimore,Ryleigh's Brew Pub and Raw Bar,MD,BrewPub,-76.6131757,39.2770983,21230,2005,2005,245102302001007,24510230200
32 E. Cross St. ,Baltimore,Ryleigh's Brew Pub and Raw Bar,MD,BrewPub,-76.6131561614,39.2771190291,21230,2006,2007,245102302001007,24510230200
3105 St. Paul Street ,Baltimore,Rocky Run Tap & Grill ,MD,BrewPub,-76.6155555,39.3260572,21218,2005,2005,245101202024003,24510120202
3105 St. Paul St. ,Baltimore,Rocky Run Tap & Grill ,MD,BrewPub,-76.615607088,39.3260911931,21218,2006,2010,245101202024003,24510120202
1106 N. Charles St. ,Baltimore,Brewer's Art ,MD,BrewPub,-76.6162746446,39.3024973332,21201,2006,2015,245101102001034,24510110200
1106 N. Charles Street ,Baltimore,Brewer's Art ,MD,BrewPub,-76.6163692,39.3027476,21201,2005,2005,245101102001034,24510110200
115 Stuart St. ,Boston,Rock Bottom Restaurant & Brewery ,MA,BrewPub,-71.0659681739,42.3511774244,2116,2006,2015,250250702003000,25025070200
115 Stuart Street ,Boston,Rock Bottom Restaurant & Brewery ,MA,BrewPub,-71.0653801,42.3514083,2116,2005,2005,250250702003000,25025070200
4 W. Main Street,Westminster,Johansson's Dining House,MD,BrewPub,-76.9956983,39.5755009,21157,2005,2005,240135076013068,24013507601
4 W. Main St.,Westminster,Johansson's Dining House,MD,BrewPub,-76.9961305509,39.5756550648,21157,2006,2015,240135076013068,24013507601
16 Bel Air S. Parkway ,Bel Air,DuClaw Brewing Company ,MD,BrewPub,-76.3299840688,39.496894071,21015,2006,2006,240253012022003,24025301202
16 Bel Air South Parkway ,Bel Air,DuClaw Brewing Company ,MD,BrewPub,-76.3312054,39.4963747,21015,2005,2015,240253012022003,24025301202
227 E. Diamond Avenue ,Gaithersburg,Summit Station Restaurant & Brewery ,MD,BrewPub,-77.193618,39.141983,20877,2005,2005,240317007231016,24031700723
227 E. Diamond Ave. ,Gaithersburg,Summit Station Restaurant & Brewery ,MD,BrewPub,-77.1945527493,39.141872301,20877,2006,2015,240317007231016,24031700723
6404 Redwing Road ,Bethesda,Tupper's Hop Pocket Brewing Company ,MD,MicroBrewery,-77.127261,38.973455,20817,2005,2005,240317059021004,24031705902
6404 Redwing Rd. ,Bethesda,Tupper's Hop Pocket Brewing Company ,MD,MicroBrewery,-77.1273465304,38.973441206,20817,2006,2006,240317059021004,24031705902
7900 Norfolk Ave. ,Bethesda,Rock Bottom Restaurant & Brewery ,MD,BrewPub,-77.0974891072,38.9886132916,20814,2006,2015,240317048062006,24031704806
7900 Norfolk Avenue ,Bethesda,Rock Bottom Restaurant & Brewery ,MD,BrewPub,-77.0976627,38.9888493,20814,2005,2005,240317048062005,24031704806
5121 Baltimore Avenue,Hyattsville,Franklin's Restaurant Brewery & General Store,MD,BrewPub,-76.9404479,38.952638,20781,2005,2005,240338063001015,24033806300
5121 Baltimore Ave.,Hyattsville,Franklin's Restaurant Brewery & General Store,MD,BrewPub,-76.9401627803,38.9528080952,20781,2006,2015,240338063001015,24033806300
8600 Foundry St. ,Savage,Rams Head Tavern ,MD,BrewPub,-76.8252895735,39.1366390867,20763,2006,2015,240276069051006,24027606905
8600 Foundry Street ,Savage,Rams Head Tavern ,MD,BrewPub,-76.8252079,39.135403,20763,2005,2005,240276069051006,24027606905
4000 Towne Centre Blvd,Bowie,DuClaw Brewing Company ,MD,BrewPub,-76.733812,38.945017,20716,2005,2005,240338005162005,24033800516
4000 Town Centre Blvd,Bowie,DuClaw Brewing Company ,MD,BrewPub,-76.7341804504,38.9453083064,20716,2006,2015,240338005162005,24033800516
13200 Dowell Rd.,Dowell,Ruddy Duck Brewery & Grill,MD,BrewPub,-76.456219,38.34938,20688,2015,2015,240098609003005,24009860900
13200 Dowell Rd.,Solomons,Ruddy Duck Brewery & Grill,MD,BrewPub,-76.456219,38.34938,20688,2010,2014,240098609003005,24009860900
43271 Spinks Ferry Rd.,Leesburg,Barnhouse Brewery,VA,Brewery,-77.4967099,39.204473,20176,2015,2015,511076103002032,51107610300
13840 Barnhouse Pl,Leesburg,Barnhouse Brewery,VA,MicroBrewery,-77.551388,39.23362,20176,2013,2014,511076103001021,51107610300
44633 Guilford Drive,Ashburn,Old Dominion Brewing Co.,VA,BrewPub,-77.457658,39.021872,20147,2005,2005,511076110061011,51107611006
44633 Guilford Dr.,Ashburn,Old Dominion Brewing Co.,VA,BrewPub,-77.4567388269,39.0204273048,20147,2006,2008,511076110061011,51107611006
"900 F Street, NW  ",Washington,Gordon Biersch Brewery Restaurant ,DC,BrewPub,-77.0243744,38.8971064,20004,2005,2005,110010058001023,11001005800
"900 F St., NW  ",Washington,Gordon Biersch Brewery Restaurant ,DC,BrewPub,-77.024160024,38.8968729413,20004,2006,2015,110010058001023,11001005800
320 Rehoboth Avenue ,Rehoboth Beach,Dogfish Head Brewings and Eats,DE,BrewPub,-75.0870507,38.7151874,19971,2005,2005,100050511022002,10005051102
320 Rehoboth Ave. ,Rehoboth Beach,Dogfish Head Brewings and Eats,DE,BrewPub,-75.0855187333,38.715510789,19971,2006,2015,100050511022002,10005051102
1284 McD Dr.,Dover,Fordham Brewing Co.,DE,MicroBrewery,-75.4903499379,39.1535163774,19901,2006,2015,100010410002016,10001041000
1284 McD Drive,Dover,Fordham Brewing Co.,DE,MicroBrewery,-75.4883578,39.1540069,19901,2005,2005,100010410002016,10001041000
710 South Madison Street,Wilmington,Iron Hill Brewery & Restaurant ,DE,BrewPub,-75.5623974,39.7348436,19801,2005,2005,100030027001017,10003002700
710 S. Madison St.,Wilmington,Iron Hill Brewery & Restaurant ,DE,BrewPub,-75.5618570894,39.7365630773,19801,2006,2015,100030027001017,10003002700
147 E. Main St. ,Newark,Iron Hill Brewery & Restaurant ,DE,BrewPub,-75.7469950766,39.6832338479,19711,2006,2015,100030145022000,10003014502
147 East Main Street ,Newark,Iron Hill Brewery & Restaurant ,DE,BrewPub,-75.746771,39.6832925,19711,2005,2005,100030145022000,10003014502
278 Derby Street ,Salem,Salem Beer Works ,MA,BrewPub,-70.8911309,42.5205425,1970,2005,2005,250092043001016,25009204300
278 Derby St. ,Salem,Salem Beer Works ,MA,BrewPub,-70.8912586489,42.5205198266,1970,2006,2015,250092043001016,25009204300
545 Canal Street,Reading,Legacy Brewing Co.,PA,MicroBrewery,-75.9282624,40.3256377,19602,2005,2005,420110023002022,42011002300
545 Canal St.,Reading,Legacy Brewing Co.,PA,MicroBrewery,-75.9281415487,40.3255903086,19602,2006,2010,420110023002022,42011002300
272 W. Main St.,Kutztown,Kutztown Tavern/Golden Avalanche Brewing,PA,BrewPub,-75.777880821,40.5164308712,19530,2006,2015,420110140003005,42011014000
272 West Main Street,Kutztown,Kutztown Tavern/Golden Avalanche Brewing,PA,BrewPub,-75.7781007,40.5161997,19530,2005,2005,420110140003005,42011014000
312 Lewis Rd.,Royersford,Sly Fox Brewhouse & Eatery,PA,BrewPub,-75.5340432,40.1943262,19468,2005,2005,420912086042008,42091208604
312 N. Lewis Rd.,Royersford,Sly Fox Brewhouse & Eatery,PA,BrewPub,-75.5339440848,40.1940169921,19468,2006,2012,420912086042019,42091208604
Pikeland Village Square,Phoenixville,Sly Fox Brewhouse & Eatery,PA,BrewPub,-75.547079,40.131951,19460,2005,2005,420293010004003,42029301000
520 Kimberton Rd.,Phoenixville,Sly Fox Brewhouse & Eatery,PA,BrewPub,-75.54713,40.129636,19460,2013,2015,420293010004003,42029301000
519 Kimberton Rd.,Phoenixville,Sly Fox Brewhouse & Eatery,PA,BrewPub,-75.5495946606,40.1293109285,19460,2006,2012,420293010004007,42029301000
3 W. Gay Street ,West Chester,Iron Hill Brewery & Restaurant ,PA,BrewPub,-75.6055371,39.9605755,19380,2005,2005,420293024002017,42029302400
3 W. Gay St. ,West Chester,Iron Hill Brewery & Restaurant ,PA,BrewPub,-75.6056133609,39.9606906757,19380,2006,2015,420293024002017,42029302400
25 Hayward Street ,Ipswich,Mercury Brewing Company ,MA,MicroBrewery,-70.844091,42.67199,1938,2005,2005,250092233002032,25009223300
23 Hayward St.,Ipswich,Mercury Brewing Company ,MA,MicroBrewery,-70.8438360022,42.6714929641,1938,2006,2015,250092233002032,25009223300
27 Commercial St. ,Gloucester,Cape Ann Brewing Company ,MA,MicroBrewery,-70.6662438136,42.6103421195,1930,2006,2010,250092215002003,25009221500
27 Commercial Street ,Gloucester,Cape Ann Brewing Company ,MA,MicroBrewery,-70.666392,42.610216,1930,2005,2005,250092215002003,25009221500
3601 S. Broad Street,Philadelphia,Red Bell Brewery & Pub ,PA,BrewPub,-75.1720529,39.9011809,19148,2005,2005,421019806001012,42101980600
3601 S. Broad St.,Philadelphia,Red Bell Brewery & Pub ,PA,BrewPub,-75.1734519156,39.9051523713,19148,2006,2008,421019806001011,42101980600
4120 Main Street ,Manayunk,Manayunk Brewery & Restaurant ,PA,BrewPub,-75.2193379,40.0226381,19127,2005,2005,421010210004021,42101021000
4120 Main St. ,Philadelphia,Manayunk Brewery & Restaurant ,PA,BrewPub,-75.2188242975,40.0221259007,19127,2006,2015,421010210004021,42101021000
2439 Amber St. ,Philadelphia,Yards Brewing Company ,PA,MicroBrewery,-75.1269982718,39.9828225918,19125,2006,2007,421010161001002,42101016100
2439 Amber Street ,Philadelphia,Yards Brewing Company ,PA,MicroBrewery,-75.1272851,39.9826778,19125,2005,2005,421010161001004,42101016100
1150 Filbert Street ,Philadelphia,Independence Brew Pub ,PA,BrewPub,-75.159445,39.952616,19107,2005,2005,421010005001019,42101000500
1150 Filbert St. ,Philadelphia,Independence Brew Pub ,PA,BrewPub,-75.1584186754,39.9527472138,19107,2006,2007,421010005001019,42101000500
5775 Lower York Rd.,Lahaska,Porterhouse Brewpub & Restaurant,PA,BrewPub,-75.0331270851,40.3462280255,18931,2006,2012,420171045022001,42017104502
5775 Lower York Road,Lahaska,Porterhouse Brewpub & Restaurant,PA,BrewPub,-75.0337519,40.3460528,18931,2005,2005,420171045022001,42017104502
700 N. Pennsylvania Ave.,Wilkes Barre,Lion Brewery,PA,MicroBrewery,-75.8588454162,41.2551764635,18705,2009,2015,420792013001013,42079201300
700 N. Pennsylvania Ave.,Wilkes-Barre,Lion Brewery,PA,MicroBrewery,-75.8577837,41.2551787,18705,2005,2008,420792013001010,42079201300
380 Coal Street,Wilkes-Barre,Black Rock Brewing Co.,PA,BrewPub,-75.865016,41.2368602,18702,2005,2005,420792010002004,42079201000
380 Coal St.,Wilkes-Barre,Black Rock Brewing Co.,PA,BrewPub,-75.8658550324,41.2376227688,18702,2006,2006,420792010002004,42079201000
199 Cabot St.,Lowell,Concord Brewery,MA,MicroBrewery,-71.3161820059,42.6510495498,1854,2006,2008,250173883002008,25017388300
199 Cabot Street,Lowell,Concord Brewery,MA,MicroBrewery,-71.3165011,42.6508529,1854,2005,2005,250173883002009,25017388300
2092 Pennsylvania 611,Swiftwater,Pocono Brewing Restaurant & Tavern,PA,BrewPub,-75.327812,41.085239,18370,2015,2015,420893004012040,42089300401
Route 611 / Wiscasset Rd.,Swiftwater,Pocono Brewing Restaurant & Tavern,PA,BrewPub,-75.327812,41.085239,18370,2012,2014,420893004012040,42089300401
100 Washington Street,Haverhill,Tap Brew Pub,MA,BrewPub,-71.0852382,42.772665,1832,2005,2005,250092601002040,25009260100
100 Washington St.,Haverhill,Tap Brew Pub,MA,BrewPub,-71.0858933083,42.7725215309,1832,2006,2015,250092601002040,25009260100
569 Main St.,Bethlehem,Bethlehem Brew Works,PA,BrewPub,-75.3820154268,40.6219609765,18018,2006,2015,420950108002018,42095010800
569 Main Street,Bethlehem,Bethlehem Brew Works,PA,BrewPub,-75.3821851,40.6222629,18018,2005,2005,420950108002018,42095010800
119 N. Market St.,Selinsgrove,Selin's Grove Brewing Co.,PA,BrewPub,-76.86116,40.8008669,17870,2005,2006,421090707012036,42109070701
121 N. Market St.,Selinsgrove,Selin's Grove Brewing Co.,PA,BrewPub,-76.8611902129,40.8010817784,17870,2007,2015,421090707012036,42109070701
50 Turnpike Rd.,Southborough,Owen O'Leary's,MA,BrewPub,-71.5009013418,42.2955154718,1772,2006,2015,250277411011003,25027741101
50 Turnpike Road,Southborough,Owen O'Leary's,MA,BrewPub,-71.4998113,42.2954284,1772,2005,2005,250277411011029,25027741101
231 W. 4th St.,Williamsport,Bullfrog Brewery,PA,BrewPub,-77.005653,41.240488,17701,2012,2015,420810006003044,42081000600
229 W. 4th St.,Williamsport,Bullfrog Brewery,PA,BrewPub,-77.0053734682,41.2404102889,17701,2006,2011,420810006003067,42081000600
229 West Fourth Street,Williamsport,Bullfrog Brewery,PA,BrewPub,-77.00562,41.240335,17701,2005,2005,420810006003067,42081000600
319 Speen Street,Natick,Owen O'Leary's,MA,BrewPub,-71.3775678,42.3025564,1760,2005,2005,250173825001025,25017382500
319 Speen St.,Natick,Owen O'Leary's,MA,BrewPub,-71.3813406272,42.3044506342,1760,2006,2008,250173825001044,25017382500
102 N. Market St.,Mount Joy,Bube's Brewery,PA,BrewPub,-76.5028530308,40.1119903933,17552,2006,2015,420710109003000,42071010900
102 North Market Street,Mount Joy,Bube's Brewery,PA,BrewPub,-76.5029855,40.111778,17552,2005,2005,420710109003000,42071010900
83 Mansion House Road,Manheim,Swashbuckler Brewing Co.,PA,MicroBrewery,-76.4319582,40.2282995,17545,2005,2005,420710105011025,42071010501
83 Mansion House Rd.,Manheim,Swashbuckler Brewing Co.,PA,MicroBrewery,-76.4314337942,40.2274331434,17545,2006,2013,420710105011058,42071010501
100 Wattaquadoc Hill Rd.,Bolton,Nashoba Valley Winery & Brewery,MA,BrewPub,-71.6185076096,42.4316560494,1740,2006,2015,250277151002021,25027715100
100 Wattaquadoc Hill Road,Bolton,Nashoba Valley Winery & Brewery,MA,BrewPub,-71.6120466,42.4324748,1740,2005,2005,250277151002083,25027715100
248 Hunterstown Rd.,Gettysburg,Gettysbrew Restaurant & Brewery,PA,BrewPub,-77.2101605468,39.846045727,17325,2006,2015,420010306003031,42001030600
248 Hunterstown Road,Gettysburg,Gettysbrew Restaurant & Brewery,PA,BrewPub,-77.2104057,39.845914,17325,2005,2005,420010306003031,42001030600
2240 Millennium Way,Enola,Pizza Boy Brewing @ Al's of Hampden,PA,BrewPub,-76.969858,40.288729,17025,2014,2015,420410113011004,42041011301
4520 Valley St.,Enola,Pizza Boy Brewing @ Al's of Hampden,PA,BrewPub,-76.975215,40.289685,17025,2013,2013,420410113011000,42041011301
2105 N. Atherton St.,State College,Otto's Pub & Brewery,PA,BrewPub,-77.8288666394,40.7845618716,16801,2006,2010,420270117023029,42027011702
137 Elmwood St.,State College,Happy Valley Brewing Co.,PA,BrewPub,-77.829505,40.810374,16801,2015,2015,420270117022032,42027011702
2105 North Atherton Street,State College,Otto's Pub & Brewery,PA,BrewPub,-77.8319736,40.7854691,16801,2005,2005,420270117023023,42027011702
137 Elmwood St.,Lemont,Happy Valley Brewing Co.,PA,MicroBrewery,-77.829505,40.810374,16801,2014,2014,420270117022032,42027011702
1213 Veshecco Drive,Erie,Erie Brewing Co.,PA,MicroBrewery,-80.112978,42.111185,16501,2005,2005,420490011001001,42049001100
1213 Veshecco Dr.,Erie,Erie Brewing Co.,PA,MicroBrewery,-80.1150948456,42.1091020946,16501,2006,2015,420490011001005,42049001100
22019 US  HWY 6 & 19,Venango,Sprague Farm & Brew Works,PA,BrewPub,-80.1131,41.7711,16440,2007,2009,420391102011096,42039110201
22113 US  HWY 6 & 19,Venango,Sprague Farm & Brew Works,PA,BrewPub,-80.10561,41.779505,16440,2010,2015,420391102011078,42039110201
199 Arnold Rd.,Sturbridge,Hyland Orchard & Brewery,MA,MicroBrewery,-72.1086448461,42.1387650823,1566,2006,2007,250277581022049,25027758102
199 Arnold Road,Sturbridge,Hyland Orchard & Brewery,MA,MicroBrewery,-72.1098441,42.1398521,1566,2005,2005,250277581022049,25027758102
510 Boston Turnpike Rd.,Shrewsbury,Deja Brew,MA,BrewonPremise,-71.7182401,42.276191,1545,2005,2005,250277391003002,25027739100
510 Boston Turnpike,Shrewsbury,Deja Brew,MA,BrewonPremise,-71.7180513032,42.2763519824,1545,2006,2011,250277391003002,25027739100
800 Vinial St.,Pittsburgh,Penn Brewery,PA,BrewPub,-79.9911553018,40.4573103189,15212,2006,2015,420032406002017,42003240600
800 Vinial Street,Pittsburgh,Penn Brewery,PA,BrewPub,-79.991475,40.4571824,15212,2005,2005,420032406002017,42003240600
SouthSide Works - 2705 S. Water St.,Pittsburgh,Hofbrauhaus Pittsburgh,PA,BrewPub,-79.977854,40.42614,15203,2009,2012,420031702004023,42003170200
2705 S. Water St. (SouthSide Works),Pittsburgh,Hofbrauhaus Pittsburgh,PA,BrewPub,-79.977854,40.42614,15203,2013,2015,420031702004023,42003170200
3410 Sassafras Street ,Pittsburgh,Wainwright Brewing ,PA,BrewPub,-79.9653149,40.461568,15201,2005,2005,420030603001033,42003060300
3525 Liberty Ave. ,Pittsburgh,Church Brew Works ,PA,BrewPub,-79.9649129153,40.461766816,15201,2006,2015,420030603001043,42003060300
3525 Liberty Avenue ,Pittsburgh,Church Brew Works ,PA,BrewPub,-79.9644247,40.4622063,15201,2005,2005,420030603001029,42003060300
3410 Sassafras St. ,Pittsburgh,Wainwright Brewing ,PA,BrewPub,-79.965423868,40.4616182974,15201,2006,2006,420030603001033,42003060300
171 E. Bridge Street ,Homestead,Rock Bottom Restaurant & Brewery ,PA,BrewPub,-79.9152619,40.4094353,15120,2005,2005,420034838002005,42003483800
171 E. Bridge St. ,Homestead,Rock Bottom Restaurant & Brewery ,PA,BrewPub,-79.9142932892,40.408766159,15120,2006,2015,420034838002005,42003483800
3600 Walnut Rd/State Rt 419,Watkins Glen,Seneca Lodge Craft Brewing,NY,BrewPub,-76.871099,42.36929,14891,2014,2015,360979504001007,36097950400
223-301 N. Franklin St.,Watkins Glen,Crooked Rooster Brewpub,NY,BrewPub,-76.8738591671,42.3811861649,14891,2011,2015,360979504002028,36097950400
303 N. Franklin St.,Watkins Glen,Crooked Rooster Brewpub,NY,BrewPub,-76.8738591671,42.3811861649,14891,2006,2010,360979504002028,36097950400
Walnut Road & Route 329,Watkins Glen,Seneca Lodge Craft Brewing,NY,BrewPub,-76.871099,42.36929,14891,2012,2013,360979504001007,36097950400
606 Elmira Rd.,Ithaca,Ithaca Beer Co.,NY,MicroBrewery,-76.5331310876,42.4138372435,14850,2006,2012,361090010001009,36109001000
606 Elmira Road,Ithaca,Ithaca Beer Co.,NY,MicroBrewery,-76.5332976,42.4142518,14850,2005,2005,361090010001009,36109001000
63 West Market Street,Corning,Market Street Brewing Co. & Restaurant,NY,BrewPub,-77.0571062,42.1440543,14830,2005,2005,361019626001017,36101962600
63 W. Market St.,Corning,Market Street Brewing Co. & Restaurant,NY,BrewPub,-77.0604,42.1447,14830,2006,2015,361019626001013,36101962600
28 Monroe St.,Ellicottville,Ellicottville Brewing Co.,NY,BrewPub,-78.6707585523,42.2752396528,14731,2006,2015,360099607023028,36009960702
28 Monroe Street,Ellicottville,Ellicottville Brewing Co.,NY,BrewPub,-78.670429,42.275055,14731,2005,2005,360099607023019,36009960702
175 State Road East,Westminster,Wachusett Brewing Co.,MA,MicroBrewery,-71.871529,42.5586268,1473,2005,2005,250277081003026,25027708100
175 State Rd. E.,Westminster,Wachusett Brewing Co.,MA,MicroBrewery,-71.8712230811,42.5584252185,1473,2006,2015,250277081003038,25027708100
3859 Buffalo Road,Rochester,Rohrbach Brewing Co.,NY,BrewPub,-77.7616766,43.1372964,14624,2005,2005,360550149051019,36055014905
3859 Buffalo Rd.,Rochester,Rohrbach Brewing Co.,NY,BrewPub,-77.7632841394,43.137333863,14624,2006,2015,360550149051019,36055014905
1142 Mt. Hope Avenue,Rochester,"Distillery, The",NY,BrewPub,-77.615601,43.127617,14620,2005,2005,360550038051004,36055003805
1142 Mt. Hope Ave.,Rochester,"Distillery, The",NY,BrewPub,-77.6158929146,43.127451335,14620,2006,2006,360550038051004,36055003805
300 State St.,Rochester,Bru,NY,BrewPub,-77.6181287473,43.1604127256,14614,2006,2006,360550002001049,36055000200
300 State Street,Rochester,Bru,NY,BrewPub,-77.6178081,43.1604977,14614,2005,2005,360550002001048,36055000200
445 St. Paul St.,Rochester,High Falls Brewing Co.,NY,MicroBrewery,-77.614077,43.164524,14605,2009,2011,360550092001014,36055009200
445 Saint Paul Street,Rochester,High Falls Brewing Co.,NY,MicroBrewery,-77.6148867,43.1642083,14605,2005,2005,360550092001014,36055009200
93 Paper Mill St.,Honeoye Falls,Custom Brewcrafters,NY,MicroBrewery,-77.5856058535,42.9499302446,14472,2006,2008,360550124011049,36055012401
93 Paper Mill Street,Honeoye Falls,Custom Brewcrafters,NY,MicroBrewery,-77.5902759,42.9522855,14472,2005,2005,360550124011040,36055012401
6861 Main Street ,Buffalo,Buffalo Brewpub,NY,BrewPub,-78.6979152,42.964919,14221,2005,2005,360290096001003,36029009600
6861 Main St. ,Williamsville,Buffalo Brewpub,NY,BrewPub,-78.6975293073,42.9651214814,14221,2011,2015,360290096001003,36029009600
6861 Main St. ,Buffalo,Buffalo Brewpub,NY,BrewPub,-78.6975293073,42.9651214814,14221,2006,2010,360290096001003,36029009600
491 Ontario Street ,Buffalo,Flying Bison Brewing Company ,NY,MicroBrewery,-78.896516,42.9563513,14207,2005,2005,360290057001001,36029005700
491 Ontario St. ,Buffalo,Flying Bison Brewing Company ,NY,MicroBrewery,-78.8967865917,42.9564934134,14207,2006,2014,360290057001001,36029005700
76 Pearl Street ,Buffalo,Pearl Street Grill & Brewery ,NY,BrewPub,-78.8773423,42.8810911,14202,2005,2005,360290165001095,36029016500
76 Pearl St. ,Buffalo,Pearl Street Grill & Brewery ,NY,BrewPub,-78.8770966345,42.8808739496,14202,2006,2015,360290165001097,36029016500
212 W. Main St.,Sackets Harbor,Sackets Harbor Brewing Co.,NY,BrewPub,-76.1207782101,43.9472981894,13685,2006,2015,360450604005014,36045060400
212 W. Main Street,Sackets Harbor,Sackets Harbor Brewing Co.,NY,BrewPub,-76.1206915,43.9479816,13685,2005,2005,360450604004019,36045060400
320 S. Clinton Street ,Syracuse,Syracuse Suds Factory ,NY,BrewPub,-76.1538678,43.0481019,13202,2005,2005,360670032001040,36067003200
320 S. Clinton St. ,Syracuse,Syracuse Suds Factory ,NY,BrewPub,-76.1537953353,43.0486289239,13202,2006,2015,360670032001040,36067003200
190 5th Avenue,Oswego,King Arthur's Steak House & Brewery,NY,BrewPub,-76.531817,43.446515,13126,2005,2005,360750216022039,36075021602
190 5th Ave.,Oswego,King Arthur's Steak House & Brewery,NY,BrewPub,-76.5317769278,43.4464824351,13126,2006,2006,360750216022039,36075021602
24 Federal Street,Greenfield,People's Pint,MA,BrewPub,-72.6001653,42.5886025,1301,2005,2005,250110413004012,25011041300
24 Federal St.,Greenfield,People's Pint,MA,BrewPub,-72.6003273193,42.5885889478,1301,2006,2015,250110413004012,25011041300
131 Excelsior Ave.,Saratoga Springs,Mendocino Brewing Co.,NY,BrewPub,-73.771075206,43.0903402895,12866,2006,2015,360910611001006,36091061100
131 Excelsior Avenue,Saratoga Springs,Mendocino Brewing Co.,NY,BrewPub,-73.7679002,43.0910159,12866,2005,2005,360910611002016,36091061100
184 Glen St.,Glen Falls,Davidson Bros. Restaurant & Brewery,NY,BrewPub,-73.644772,43.3096249,12801,2005,2008,361130702001000,36113070200
184 Glen St.,Glens Falls,Davidson Bros. Restaurant & Brewery,NY,BrewPub,-73.6453798633,43.3100056704,12801,2009,2015,361130702001000,36113070200
237 Union St.,Schenectady,"Van Dyck, The",NY,BrewPub,-73.9449771033,42.8164377021,12305,2006,2015,360930335002005,36093033500
237 Union Street,Schenectady,"Van Dyck, The",NY,BrewPub,-73.943131,42.8165771,12305,2005,2005,360930335002005,36093033500
417 River St.,Troy,Brown's Brewing Co.,NY,BrewPub,-73.6881246457,42.7353848869,12180,2006,2015,360830407004010,36083040700
417 River Street,Troy,Brown's Brewing Co.,NY,BrewPub,-73.687704,42.735771,12180,2005,2005,360830407004010,36083040700
800 New Loudon Road ,Latham,Malt River Brewing Company ,NY,BrewPub,-73.7637583,42.7480503,12110,2005,2005,360010135071016,36001013507
800 New Loudon Rd. ,Latham,Malt River Brewing Company ,NY,BrewPub,-73.7615092706,42.746899881,12110,2006,2006,360010135071017,36001013507
67 W. Main Street,Patchogue,Brickhouse Brewery & Restaurant,NY,BrewPub,-73.0168092,40.7660401,11772,2005,2005,361031589003022,36103158900
67 W. Main St.,Patchogue,Brickhouse Brewery & Restaurant,NY,BrewPub,-73.01679546,40.765859533,11772,2006,2015,361031589003022,36103158900
79 N. 11th Street ,Brooklyn,Brooklyn Brewery ,NY,BrewPub,-73.957258,40.721645,11211,2005,2005,360470557002006,36047055700
79 N. 11th St. ,Brooklyn,Brooklyn Brewery ,NY,BrewPub,-73.9575219311,40.7216190109,11211,2006,2015,360470557002006,36047055700
7 W. Main St.,Middletown,Olde Erie Brew Pub,NY,BrewPub,-74.4205003771,41.4451644009,10940,2006,2006,360710151001016,36071015100
7 West Main Street,Middletown,Olde Erie Brew Pub,NY,BrewPub,-74.4204612,41.4451892,10940,2005,2005,360710151001016,36071015100
201 Saw Mill River Rd. ,Yonkers,Saw Mill River Brewery ,NY,MicroBrewery,-73.8798280422,40.9455427684,10701,2006,2006,361190016003002,36119001600
201 Saw Mill River Road ,Yonkers,Saw Mill River Brewery ,NY,MicroBrewery,-73.8799334,40.9455044,10701,2005,2005,361190016003002,36119001600
856 E. 136th St.,Bronx,Bronx Brewery,NY,Brewery,-73.910387,40.80203,10454,2015,2015,360050019003026,36005001900
7 Bruckner Blvd.,New York,Bronx Brewery,NY,MicroBrewery,-73.930048,40.808021,10454,2012,2013,360050019001003,36005001900
1285 Sixth Ave.,New York,Heartland Brewery at Radio City,NY,BrewPub,-73.9798489,40.7607402,10019,2005,2005,360610131001002,36061013100
1285 6th Ave. (Avenue of the Americas),New York,Heartland Brewery at Radio City,NY,BrewPub,-73.9801535539,40.7608980925,10019,2006,2013,360610131001002,36061013100
86 Bedford Street,New York,Chumley's,NY,BrewPub,-74.0050589,40.7320946,10014,2005,2005,360610073003003,36061007300
86 Bedford St.,New York,Chumley's,NY,BrewPub,-74.0049204364,40.7326275578,10014,2006,2007,360610073003000,36061007300
35 Union Square West,New York,Heartland Brewery at Union Square,NY,BrewPub,-73.9908393,40.7369091,10003,2005,2005,360610052002004,36061005200
35 Union Square W.,New York,Heartland Brewery at Union Square,NY,BrewPub,-73.9907857708,40.7372111234,10003,2006,2014,360610052002004,36061005200
1171 Hooper Ave.,Toms River,Basil T's Brewpub & Italian Grill,NJ,BrewPub,-74.1827710366,39.9751814704,08840,2007,2015,340297232002007,34029723200
185 Pearl St.,Burlington,Three Needs Brewery & Taproom,VT,BrewPub,-73.212162,44.480473,05401,2013,2015,500070010001000,50007001000
100 Searsport Ave.,Belfast,Belfast Bay Brewing Co.,ME,BrewPub,-68.993175,44.432674,04915,2009,2015,230270430001058,23027043000
8 Mount Desert St.,Bar Harbor,Bar Harbor Brewing Co.,ME,MicroBrewery,-68.204816,44.387343,04609,2009,2015,230099659002003,23009965900
29 Sunday River Rd.,Bethel,Sunday River Brewing Co.,ME,BrewPub,-70.8090205,44.4467218,04345,2012,2015,230179659001029,23017965900
50 Industrial Way,Portland,Allagash Brewing Co.,ME,MicroBrewery,-70.31822,43.702764,04103,2013,2015,230050021022013,23005002102
48 Sanford Dr.,Sanford,Sebago Brewing Co.,ME,MicroBrewery,-70.3966,43.6812,04083,2007,2014,230050040011027,23005004001
48 Sanford Dr.,Gorham,Sebago Brewing Co.,ME,Brewery,-70.396424,43.679212,04083,2015,2015,230050040011026,23005004001
65 Portland Rd.,Kennebunk,Sebago Brewing Co.,ME,BrewHouse,-70.5307374,43.3962486,04043,2012,2015,230310280023002,23031028002
67 Portland Rd.,Kennebunk,Sebago Brewing Co.,ME,BrewHouse,-70.5307374,43.3962486,04043,2011,2011,230310280023002,23031028002
51 Dow Hwy (Route 236),Eliot,Shipyard Brew Pub,ME,BrewPub,-70.7726,43.1314,03903,2007,2008,230310370003025,23031037000
28 Levesque Dr. (Route 236),Eliot,Shipyard Brew Pub,ME,BrewPub,-70.7726,43.1314,03903,2009,2015,230310370003025,23031037000
56 Market St.,Portsmouth,Portsmouth Brewery,NH,BrewPub,-70.75749,43.077991,03801,2013,2015,330150691001009,33015069100
1336 Phinney's Lane,Hyannis,Cape Cod Beer,MA,MicroBrewery,-70.3122,41.6778,02601,2007,2015,250010153001105,25001015300
,San Jose,Shizmo Brewing Co. (by appt only),CA,MicroBrewery,-121.894955,37.339386,,2011,2011,060855008001000,06085500800
