address,city,id,name,state,type,x,y,zip,first_appearance,final_appearance,block_fips,tract_fips
5798 S. Rapp St. ,Littleton,3.0,5280 Roadhouse & Brewery ,CO,BrewPub,-105.019566424,39.6121331542,80120,2006,2015,080050065011036,08005006501
5798 S. Rapp Street ,Littleton,,5280 Roadhouse & Brewery ,CO,BrewPub,-105.0195986,39.6119764,80120,2005,2005,080050065011036,08005006501
4765 NE Fremont ,Portland,,Alameda Brewhouse,OR,BrewPub,-122.613645,45.5484823,97213,2005,2011,410510075002012,41051007500
4765 NE Fremont St.,Portland,12.0,Alameda Brewhouse,OR,BrewPub,-122.613794339,45.5484734835,97213,2012,2015,410510075002012,41051007500
20 City Blvd. West,Orange  ,,Alcatraz Brewing Company ,CA,BrewPub,-117.8922272,33.7828653,92868,2005,2005,060590761024003,06059076102
2351 Alpine Blvd,Alpine,,Alpine Beer Co.,CA,MicroBrewery,-116.7628953,32.8352225,91901,2005,2015,060730212053016,06073021205
2363 Alpine Blvd.,Alpine,20.0,Alpine Beer Co.,CA,BrewPub,-116.7651405,32.8354684,91901,2011,2013,060730212053016,06073021205
320 Commercial Ave.,Anacortes,31.0,Anacortes Brewery & Rockfish Grill,WA,BrewPub,-122.61270428,48.5197104035,98221,2006,2015,530579406001022,53057940600
320 Commercial Avenue,Anacortes,,Anacortes Brewery & Rockfish Grill,WA,BrewPub,-122.61286,48.5193742,98221,2005,2005,530579406001022,53057940600
1705 Mariposa Street ,San Francisco,,Anchor Brewing Company ,CA,MicroBrewery,-122.4007543,37.7634514,94107,2005,2005,060750227041012,06075022704
114 E. Washington St.,Ann Arbor,42.0,Arbor Brewing Co.,MI,BrewPub,-83.7483394146,42.2804165185,48104,2006,2015,261614001001018,26161400100
114 E. Washington,Ann Arbor,,Arbor Brewing Co.,MI,BrewPub,-83.747817,42.28025,48104,2005,2005,261614001001018,26161400100
675 Merrimon Avenue,Asheville,,Asheville Pizza & Brewing Co.,NC,BrewPub,-82.553603,35.622131,28804,2005,2005,370210005003021,37021000500
675 Merrimon Ave.,Asheville,45.0,Asheville Pizza & Brewing Co.,NC,BrewPub,-82.5544024258,35.6220271098,28804,2006,2015,370210005003021,37021000500
1219 Williams Street ,Atlanta,,Atlanta Brewing Company ,GA,MicroBrewery,-84.390109,33.787922,30309,2005,2005,131210005001083,13121000500
1219 Williams St. ,Atlanta,47.0,Atlanta Brewing Company ,GA,MicroBrewery,-84.3898070981,33.7878826602,30309,2006,2007,131210005001083,13121000500
5221 Water Street,Augusta,,Augusta Brewing Co. Beer Garden,MO,BrewPub,-90.8801856,38.5702182,63332,2005,2005,291833122042087,29183312204
5221 Water St.,Augusta,52.0,Augusta Brewing Co. Beer Garden,MO,BrewPub,-90.8801165648,38.5706047933,63332,2006,2015,291833122042087,29183312204
515 W. Bay Area Blvd. ,Webster,153.0,BJ's Restaurant and Brewery,TX,BrewPub,-95.1330679913,29.5453930841,77598,2006,2006,482013411002002,48201341100
515 W. Bay Area Boulevard ,Webster,,BJ's Restaurant and Brewery,TX,BrewPub,-95.1323744,29.5451201,77598,2005,2005,482013411002002,48201341100
71800 Highway 111,Rancho Mirage,,Babe's BBQ Grill & Brewhouse,CA,BrewPub,-116.409737,33.7401083,92270,2005,2005,060650451034012,06065045103
1425 McCulloch Blvd,Lake Havasu City,59.0,Barley Brothers Brewery & Grill,AZ,BrewPub,-114.34901,34.471041,86403,2011,2015,040159532003031,04015953200
1425 McCulloch Blvd,Lake Havasu,,Barley Brothers Brewery & Grill,AZ,BrewPub,-114.3500388,34.4701889,86403,2005,2010,040159532003031,04015953200
639 Conner Street ,Noblesville,,Barley Island Brewing Company ,IN,BrewPub,-86.0154924,40.0453333,46060,2005,2005,180571107001011,18057110700
639 Conner St. ,Noblesville,71.0,Barley Island Brewing Company ,IN,BrewPub,-86.0158642569,40.0455387456,46060,2006,2015,180571107001011,18057110700
1130 Dublin Road ,Columbus,,Barley's Smokehouse & Brewpub ,OH,BrewPub,-83.0489648,39.9742977,43215,2005,2005,390490084001028,39049008400
1130 Dublin Rd. ,Columbus,79.0,Barley's Smokehouse & Brewpub ,OH,BrewPub,-83.0490737353,39.9740365406,43215,2006,2015,390490084001028,39049008400
1605 S. 93rd St. ,Seattle,80.0,Baron Brewing,WA,MicroBrewery,-122.31218071,47.5186929471,98108,2006,2013,530330264001029,53033026400
1605 South 93rd Street ,Seattle,,Baron Brewing,WA,MicroBrewery,-122.3119343,47.5196011,98108,2005,2005,530330264001029,53033026400
1171 Hooper Ave.,Tom River,84.0,Basil T's Brewpub & Italian Grill,NJ,BrewPub,-74.1827710366,39.9751814704,8753,2006,2006,340297232002007,34029723200
183 Riverside Avenue,Red Bank,,Basil T's Brewpub & Italian Grill,NJ,BrewPub,-74.0748821,40.3533527,7701,2005,2005,340258036005006,34025803600
183 Riverside Ave.,Red Bank,83.0,Basil T's Brewpub & Italian Grill,NJ,BrewPub,-74.075221713,40.3532957699,7701,2006,2015,340258036005006,34025803600
1171 Hooper Ave.,Toms River,75.0,Basil T's Brewpub & Italian Grill,NJ,BrewPub,-74.1827710366,39.9751814704,08840,2007,2015,340297232002007,34029723200
419 S. Main St.,Royal Oak,85.0,Bastone,MI,BrewPub,-83.1438961404,42.4869747546,48067,2006,2015,261251844003015,26125184400
419 South Main Street,Royal Oak,,Bastone,MI,BrewPub,-83.1438898,42.4865613,48067,2005,2005,261251844003015,26125184400
345 Healdsburg Ave.,Healdsburg,91.0,Bear Republic Brewing Co.,CA,BrewPub,-122.870912806,38.6112768903,95448,2006,2015,060971539021010,06097153902
345 Healdsburg Avenue,Healdsburg,,Bear Republic Brewing Co.,CA,BrewPub,-122.870982,38.6112447,95448,2005,2005,060971539021010,06097153902
101 S. Andrews,Salmon,104.0,Bertram's Brewery & Restaurant,ID,BrewPub,-113.893139223,45.1750804568,83467,2006,2015,160599702001003,16059970200
101 South Andrews,Salmon,,Bertram's Brewery & Restaurant,ID,BrewPub,-113.8933618,45.1750048,83467,2005,2005,160599702001003,16059970200
569 Main Street,Bethlehem,,Bethlehem Brew Works,PA,BrewPub,-75.3821851,40.6222629,18018,2005,2005,420950108002018,42095010800
569 Main St.,Bethlehem,106.0,Bethlehem Brew Works,PA,BrewPub,-75.3820154268,40.6219609765,18018,2006,2015,420950108002018,42095010800
2550 Takata Drive ,Auburn Hills,,Big Buck Brewery & Steakhouse,MI,BrewPub,-83.242949,42.65947,48326,2005,2005,261251401001054,26125140100
2550 Takata Dr. ,Auburn Hills,110.0,Big Buck Brewery & Steakhouse,MI,BrewPub,-83.2420889115,42.6596698308,48326,2006,2007,261251401001054,26125140100
4543 North Rancho Road ,Las Vegas,,Big Dog's Brewing Co.,NV,BrewPub,-115.2358276,36.242387,89130,2005,2005,320030034091017,32003003409
4543 N. Rancho Rd. ,Las Vegas,113.0,Big Dog's Brewing Co.,NV,BrewPub,-115.235029832,36.2422415335,89130,2006,2015,320030034091017,32003003409
5200 Taravella Rd. ,Marrero,114.0,Big Easy Brewing Company ,LA,MicroBrewery,-90.1043016859,29.881457793,70072,2006,2007,220510267001012,22051026700
5200 Taravella Road ,Marrero,,Big Easy Brewing Company ,LA,MicroBrewery,-90.10512,29.8809949,70072,2005,2005,220510267001012,22051026700
401 E. Main St.,Belgrade,115.0,Big Hole Brewing Co.,MT,MicroBrewery,-111.171154819,45.7739751886,59714,2006,2011,300310001032061,30031000103
401 E. Main Street,Belgrade,,Big Hole Brewing Co.,MT,MicroBrewery,-111.1715423,45.7735956,59714,2005,2005,300310001032061,30031000103
245 South Eton Street ,Birmingham,,Big Rock Chop & Brew House ,MI,BrewPub,-83.1955013,42.5465535,48009,2005,2005,261251529001001,26125152900
245 S. Eton St. ,Birmingham,121.0,Big Rock Chop & Brew House ,MI,BrewPub,-83.1959118814,42.5468754453,48009,2006,2015,261251529001001,26125152900
101 Marcus Street,Hamilton,,Bitter Root Brewing,MT,MicroBrewery,-114.1542115,46.2472779,59840,2005,2005,300810006001051,30081000600
101 Marcus St.,Hamilton,129.0,Bitter Root Brewing,MT,MicroBrewery,-114.153976626,46.2476302953,59840,2006,2015,300810006001051,30081000600
380 Coal Street,Wilkes-Barre,,Black Rock Brewing Co.,PA,BrewPub,-75.865016,41.2368602,18702,2005,2005,420792010002004,42079201000
54 S. Park Ave.,Helena,159.0,Blackfoot River Brewing,MT,MicroBrewery,-112.040904215,46.5874620007,59601,2006,2015,300490007001012,30049000700
54 South Park Avenue,Helena,,Blackfoot River Brewing,MT,MicroBrewery,-112.0416433,46.5864494,59601,2005,2005,300490007001012,30049000700
134 Franklin St.,Clarksville,,Blackhorse Pub & Brewery,TN,BrewPub,-87.358825,36.5273759,37040,2005,2008,471251001001047,47125100100
132 Franklin St.,Clarksville,142.0,Blackhorse Pub & Brewery,TN,BrewPub,-87.3596665891,36.5271794237,37040,2009,2015,471251001001047,47125100100
1918 W. End Ave. ,Nashville,161.0,Blackstone Restaurant & Brewery ,TN,BrewPub,-86.79785951,36.1521969658,37203,2006,2008,470370195002104,47037019500
1918 W. End Avenue ,Nashville,,Blackstone Restaurant & Brewery ,TN,BrewPub,-86.7991006,36.1519283,37203,2005,2005,470370195002104,47037019500
Thomas St. / Williams Ave.,Davis,162.0,Blackwater Brewing Co.,WV,BrewPub,-79.4722700222,39.1279800088,26260,2006,2012,540939653002213,54093965300
912 William Ave. (at Thomas),Davis,144.0,Blackwater Brewing Co.,WV,BrewPub,-79.4722700222,39.1279800088,26260,2013,2015,540939653002213,54093965300
432 NW 21st Street ,Portland,,Blue Moon Tavern & Grill ,OR,BrewPub,-122.6941044,45.526196,97209,2005,2005,410510048003003,41051004800
432 NW 21st St. ,Portland,170.0,Blue Moon Tavern & Grill ,OR,BrewPub,-122.693901168,45.5257090009,97209,2006,2015,410510048003003,41051004800
217 N. Main Street,Greenville,,Blue Ridge Brewing Co.,SC,BrewPub,-82.3983779,34.8530553,29601,2005,2005,450450002001006,45045000200
217 N. Main St.,Greenville,173.0,Blue Ridge Brewing Co.,SC,BrewPub,-82.3983016631,34.8528674702,29601,2006,2015,450450002001006,45045000200
1414 S. Alamo St. ,San Antonio,174.0,Blue Star Brewing Company ,TX,BrewPub,-98.4956060831,29.4099867736,78212,2006,2015,480291921002007,48029192100
1414 South Alamo Street ,San Antonio,,Blue Star Brewing Company ,TX,BrewPub,-98.4954787,29.4099534,78212,2005,2005,480291921002007,48029192100
3929 Shelbyville Rd. ,Louisville,175.0,Bluegrass Brewing Co.,KY,BrewPub,-85.6547326781,38.2530351606,40207,2006,2015,211110098001016,21111009800
3929 Shelbyville Road ,Louisville,,Bluegrass Brewing Co.,KY,BrewPub,-85.6538327,38.2530375,40207,2005,2005,211110098001016,21111009800
51 N. Saginaw St. ,Pontiac,185.0,Bo's Brewery & Bistro ,MI,BrewPub,-83.2924379328,42.6380869763,48342,2006,2013,261251422002008,26125142200
51 North Saginaw Street ,Pontiac,,Bo's Brewery & Bistro ,MI,BrewPub,-83.292818,42.638227,48342,2005,2005,261251422002008,26125142200
5 Main St. ,Bristol,176.0,Bobcat Cafe & Brewery ,VT,BrewPub,-73.0785328565,44.1329124185,5443,2006,2015,500019605001020,50001960500
5 Main Street ,Bristol,,Bobcat Cafe & Brewery ,VT,BrewPub,-73.0781451,44.132911,5443,2005,2005,500019605001020,50001960500
94 E. Fort Union Blvd.  ,Salt Lake City,177.0,Bohemian Brewery & Grill ,UT,BrewPub,-111.887610642,40.6201129147,84047,2006,2009,490351125032002,49035112503
2100 S. Casino Drive,Laughlin,,Boiler Room Brewpub,NV,BrewPub,-114.5721888,35.1582608,89029,2005,2005,320030057022001,32003005702
39550 7 Mile Rd.,Northville,180.0,Bonfire Bistro and Brewery,MI,BrewPub,-83.4348073686,42.4251632001,48167,2006,2007,261635602001012,26163560200
39550 7 Mile Road,Northville,,Bonfire Bistro and Brewery,MI,BrewPub,-83.434773,42.426124,48167,2005,2005,261635602001012,26163560200
115 E. 7th St.,Leadville,182.0,Boomtown Brewpub,CO,BrewPub,-106.291608267,39.249582555,80461,2006,2009,080659617004015,08065961700
115 E. 7th Street,Leadville,,Boomtown Brewpub,CO,BrewPub,-106.291502,39.24942,80461,2005,2005,080659617004015,08065961700
1805 21st Ave. S. ,Nashville,186.0,Boscos,TN,BrewPub,-86.8009664345,36.1364126224,37212,2006,2014,470370168002010,47037016800
1805 21st Ave. South ,Nashville,,Boscos,TN,BrewPub,-86.8012261,36.136314,37212,2005,2005,470370168002010,47037016800
500 President Clinton Avenue,Little Rock,,Boscos ,AR,BrewPub,-92.26469,34.747606,72201,2005,2005,051190044001058,05119004400
500 President Clinton Ave.,Little Rock,187.0,Boscos ,AR,BrewPub,-92.2654772799,34.7475004738,72201,2006,2014,051190044001058,05119004400
61 Brookline Ave. ,Boston,190.0,Boston Beer Works ,MA,BrewPub,-71.0992882261,42.3469248297,2215,2006,2015,250250102043000,25025010204
61 Brookline Avenue ,Boston,,Boston Beer Works ,MA,BrewPub,-71.0991449,42.347204,2215,2005,2005,250250102043000,25025010204
406 W. Pine St.,Pinedale,191.0,Bottom's Up Brewery,WY,BrewPub,-109.865652549,42.8664019682,82941,2006,2015,560350001021151,56035000102
406 West Pine Street,Pinedale,,Bottom's Up Brewery,WY,BrewPub,-109.8658982,42.8662962,82941,2005,2005,560350001021151,56035000102
2501 Southwest Blvd. ,Kansas City,193.0,Boulevard Brewing Company ,MO,MicroBrewery,-94.5966017799,39.0822501527,64108,2006,2015,290950153002004,29095015300
2501 Southwest Boulevard ,Kansas City,,Boulevard Brewing Company ,MO,MicroBrewery,-94.5966532,39.0821348,64108,2005,2005,290950153002004,29095015300
105 Hollywood Boulevard,South Barrington,,Brass Restaurant & Brewery,IL,BrewPub,-88.144299,42.070986,60010,2005,2005,170318042013024,17031804201
105 Hollywood Blvd.,South Barrington,197.0,Brass Restaurant & Brewery,IL,BrewPub,-88.1473179742,42.0688219637,60010,2006,2015,170318042013024,17031804201
471 Kalamath St. ,Denver,201.0,Breckenridge BBQ & Brew Pub,CO,BrewPub,-105.00041817,39.7236111523,80204,2006,2015,080310021003032,08031002100
471 Kalamath Street ,Denver,,Breckenridge BBQ & Brew Pub,CO,BrewPub,-105.0006015,39.7236683,80204,2005,2005,080310021003032,08031002100
2220 Blake St. ,Denver,200.0,Breckenridge Ball Park Brew Pub,CO,BrewPub,-104.991720285,39.7561864149,80204,2006,2015,080310016002024,08031001600
2220 Blake Street ,Denver,,Breckenridge Ball Park Brew Pub,CO,BrewPub,-104.991249,39.756297,80204,2005,2005,080310016002024,08031001600
801 14th St. ,Sacramento,204.0,Brew It Up! Personal Brewery & Grill ,CA,BrewPub,-121.486939949,38.5808309928,95814,2006,2011,060670011011001,06067001101
801 14th Street ,Sacramento,,Brew It Up! Personal Brewery & Grill ,CA,BrewPub,-121.4866931,38.5807078,95814,2005,2005,060670011011001,06067001101
8377 Pearl Rd.,Strongsville,184.0,Brew Kettle Taproom & Smokehouse,OH,BrewPub,-81.8222654194,41.3484552228,44136,2007,2015,390351861041002,39035186104
8377 Pearl Rd.,Strongville,205.0,Brew Kettle Taproom & Smokehouse,OH,BrewPub,-81.8222654194,41.3484552228,44136,2006,2006,390351861041002,39035186104
7424 Heil Ave. ,Huntington Beach,209.0,"Brewbakers, A Personal Craft-Brewery",CA,MicroBrewery,-117.998988263,33.7222829407,92647,2006,2015,060590994112001,06059099411
7424 Heil Avenue ,Huntington Beach,,"Brewbakers, A Personal Craft-Brewery",CA,MicroBrewery,-117.9990513,33.7228479,92647,2005,2005,060590994112001,06059099411
124 N. Market St.,Frederick,210.0,Brewer's Alley Restaurant & Brewery,MD,BrewPub,-77.4105751074,39.4154887497,21702,2006,2015,240217502002011,24021750200
124 N. Market Street,Frederick,,Brewer's Alley Restaurant & Brewery,MD,BrewPub,-77.4105232,39.4160744,21702,2005,2005,240217502002011,24021750200
1106 N. Charles Street ,Baltimore,,Brewer's Art ,MD,BrewPub,-76.6163692,39.3027476,21201,2005,2005,245101102001034,24510110200
1106 N. Charles St. ,Baltimore,212.0,Brewer's Art ,MD,BrewPub,-76.6162746446,39.3024973332,21201,2006,2015,245101102001034,24510110200
201 Carrollton Avenue ,New Orleans,,Brewhouse Grill ,LA,BrewPub,-90.099843,29.975716,70119,2005,2005,220710054003038,22071005400
201 Carrollton Ave. ,New Orleans,220.0,Brewhouse Grill ,LA,BrewPub,-90.0996621379,29.9756148404,70119,2006,2006,220710054003038,22071005400
67 W. Main Street,Patchogue,,Brickhouse Brewery & Restaurant,NY,BrewPub,-73.0168092,40.7660401,11772,2005,2005,361031589003022,36103158900
1132 Fourth St. ,San Rafael,229.0,Broken Drum Brewery & Wood Grill ,CA,BrewPub,-122.528773852,37.9732492565,94901,2006,2015,060411110001027,06041111000
1132 Fourth Street ,San Rafael,,Broken Drum Brewery & Wood Grill ,CA,BrewPub,-122.5290004,37.9733896,94901,2005,2005,060411110001027,06041111000
79 N. 11th St. ,Brooklyn,230.0,Brooklyn Brewery ,NY,BrewPub,-73.9575219311,40.7216190109,11211,2006,2015,360470557002006,36047055700
79 N. 11th Street ,Brooklyn,,Brooklyn Brewery ,NY,BrewPub,-73.957258,40.721645,11211,2005,2005,360470557002006,36047055700
417 River St.,Troy,232.0,Brown's Brewing Co.,NY,BrewPub,-73.6881246457,42.7353848869,12180,2006,2015,360830407004010,36083040700
417 River Street,Troy,,Brown's Brewing Co.,NY,BrewPub,-73.687704,42.735771,12180,2005,2005,360830407004010,36083040700
401 East Main Street ,Louisville,,Browning's Brewery ,KY,BrewPub,-85.7441124,38.2555029,40202,2005,2005,211110049001053,21111004900
102 North Market Street,Mount Joy,,Bube's Brewery,PA,BrewPub,-76.5029855,40.111778,17552,2005,2005,420710109003000,42071010900
102 N. Market St.,Mount Joy,236.0,Bube's Brewery,PA,BrewPub,-76.5028530308,40.1119903933,17552,2006,2015,420710109003000,42071010900
25200 Miles Rd. ,Bedford Heights,237.0,Buckeye Brewing Co/The Brew Keeper ,OH,BrewPub,-81.5005752069,41.4242351362,44146,2006,2007,390351331041002,39035133104
25200 Miles Road ,Bedford Heights,,Buckeye Brewing Co/The Brew Keeper ,OH,BrewPub,-81.500713,41.423539,44146,2005,2005,390351331041002,39035133104
1082 B St. ,Hayward,244.0,Buffalo Bill's Brewery,CA,BrewPub,-122.081480364,37.6740898296,94541,2006,2015,060014354002019,06001435400
1082 B Street ,Hayward,,Buffalo Bill's Brewery,CA,BrewPub,-122.0815232,37.673993,94541,2005,2005,060014354002019,06001435400
6861 Main St. ,Buffalo,245.0,Buffalo Brewpub,NY,BrewPub,-78.6975293073,42.9651214814,14221,2006,2010,360290096001003,36029009600
6861 Main Street ,Buffalo,,Buffalo Brewpub,NY,BrewPub,-78.6979152,42.964919,14221,2005,2005,360290096001003,36029009600
6861 Main St. ,Williamsville,219.0,Buffalo Brewpub,NY,BrewPub,-78.6975293073,42.9651214814,14221,2011,2015,360290096001003,36029009600
4700 Cherry Creek Dr. South ,Denver,,Bull & Bush Pub & Brewery ,CO,BrewPub,-104.9324133,39.7030961,80222,2005,2005,080050049522010,08005004952
229 W. 4th St.,Williamsport,249.0,Bullfrog Brewery,PA,BrewPub,-77.0053734682,41.2404102889,17701,2006,2011,420810006003067,42081000600
229 West Fourth Street,Williamsport,,Bullfrog Brewery,PA,BrewPub,-77.00562,41.240335,17701,2005,2005,420810006003067,42081000600
8115 Richardson Rd.,Commerce Township,261.0,C.J.'s Brewing Co.,MI,BrewPub,-83.4426065056,42.5770853092,48382,2006,2015,261251344001009,26125134400
8115 Richardson Road,Commerce Township,,C.J.'s Brewing Co.,MI,BrewPub,-83.4427843,42.5770306,48382,2005,2005,261251344001009,26125134400
100 West Main Street ,Alhambra,,California Brewing Company ,CA,MicroBrewery,-118.1279421,34.0943808,91801,2005,2005,060374810011001,06037481001
100 W. Main St. ,Alhambra,266.0,California Brewing Company ,CA,MicroBrewery,-118.127839123,34.0944569764,91801,2006,2008,060374810011001,06037481001
27 Commercial Street ,Gloucester,,Cape Ann Brewing Company ,MA,MicroBrewery,-70.666392,42.610216,1930,2005,2005,250092215002003,25009221500
215 E. State St.,Rockford,281.0,Carlyle Brewing Co.,IL,BrewPub,-89.090470661,42.2689440908,61104,2006,2015,172010011001048,17201001100
215 East State Street,Rockford,,Carlyle Brewing Co.,IL,BrewPub,-89.0906289,42.2689583,61104,2005,2005,172010011001048,17201001100
6300 N. Wickham Rd.,Melbourne,297.0,Charlie & Jake's Brewery Grill,FL,BrewPub,-80.6735515252,28.2151432536,32937,2006,2015,120090641274005,12009064127
6300 North Wickham Road,Melbourne,,Charlie & Jake's Brewery Grill,FL,BrewPub,-80.6740236,28.2143023,32937,2005,2005,120090641274005,12009064127
5 Bartlett Farm Road,Nantucket,,Cisco Brewers,MA,MicroBrewery,-70.131438,41.263609,2584,2005,2005,250199502004026,25019950200
5 Bartlett Farm Rd.,Nantucket,304.0,Cisco Brewers,MA,MicroBrewery,-70.1288564314,41.2600374775,2584,2006,2015,250199502004026,25019950200
824 W. St. Clair ,Cleveland,308.0,Cleveland Chophouse & Brewery ,OH,BrewPub,-81.7000135102,41.4991056667,44113,2006,2013,390351071011056,39035107101
824 West St. Clair ,Cleveland,,Cleveland Chophouse & Brewery ,OH,BrewPub,-81.6995052,41.4995145,44113,2005,2005,390351071011056,39035107101
209 Lakeside Ave.,Coeur d'Alene,319.0,Coeur d'Alene Brewing Co.,ID,BrewPub,-116.783947801,47.674524152,83814,2006,2010,160550014001094,16055001400
209 Lakeside Avenue,Coeur d'Alene,,Coeur d'Alene Brewing Co.,ID,BrewPub,-116.7837391,47.6745297,83814,2005,2005,160550014001094,16055001400
5945 W. Ray Rd. ,Chandler,327.0,Copper Canyon Grill & Brew Pub ,AZ,BrewPub,-111.944252565,33.3198129347,85226,2006,2007,040138105003013,04013810500
5945 West Ray Road ,Chandler,,Copper Canyon Grill & Brew Pub ,AZ,BrewPub,-111.9442405,33.3197566,85226,2005,2005,040138105003013,04013810500
140 East Washington Street,Athens,,Copper Creek Brewing Co.,GA,BrewPub,-83.376666,33.958886,30601,2005,2005,130590001001033,13059000100
140 E. Washington St.,Athens,328.0,Copper Creek Brewing Co.,GA,BrewPub,-83.3766489977,33.9590166367,30601,2006,2015,130590001001033,13059000100
120 East Third Street,Grand Island,,Copper Eagle Brewing Co.,NE,BrewPub,-98.3395999,40.9260084,68801,2005,2005,310790010001010,31079001000
120 E. 3rd St.,Grand Island,330.0,Copper Eagle Brewing Co.,NE,BrewPub,-98.339737735,40.9259984128,68801,2006,2015,310790010001010,31079001000
4045 NW Cornelius Pass Rd. ,Hillsboro,332.0,Cornelius Pass Roadhouse ,OR,BrewPub,-122.900166324,45.5490531911,97124,2006,2015,410670326071075,41067032607
4045 NW Cornelius Pass Road ,Hillsboro,,Cornelius Pass Roadhouse ,OR,BrewPub,-122.9004755,45.5490951,97124,2005,2005,410670326071075,41067032607
1020 E. Main Street,Reedsburg,,Corner Pub,WI,BrewPub,-89.9959408,43.5321195,53959,2005,2005,551110010022045,55111001002
58 Front St.,Berea,334.0,Cornerstone Brewing Co.,OH,BrewPub,-81.8530773792,41.3667755707,44017,2006,2015,390351343002010,39035134300
58 Front Street,Berea,,Cornerstone Brewing Co.,OH,BrewPub,-81.852654,41.366911,44017,2005,2005,390351343002010,39035134300
"1260 Lincoln Ave., Unit 100   ",Pasadena,341.0,Craftsman Brewing Co.,CA,MicroBrewery,-118.15946022,34.1682273336,91103,2006,2015,060374616002000,06037461600
"1260 Lincoln Avenue, Unit 100   ",Pasadena,,Craftsman Brewing Co.,CA,MicroBrewery,-118.1585792,34.1688142,91103,2005,2005,060374616002000,06037461600
527 Decatur St. ,New Orleans,342.0,Crescent City Brewhouse ,LA,BrewPub,-90.0640566604,29.9554846977,70130,2006,2015,220710135003015,22071013500
527 Decatur Street ,New Orleans,,Crescent City Brewhouse ,LA,BrewPub,-90.0640251,29.9557642,70130,2005,2005,220710135003015,22071013500
303 N. Franklin St.,Watkins Glen,1607.0,Crooked Rooster Brewpub,NY,BrewPub,-76.8738591671,42.3811861649,14891,2006,2010,360979504002028,36097950400
511 S. Kalamazoo St.,Marshall,354.0,Dark Horse Brewing Co.,MI,MicroBrewery,-84.9639648579,42.2665229912,49068,2006,2015,260250040003022,26025004000
511 South Kalamazoo Street,Marshall,,Dark Horse Brewing Co.,MI,MicroBrewery,-84.9635125,42.2667135,49068,2005,2005,260250040003022,26025004000
184 Glen St.,Glen Falls,,Davidson Bros. Restaurant & Brewery,NY,BrewPub,-73.644772,43.3096249,12801,2005,2008,361130702001000,36113070200
500 S. Telshor,Las Cruces,2852.0,De La Vega's Pecan Grill & Brewery,NM,BrewHouse,-106.744,32.3144,88011,2011,2015,350130012031000,35013001203
500 S. Telshor Blvd.,Las Cruces,,De La Vega's Pecan Grill & Brewery,NM,BrewHouse,-106.7435724,32.309312,88011,2010,2010,350130012031000,35013001203
1006 S. Hathaway St.,Santa Ana,5951.0,Deans Brothers Brewing Co.,CA,Brewery,-117.8531742,33.7351868,92705,2015,2015,060590744031025,06059074403
1004 S Hathaway St.,Santa Ana,4377.0,Deans Brothers Brewing Co.,CA,MicroBrewery,-117.853127,33.735166,92705,2014,2014,060590744031025,06059074403
808 Main St. W.,Ashland,358.0,Deep Water Grille & South Shore Brewery,WI,BrewPub,-90.8918808417,46.5875063359,54806,2006,2015,550039504003013,55003950400
808 W. Main St.,Ashland,,Deep Water Grille & South Shore Brewery,WI,BrewPub,-90.8921902,46.5873176,54806,2005,2005,550039504003013,55003950400
510 Boston Turnpike Rd.,Shrewsbury,,Deja Brew,MA,BrewonPremise,-71.7182401,42.276191,1545,2005,2005,250277391003002,25027739100
510 Boston Turnpike,Shrewsbury,359.0,Deja Brew,MA,BrewonPremise,-71.7180513032,42.2763519824,1545,2006,2011,250277391003002,25027739100
127 N. Broadway,Watertown,361.0,Dempsey's Brewery & Pub Restaurant,SD,BrewPub,-97.1140664075,44.9022241932,57201,2006,2015,460299544002002,46029954400
127 North Broadway,Watertown,,Dempsey's Brewery & Pub Restaurant,SD,BrewPub,-97.1141406,44.9029428,57201,2005,2005,460299544002002,46029954400
323 Cross St. ,Little Rock,371.0,Diamond Bear Brewing Co ,AR,MicroBrewery,-92.2836438575,34.7474732045,72201,2006,2015,051190044002063,05119004400
323 Cross Street ,Little Rock,,Diamond Bear Brewing Co ,AR,MicroBrewery,-92.2835991,34.7472109,72201,2005,2005,051190044002063,05119004400
621 Front Street ,Mukilteo,,Diamond Knot Brewery & Alehouse ,WA,BrewPub,-122.304687,47.94845,98275,2005,2005,530610413013002,53061041301
621 Front St. ,Mukilteo,372.0,Diamond Knot Brewery & Alehouse ,WA,BrewPub,-122.305021235,47.9485668794,98275,2006,2015,530610413013002,53061041301
1142 Mt. Hope Ave.,Rochester,375.0,"Distillery, The",NY,BrewPub,-77.6158929146,43.127451335,14620,2006,2006,360550038051004,36055003805
1142 Mt. Hope Avenue,Rochester,,"Distillery, The",NY,BrewPub,-77.615601,43.127617,14620,2005,2005,360550038051004,36055003805
430 1st Ave. North ,Minneapolis,,District Warehouse Brewing Company ,MN,BrewPub,-93.2735726,44.9808684,55401,2005,2005,270531261003006,27053126100
430 1st Ave. N. ,Minneapolis,377.0,District Warehouse Brewing Company ,MN,BrewPub,-93.27303269,44.9810543301,55401,2006,2006,270531261003006,27053126100
2537 Tulane Ave. ,New Orleans,378.0,Dixie Brewing Company ,LA,MicroBrewery,-90.0879949693,29.9610513134,70119,2006,2006,220710060001005,22071006000
2537 Tulane Avenue ,New Orleans,,Dixie Brewing Company ,LA,MicroBrewery,-90.088496,29.961248,70119,2005,2005,220710060001005,22071006000
200 Main St.,La Crosse,381.0,Doc Powell's Brewing Co.,WI,BrewPub,-91.2532914387,43.8129352593,54601,2006,2006,550630003001065,55063000300
200 Main Street,La Crosse,,Doc Powell's Brewing Co.,WI,BrewPub,-91.2536949,43.813006,54601,2005,2005,550630003001065,55063000300
402 River Road ,Boerne,,Dodging Duck Brewhaus ,TX,BrewPub,-98.7259811,29.7898434,78006,2005,2005,482599705002035,48259970500
402 River Rd. ,Boerne,382.0,Dodging Duck Brewhaus ,TX,BrewPub,-98.7260900051,29.7897099939,78006,2006,2015,482599705002035,48259970500
320 Rehoboth Ave. ,Rehoboth Beach,383.0,Dogfish Head Brewings and Eats,DE,BrewPub,-75.0855187333,38.715510789,19971,2006,2015,100050511022002,10005051102
320 Rehoboth Avenue ,Rehoboth Beach,,Dogfish Head Brewings and Eats,DE,BrewPub,-75.0870507,38.7151874,19971,2005,2005,100050511022002,10005051102
424 South Gay Street,Knoxville,,Downtown Grill & Brewery,TN,BrewPub,-83.918128,35.965693,37902,2005,2005,470930001001033,47093000100
424 S. Gay St.,Knoxville,388.0,Downtown Grill & Brewery,TN,BrewPub,-83.918253328,35.9653325586,37902,2006,2015,470930001001033,47093000100
14600 E. Eleven Mile Road ,Warren,,Dragonmead Microbrewery ,MI,MicroBrewery,-82.9752289,42.4926954,48089,2005,2005,260992628001004,26099262800
14600 E. 11 Mile Rd. ,Warren,390.0,Dragonmead Microbrewery ,MI,MicroBrewery,-82.9738160381,42.4930346041,48089,2006,2015,260992628001004,26099262800
15120 E. Hampden St.,Aurora,1449.0,Dry Dock Brewing Co.,CO,MicroBrewery,-104.81208,39.652922,80014,2014,2015,080050838001000,08005083800
15110 E. Hampden St.,Aurora,1638.0,Dry Dock Brewing Co.,CO,MicroBrewery,-104.812,39.6514,80014,2006,2013,080050838001000,08005083800
4000 Town Centre Blvd,Bowie,397.0,DuClaw Brewing Company ,MD,BrewPub,-76.7341804504,38.9453083064,20716,2006,2015,240338005162005,24033800516
16 Bel Air S. Parkway ,Bel Air,396.0,DuClaw Brewing Company ,MD,BrewPub,-76.3299840688,39.496894071,21015,2006,2006,240253012022003,24025301202
4000 Towne Centre Blvd,Bowie,,DuClaw Brewing Company ,MD,BrewPub,-76.733812,38.945017,20716,2005,2005,240338005162005,24033800516
16 Bel Air South Parkway ,Bel Air,,DuClaw Brewing Company ,MD,BrewPub,-76.3312054,39.4963747,21015,2005,2015,240253012022003,24025301202
937 Douglas Ave. ,Dunedin,399.0,Dunedin Brewery ,FL,BrewPub,-82.7878299738,28.0143455359,34698,2006,2015,121030271013033,12103027101
937 Douglas Avenue ,Dunedin,,Dunedin Brewery ,FL,BrewPub,-82.787576,28.014035,34698,2005,2005,121030271013033,12103027101
625 4th St. ,Mukilteo,407.0,Eagle Brewing Company & Riley's Pizza,WA,BrewPub,-122.304058471,47.9452892551,98275,2006,2007,530610413012038,53061041301
625 4th Street ,Mukilteo,,Eagle Brewing Company & Riley's Pizza,WA,BrewPub,-122.303842,47.9454733,98275,2005,2005,530610413012038,53061041301
1249 Wicker Drive ,Raleigh,,Edenton Brewing Company ,NC,MicroBrewery,-78.617923,35.810418,27604,2005,2005,371830518001003,37183051800
1249 Wicker Dr. ,Raleigh,412.0,Edenton Brewing Company ,NC,MicroBrewery,-78.6181794791,35.8099078002,27604,2006,2015,371830518001003,37183051800
6645 Mill Road,Somerset,,El Dorado Brewing Co.,CA,MicroBrewery,-120.559725,38.578366,95684,2005,2005,060170314023160,06017031402
17370 Hill Rd. ,Morgan Hill,416.0,El Toro Brewing Co.,CA,MicroBrewery,-121.62255894,37.1456236977,95037,2006,2015,060855123083001,06085512308
17370 Hill Road ,Morgan Hill,,El Toro Brewing Co.,CA,MicroBrewery,-121.6218982,37.1464936,95037,2005,2005,060855123083001,06085512308
1326 9th Ave. ,San Francisco,418.0,Eldos Grill and Brewery ,CA,BrewPub,-122.466135796,37.7634727991,94122,2006,2015,060750302022001,06075030202
1326 9th Avenue ,San Francisco,,Eldos Grill and Brewery ,CA,BrewPub,-122.4660283,37.7634951,94122,2005,2005,060750302022001,06075030202
161 N. High Street ,Columbus ,,Elevator Brewery & Restaurant,OH,BrewPub,-83.001838,39.965682,43235,2005,2005,390490030002043,39049003000
161 N. High St. ,Columbus ,420.0,Elevator Brewery & Restaurant,OH,BrewPub,-83.0013309388,39.9657228321,43215,2006,2015,390490030002043,39049003000
118 East Main Street,Elmwood,,Elmwood Brewing Co. Restaurant & Brewery,IL,BrewPub,-89.9652,40.777759,61529,2005,2005,171430040003080,17143004000
118 E. Main St.,Elmwood,429.0,Elmwood Brewing Co. Restaurant & Brewery,IL,BrewPub,-89.9660535417,40.7778032229,61529,2006,2008,171430040003080,17143004000
1221 East Pike Street ,Seattle,,Elysian Brewing Company ,WA,BrewPub,-122.3159648,47.6139451,98122,2005,2005,530330075004008,53033007500
1221 E. Pike St. ,Seattle,430.0,Elysian Brewing Company ,WA,BrewPub,-122.316419009,47.6140829596,98122,2006,2015,530330075004008,53033007500
2106 North 55th Street ,Seattle,,Elysian TangleTown Brewery ,WA,BrewPub,-122.3335032,47.6688073,98103,2005,2005,530330046002008,53033004600
2106 N. 55th St. ,Seattle,431.0,Elysian TangleTown Brewery ,WA,BrewPub,-122.333581671,47.6687650825,98103,2006,2015,530330046002008,53033004600
1110 Alverser Dr.,Midlothian,443.0,Extra Billy's Smokehouse Brewery,VA,BrewPub,-77.617996955,37.5063623294,23113,2006,2015,510411009152036,51041100915
1110 Alverser Drive,Midlothian,,Extra Billy's Smokehouse Brewery,VA,BrewPub,-77.6184679,37.5072168,23113,2005,2005,510411009152036,51041100915
1919 Blake St. ,Denver,444.0,Falling Rock Tap House ,CO,BrewPub,-104.995615461,39.7535229218,80202,2006,2007,080310017013004,08031001701
1919 Blake Street ,Denver,,Falling Rock Tap House ,CO,BrewPub,-104.9954029,39.753935,80202,2005,2005,080310017013004,08031001701
610 Main Street,Rapid City,,Firehouse Brewing Co.,SD,BrewPub,-103.2275473,44.0813889,57701,2005,2005,461030102002006,46103010200
600 E. Superior Street,Duluth,,Fitger's Brewhouse,MN,BrewPub,-92.0906002,46.7923757,55802,2005,2005,271370017002019,27137001700
600 E. Superior St.,Duluth,458.0,Fitger's Brewhouse,MN,BrewPub,-92.0908390776,46.7919659541,55802,2006,2015,271370017002019,27137001700
491 Ontario Street ,Buffalo,,Flying Bison Brewing Company ,NY,MicroBrewery,-78.896516,42.9563513,14207,2005,2005,360290057001001,36029005700
491 Ontario St. ,Buffalo,466.0,Flying Bison Brewing Company ,NY,MicroBrewery,-78.8967865917,42.9564934134,14207,2006,2014,360290057001001,36029005700
1284 McD Dr.,Dover,472.0,Fordham Brewing Co.,DE,MicroBrewery,-75.4903499379,39.1535163774,19901,2006,2015,100010410002016,10001041000
1284 McD Drive,Dover,,Fordham Brewing Co.,DE,MicroBrewery,-75.4883578,39.1540069,19901,2005,2005,100010410002016,10001041000
648 Monroe Avenue NW,Grand Rapids,,Founders Brewing Co.,MI,MicroBrewery,-85.6721779,42.9748694,49503,2005,2005,260810014001029,26081001400
648 Monroe Ave. NW,Grand Rapids,476.0,Founders Brewing Co.,MI,MicroBrewery,-85.6723426908,42.974265912,49503,2006,2008,260810014001029,26081001400
5121 Baltimore Ave.,Hyattsville,485.0,Franklin's Restaurant Brewery & General Store,MD,BrewPub,-76.9401627803,38.9528080952,20781,2006,2015,240338063001015,24033806300
5121 Baltimore Avenue,Hyattsville,,Franklin's Restaurant Brewery & General Store,MD,BrewPub,-76.9404479,38.952638,20781,2005,2005,240338063001015,24033806300
636 Massachusetts Street,Lawrence,,Free State Brewing Co.,KS,BrewPub,-95.2355254,38.9717476,66044,2005,2005,200450002001008,20045000200
636 Massachusetts St.,Lawrence,490.0,Free State Brewing Co.,KS,BrewPub,-95.2357736975,38.9724869295,66044,2006,2015,200450002001008,20045000200
46 Durham Rd.,Freeport,491.0,Freeport Brewing Co.,ME,MicroBrewery,-70.1067200005,43.8746063339,4032,2006,2012,230050045012019,23005004501
46 Durham Road,Freeport,,Freeport Brewing Co.,ME,MicroBrewery,-70.1067671,43.8744204,4032,2005,2005,230050045012019,23005004501
101 Fairview Road,Asheville,,French Broad Brewing Co.,NC,MicroBrewery,-82.537479,35.566345,28801,2005,2005,370210020001023,37021002000
101 Fairview Rd.,Asheville,492.0,French Broad Brewing Co.,NC,MicroBrewery,-82.5358528329,35.5663249694,28801,2006,2015,370210020001023,37021002000
9 North Front Street,Wilmington,,Front Street Brewery,NC,BrewPub,-77.949088,34.235752,28401,2005,2005,371290113001044,37129011300
9 N. Front St.,Wilmington,496.0,Front Street Brewery,NC,BrewPub,-77.9489829539,34.2353501091,28401,2006,2015,371290113001044,37129011300
248 Hunterstown Rd.,Gettysburg,508.0,Gettysbrew Restaurant & Brewery,PA,BrewPub,-77.2101605468,39.846045727,17325,2006,2015,420010306003031,42001030600
248 Hunterstown Road,Gettysburg,,Gettysbrew Restaurant & Brewery,PA,BrewPub,-77.2104057,39.845914,17325,2005,2005,420010306003031,42001030600
219 N. Red River Ave.,Cold Spring,513.0,Gluek Brewing Co.,MN,MicroBrewery,-94.429273601,45.4582544402,56320,2006,2015,271450113022046,27145011302
219 N. Red River Avenue,Cold Spring,,Gluek Brewing Co.,MN,MicroBrewery,-94.42905,45.4582466,56320,2005,2005,271450113022046,27145011302
16 N. 6th St.,Minneapolis,514.0,Gluek's Bar & Restaurant,MN,BrewPub,-93.2737982258,44.9791115742,55403,2006,2010,270531261003015,27053126100
16 North 6th Street,Minneapolis,,Gluek's Bar & Restaurant,MN,BrewPub,-93.274181,44.979303,55403,2005,2005,270531261003015,27053126100
920 12th Street ,Golden,,Golden City Brewery ,CO,MicroBrewery,-105.2236543,39.7546856,80401,2005,2005,080590100002007,08059010000
980 E. 4th,McMinnville,,Golden Valley Brewery,OR,BrewPub,-123.1890153,45.2102673,97128,2005,2005,410710308012089,41071030801
980 NE. 4th St.,McMinnville,518.0,Golden Valley Brewery,OR,BrewPub,-123.188851583,45.2105629094,97128,2006,2015,410710308012089,41071030801
3535 North Clark Street ,Chicago,,Goose Island Beer Company,IL,BrewPub,-87.6555026,41.9464894,60657,2005,2005,170318320001010,17031832000
1800 N. Clybourn ,Chicago,519.0,Goose Island Beer Company,IL,BrewPub,-87.6537134397,41.9136912687,60614,2006,2015,170318326002019,17031832600
1800 North Clybourn ,Chicago,,Goose Island Beer Company,IL,BrewPub,-87.6537358,41.9137245,60614,2005,2005,170318326002019,17031832600
3535 N. Clark St. ,Chicago,520.0,Goose Island Beer Company,IL,BrewPub,-87.6559611626,41.9466858983,60657,2006,2014,170318320001010,17031832000
200 Poydras Street ,New Orleans,,Gordon Biersch Brewery Restaurant ,LA,BrewPub,-90.0650167,29.9480629,70130,2005,2005,220710134001008,22071013400
145 S. Main St.  ,Memphis,536.0,Gordon Biersch Brewery Restaurant ,TN,BrewPub,-90.054468436,35.141249923,38103,2006,2006,471570042002018,47157004200
33 E. San Fernando St. ,San Jose,527.0,Gordon Biersch Brewery Restaurant ,CA,BrewPub,-121.888789055,37.3349193183,95113,2006,2015,060855009012003,06085500901
145 S. San Fernando Blvd. ,Burbank,522.0,Gordon Biersch Brewery Restaurant ,CA,BrewPub,-118.30841703,34.1803450305,91502,2006,2015,060373107022019,06037310702
145 S. San Fernando Boulevard ,Burbank,,Gordon Biersch Brewery Restaurant ,CA,BrewPub,-118.308159,34.180046,91502,2005,2005,060373107022019,06037310702
"600 Pine St., 4th Floor",Seattle,537.0,Gordon Biersch Brewery Restaurant ,WA,BrewPub,-122.33528516,47.6124499971,98101,2006,2015,530330082001002,53033008200
33 E. San Fernando Street ,San Jose,,Gordon Biersch Brewery Restaurant ,CA,BrewPub,-121.88863,37.3348003,95113,2005,2005,060855009012003,06085500901
5010 Mission Center Road ,San Diego,,Gordon Biersch Brewery Restaurant ,CA,BrewPub,-117.1539169,32.7671084,92108,2005,2005,060730093042044,06073009304
1201 Brickell Avenue #250 ,Miami,,Gordon Biersch Brewery Restaurant ,FL,BrewPub,-80.1912652,25.7619293,33131,2005,2005,120860067132002,12086006713
145 South Main Street  ,Memphis,,Gordon Biersch Brewery Restaurant ,TN,BrewPub,-90.054736,35.141411,38103,2005,2005,471570042002018,47157004200
"900 F St., NW  ",Washington,529.0,Gordon Biersch Brewery Restaurant ,DC,BrewPub,-77.024160024,38.8968729413,20004,2006,2015,110010058001023,11001005800
640 Emerson Street ,Palo Alto,,Gordon Biersch Brewery Restaurant ,CA,BrewPub,-122.161028,37.4432934,94301,2005,2005,060855113022016,06085511302
1201 Brickell Ave. #250 ,Miami,530.0,Gordon Biersch Brewery Restaurant ,FL,BrewPub,-80.1916468057,25.7619311313,33131,2006,2014,120860067132002,12086006713
"900 F Street, NW  ",Washington,,Gordon Biersch Brewery Restaurant ,DC,BrewPub,-77.0243744,38.8971064,20004,2005,2005,110010058001023,11001005800
"600 Pine Street, 4th Floor",Seattle,,Gordon Biersch Brewery Restaurant ,WA,BrewPub,-122.3354092,47.6125141,98101,2005,2005,530330082001002,53033008200
200 Poydras St. ,New Orleans,533.0,Gordon Biersch Brewery Restaurant ,LA,BrewPub,-90.0648242842,29.948170735,70130,2006,2015,220710134001008,22071013400
6150 O Street,Lincoln,,Granite City Food & Brewery ,NE,BrewPub,-96.6380559,40.8135114,68505,2005,2005,311090012003011,31109001200
1636 SW 42nd Street,Fargo,,Granite City Food & Brewery ,ND,BrewPub,-96.8501189,46.855935,58103,2005,2005,380170101061055,38017010106
1636 42nd St. SW,Fargo,552.0,Granite City Food & Brewery ,ND,BrewPub,-96.8510098855,46.8559169012,58103,2006,2015,380170101061055,38017010106
6150 O St.,Lincoln,553.0,Granite City Food & Brewery ,NE,BrewPub,-96.6355027591,40.8135270597,68505,2006,2015,311090012003011,31109001200
12801 University Avenue SE ,Clive,,Granite City Food & Brewery ,IA,BrewPub,-93.7949935,41.600935,50325,2005,2005,191530112032012,19153011203
35905 Utica Road,Clinton Township,,Great Baraboo Brewing Co. & Restaurant,MI,BrewPub,-82.9654545,42.5602505,48035,2005,2005,260992415001012,26099241500
2 Central Avenue,Whitefish,,Great Northern Brewing Co.,MT,MicroBrewery,-114.3372852,48.412315,59937,2005,2005,300290004023007,30029000402
2 Central Ave.,Whitefish,568.0,Great Northern Brewing Co.,MT,MicroBrewery,-114.33682647,48.4123544913,59937,2006,2015,300290004023007,30029000402
426 St. Peter St. ,St. Paul,572.0,Great Waters Brewing Company ,MN,BrewPub,-93.097074986,44.9467686111,55102,2006,2015,271230342011037,27123034201
426 St. Peter Street ,St. Paul,,Great Waters Brewing Company ,MN,BrewPub,-93.0968155,44.9467327,55102,2005,2005,271230342011037,27123034201
1430 Vantage Ct.,Vista,574.0,Green Flash Brewing Co.,CA,MicroBrewery,-117.224407965,33.1372278857,92081,2006,2015,060730200172028,06073020017
"1430 Vantage Court, Suite 104",Vista,,Green Flash Brewing Co.,CA,MicroBrewery,-117.2244859,33.1362843,92081,2005,2005,060730200172028,06073020017
120 West Washington Street,Ann Arbor,,Grizzly Peak Brewing Co.,MI,BrewPub,-83.7495927,42.2807621,48104,2005,2005,261614001001015,26161400100
120 W. Washington St.,Ann Arbor,581.0,Grizzly Peak Brewing Co.,MI,BrewPub,-83.7488007545,42.2805355861,48104,2006,2015,261614001001015,26161400100
1653 North Carbonville Road,Helper,,Groggs - Pinnacle Brewing Co.,UT,BrewPub,-110.8431654,39.6258667,84501,2005,2005,490070002003011,49007000200
1653 N. Carbonville Rd.,Helper,582.0,Groggs - Pinnacle Brewing Co.,UT,BrewPub,-110.843820578,39.6258459207,84501,2006,2015,490070002003011,49007000200
4509 SE 23rd Avenue ,Portland,,Hair of the Dog Brewing Company ,OR,MicroBrewery,-122.6425292,45.4900834,97202,2005,2005,410510003012033,41051000301
4509 SE 23rd Ave. ,Portland,587.0,Hair of the Dog Brewing Company ,OR,MicroBrewery,-122.642655373,45.4899904985,97202,2006,2011,410510003012033,41051000301
701 Evans Street,Greenville,,Ham's Restaurant & Brewhouse,NC,BrewPub,-77.3731619,35.608278,27834,2005,2005,371470001003051,37147000100
701 Evans St.,Greenville,591.0,Ham's Restaurant & Brewhouse,NC,BrewPub,-77.3732783649,35.608417626,27834,2006,2010,371470001003051,37147000100
131 Albert Avenue,East Lansing,,Harper's Restaurant & Brewpub,MI,BrewPub,-84.482714,42.736284,48823,2005,2005,260650041002004,26065004100
131 Albert Ave.,East Lansing,595.0,Harper's Restaurant & Brewpub,MI,BrewPub,-84.4834814228,42.7362543161,48823,2006,2015,260650041002004,26065004100
336 Ruth Carney,Windsor,,Harpoon Brewery,VT,BrewPub,-72.4016913,43.5130201,5089,2005,2005,500279660001002,50027966000
336 Ruth Carney Dr.,Windsor,597.0,Harpoon Brewery,VT,MicroBrewery,-72.4014641397,43.5136105772,5089,2006,2015,500279660001002,50027966000
15845 S. La Grange Rd. ,Orland Park,598.0,Harrison's Brewing Company ,IL,BrewPub,-87.8526760533,41.6023334271,60462,2006,2013,170318241063034,17031824106
15845 S. LaGrange Road ,Orland Park,,Harrison's Brewing Company ,IL,BrewPub,-87.852193,41.602799,60462,2005,2005,170318241063034,17031824106
481 Industrial Dr.,Roseburg,601.0,Hawks Brewing Co.,OR,MicroBrewery,-123.377486753,43.1519273124,97470,2006,2007,410191500001051,41019150000
481 Industrial Drive,Roseburg,,Hawks Brewing Co.,OR,MicroBrewery,-123.3777065,43.1520788,97470,2005,2005,410191500001051,41019150000
1285 Sixth Ave.,New York,,Heartland Brewery at Radio City,NY,BrewPub,-73.9798489,40.7607402,10019,2005,2005,360610131001002,36061013100
35 Union Square W.,New York,608.0,Heartland Brewery at Union Square,NY,BrewPub,-73.9907857708,40.7372111234,10003,2006,2014,360610052002004,36061005200
35 Union Square West,New York,,Heartland Brewery at Union Square,NY,BrewPub,-73.9908393,40.7369091,10003,2005,2005,360610052002004,36061005200
2201 Sherman St.,Wausau,614.0,Hereford & Hops Restaurant & Brewpub,WI,BrewPub,-89.6629870284,44.9515328965,54401,2006,2008,550730006012011,55073000601
2201 Sherman Street,Wausau,,Hereford & Hops Restaurant & Brewpub,WI,BrewPub,-89.6621525,44.9518397,54401,2005,2005,550730006012011,55073000601
2922 Lyndale Ave. South,Minneapolis,615.0,Herkimer Pub & Brewery ,MN,BrewPub,-93.2882960532,44.9495856734,55408,2006,2015,270530077002015,27053007700
2922 Lyndale Avenue ,South Minneapolis,,Herkimer Pub & Brewery ,MN,BrewPub,-93.2885127,44.9491662,55408,2005,2005,270530077002015,27053007700
445 Saint Paul Street,Rochester,,High Falls Brewing Co.,NY,MicroBrewery,-77.6148867,43.1642083,14605,2005,2005,360550092001014,36055009200
206 Choctaw Street,Leavenworth,,High Noon Saloon & Brewery,KS,BrewPub,-94.9111194,39.3169425,66048,2005,2005,201030701001044,20103070100
206 Choctaw St.,Leavenworth,620.0,High Noon Saloon & Brewery,KS,BrewPub,-94.9104985297,39.3169758832,66048,2006,2015,201030701001044,20103070100
313 Dousman St.,Green Bay,629.0,Hinterland Brewery Restaurant Lounge,WI,BrewPub,-88.0194679069,44.5190051431,54303,2006,2015,550090008001004,55009000800
313 Dousman Street,Green Bay,,Hinterland Brewery Restaurant Lounge,WI,BrewPub,-88.019631,44.5189329,54303,2005,2005,550090008001004,55009000800
114 J St. ,Sacramento,632.0,Hogshead Brewery & Pub ,CA,BrewPub,-121.505081338,38.5832337178,95814,2006,2006,060670007001019,06067000700
114 J Street ,Sacramento,,Hogshead Brewery & Pub ,CA,BrewPub,-121.5049326,38.583107,95814,2005,2005,060670007001019,06067000700
1327 N. 14th St.,Sheboygan,641.0,Hops Haven Brew Haus,WI,BrewPub,-87.7225654581,43.7587831719,53081,2006,2010,551170005001016,55117000500
1327 N. 14th Street,Sheboygan,,Hops Haven Brew Haus,WI,BrewPub,-87.7225846,43.7594231,53081,2005,2005,551170005001016,55117000500
5043 S. Cleveland Avenue,Fort Myers,,Hops Restaurant and Brewery ,FL,BrewPub,-81.8714211,26.5847678,33907,2005,2005,120710013001009,12071001300
311 West 104th Avenue ,Northglenn,,Hops Restaurant and Brewery ,CO,BrewPub,-104.990094,39.886632,80234,2005,2005,080010093234000,08001009323
9340 The Landing Drive ,Douglasville,,Hops Restaurant and Brewery ,GA,BrewPub,-84.7377596,33.7292288,30135,2005,2005,130970805081002,13097080508
311 W. 104th Ave. ,Northglenn,645.0,Hops Restaurant and Brewery ,CO,BrewPub,-104.99119135,39.8854520221,80234,2006,2009,080010093234000,08001009323
9340 The Landing Dr. ,Douglasville,669.0,Hops Restaurant and Brewery ,GA,BrewPub,-84.7382354736,33.7293009119,30135,2006,2008,130970805081002,13097080508
16815 Caldwell Creek Drive ,Huntersville,,Hops Restaurant and Brewery ,NC,BrewPub,-80.867005,35.4427892,28078,2005,2005,371190062093059,37119006209
9950 E. Independence Blvd. ,Matthews,676.0,Hops Restaurant and Brewery ,NC,BrewPub,-80.7115664359,35.1325952191,28105,2006,2013,371190058122018,37119005812
7855 Elm Creek Boulevard ,Maple Grove,,Hops Restaurant and Brewery ,MN,BrewPub,-93.450007,45.097594,55369,2005,2005,270530267105011,27053026710
5043 S. Cleveland Ave.,Fort Myers,652.0,Hops Restaurant and Brewery ,FL,BrewPub,-81.8717805184,26.5829673435,33907,2006,2008,120710013001009,12071001300
11448 University Boulevard ,Orlando,,Hops Restaurant and Brewery ,FL,BrewPub,-81.2219512,28.5970668,32817,2005,2005,120950165101006,12095016510
16815 Caldwell Creek Dr. ,Huntersville,675.0,Hops Restaurant and Brewery ,NC,BrewPub,-80.8670866379,35.4436920684,28078,2006,2008,371190062093059,37119006209
11555 Pines Blvd. ,Pembroke Pines,661.0,Hops Restaurant and Brewery ,FL,BrewPub,-80.3022843628,26.0079676395,33026,2006,2008,120111103092012,12011110309
8026 W. Bowles Ave. ,Littleton,644.0,Hops Restaurant and Brewery ,CO,BrewPub,-105.087985266,39.609695159,80123,2006,2013,080590120481002,08059012048
7855 Elm Creek Blvd. ,Maple Grove,672.0,Hops Restaurant and Brewery ,MN,BrewPub,-93.4492362461,45.0970002888,55369,2006,2008,270530267105011,27053026710
9950 East Independece Boulevard ,Matthews,,Hops Restaurant and Brewery ,NC,BrewPub,-80.711443,35.1315669,28105,2005,2005,371190058122018,37119005812
11448 University Blvd. ,Orlando,659.0,Hops Restaurant and Brewery ,FL,BrewPub,-81.2210237859,28.5973876921,32817,2006,2008,120950165101006,12095016510
11555 Pines Boulevard ,Pembroke Pines,,Hops Restaurant and Brewery ,FL,BrewPub,-80.303887,26.0083884,33026,2005,2005,120111103092012,12011110309
8026 W. Bowles Avenue ,Littleton,,Hops Restaurant and Brewery ,CO,BrewPub,-105.085005,39.6091987,80123,2005,2005,080590120481002,08059012048
421 SW 26 Street ,Oklahoma City,,Huebert Brewing Company ,OK,MicroBrewery,-97.520902,35.438605,73109,2005,2005,401091047001014,40109104700
421 SW 26 St. ,Oklahoma City,685.0,Huebert Brewing Company ,OK,MicroBrewery,-97.5203826918,35.4383970725,73109,2006,2013,401091047001014,40109104700
6050 Greenville Ave. ,Dallas,690.0,Humperdink's Big Horn Brewing Co.,TX,BrewPub,-96.7680075136,32.8591257064,75206,2006,2015,481130079122000,48113007912
6050 Greenville Avenue ,Dallas,,Humperdink's Big Horn Brewing Co.,TX,BrewPub,-96.767987,32.858649,75206,2005,2005,481130079122000,48113007912
900 Main St. ,Columbia,694.0,Hunter Gatherer Brewery-Alehouse ,SC,BrewPub,-81.0317406424,33.9972843937,29201,2006,2015,450790029002000,45079002900
900 Main Street ,Columbia,,Hunter Gatherer Brewery-Alehouse ,SC,BrewPub,-81.0315607,33.9973766,29201,2005,2005,450790029002000,45079002900
405 Hay Street,Fayetteville,,Huske Hardware House Brewing Co.,NC,BrewPub,-78.8827816,35.0538193,28301,2005,2005,370510038002031,37051003800
199 Arnold Road,Sturbridge,,Hyland Orchard & Brewery,MA,MicroBrewery,-72.1098441,42.1398521,1566,2005,2005,250277581022049,25027758102
199 Arnold Rd.,Sturbridge,699.0,Hyland Orchard & Brewery,MA,MicroBrewery,-72.1086448461,42.1387650823,1566,2006,2007,250277581022049,25027758102
601 West 19th Street,Idaho Falls,,Idaho Brewing Co./Dr. Hops,ID,BrewPub,-112.04628,43.48013,83402,2005,2005,160199710006009,16019971000
601 W. 19th St.,Idaho Falls,702.0,Idaho Brewing Co./Dr. Hops,ID,BrewPub,-112.046101684,43.4805161216,83402,2006,2006,160199710006009,16019971000
215 W. Washington St.,Kirksville,704.0,Il Spazio Brewery Pub & Restaurant,MO,BrewPub,-92.5846161414,40.1945754428,63501,2006,2009,290019503004020,29001950300
215 West Washington Street,Kirksville,,Il Spazio Brewery Pub & Restaurant,MO,BrewPub,-92.5850616,40.194473,63501,2005,2005,290019503004020,29001950300
41 North Central Ave.,Clayton,2437.0,Il Vicino Wood Oven Pizza and Brewery ,MO,BrewHouse,-90.338335,38.650872,63105,2010,2010,291892165002014,29189216500
11 South Tejon Street ,Colorado Springs,,Il Vicino Wood Oven Pizza and Brewery ,CO,BrewPub,-104.8232174,38.8333598,80903,2005,2005,080410023001045,08041002300
11 S. Tejon St. ,Colorado Springs,705.0,Il Vicino Wood Oven Pizza and Brewery ,CO,BrewPub,-104.823162984,38.8336274356,80903,2006,2015,080410023001045,08041002300
41 N. Central,Clayton,,Il Vicino Wood Oven Pizza and Brewery ,MO,BrewPub,-90.3382075,38.6508769,63105,2005,2005,291892165002014,29189216500
1150 Filbert St. ,Philadelphia,715.0,Independence Brew Pub ,PA,BrewPub,-75.1584186754,39.9527472138,19107,2006,2007,421010005001019,42101000500
1150 Filbert Street ,Philadelphia,,Independence Brew Pub ,PA,BrewPub,-75.159445,39.952616,19107,2005,2005,421010005001019,42101000500
3 W. Gay Street ,West Chester,,Iron Hill Brewery & Restaurant ,PA,BrewPub,-75.6055371,39.9605755,19380,2005,2005,420293024002017,42029302400
147 East Main Street ,Newark,,Iron Hill Brewery & Restaurant ,DE,BrewPub,-75.746771,39.6832925,19711,2005,2005,100030145022000,10003014502
147 E. Main St. ,Newark,719.0,Iron Hill Brewery & Restaurant ,DE,BrewPub,-75.7469950766,39.6832338479,19711,2006,2015,100030145022000,10003014502
3 W. Gay St. ,West Chester,722.0,Iron Hill Brewery & Restaurant ,PA,BrewPub,-75.6056133609,39.9606906757,19380,2006,2015,420293024002017,42029302400
710 South Madison Street,Wilmington,,Iron Hill Brewery & Restaurant ,DE,BrewPub,-75.5623974,39.7348436,19801,2005,2005,100030027001017,10003002700
710 S. Madison St.,Wilmington,720.0,Iron Hill Brewery & Restaurant ,DE,BrewPub,-75.5618570894,39.7365630773,19801,2006,2015,100030027001017,10003002700
106 Main Street,Littleton,,Italian Oasis Restaurant & Brewery,NH,BrewPub,-71.7739644,44.306944,3561,2005,2005,330099601003007,33009960100
606 Elmira Rd.,Ithaca,730.0,Ithaca Beer Co.,NY,MicroBrewery,-76.5331310876,42.4138372435,14850,2006,2012,361090010001009,36109001000
606 Elmira Road,Ithaca,,Ithaca Beer Co.,NY,MicroBrewery,-76.5332976,42.4142518,14850,2005,2005,361090010001009,36109001000
95 Patton Avenue,Asheville,,Jack of the Wood Public House & Brewery,NC,BrewPub,-82.556224,35.5942891,28801,2005,2005,370210001001029,37021000100
95 Patton Ave.,Asheville,734.0,Jack of the Wood Public House & Brewery,NC,BrewPub,-82.5553187245,35.5944696223,28801,2006,2015,370210001001029,37021000100
410 S. James St.,Ludington,740.0,Jamesport Brewing Co.,MI,BrewPub,-86.4481203641,43.952346573,49431,2006,2015,261059505001057,26105950500
410 South James Street,Ludington,,Jamesport Brewing Co.,MI,BrewPub,-86.4480145,43.9521957,49431,2005,2005,261059505001057,26105950500
325 Main Street,Norwich,,Jasper Murdock's Aleshouse @ Norwich Inn,VT,BrewPub,-72.3090578,43.7150796,5055,2005,2005,500279650002084,50027965000
325 Main St.,Norwich,742.0,Jasper Murdock's Aleshouse @ Norwich Inn,VT,BrewPub,-72.3088250744,43.7151779343,5055,2006,2015,500279650002084,50027965000
4 W. Main St.,Westminster,748.0,Johansson's Dining House,MD,BrewPub,-76.9961305509,39.5756550648,21157,2006,2015,240135076013068,24013507601
4 W. Main Street,Westminster,,Johansson's Dining House,MD,BrewPub,-76.9956983,39.5755009,21157,2005,2005,240135076013068,24013507601
619 Water Street,Peoria,,John S. Rhodell Brewery,IL,BrewPub,-89.5947892,40.6857255,61602,2005,2005,171430009001050,17143000900
619 Water St.,Peoria,760.0,John S. Rhodell Brewery,IL,BrewPub,-89.5945252211,40.6861395854,61602,2006,2015,171430009001050,17143000900
1044 Wall Street,La Jolla,,Karl Strauss Brewery Restaurant,CA,BrewPub,-117.2735723,32.8469857,92037,2005,2005,060730082003014,06073008200
9675 Scranton Road,San Diego,,Karl Strauss Brewery Restaurant,CA,BrewPub,-117.2018129,32.8965882,92121,2005,2005,060730083461053,06073008346
1044 Wall St.,La Jolla,770.0,Karl Strauss Brewery Restaurant,CA,BrewPub,-117.273901462,32.8471289922,92037,2006,2015,060730082003014,06073008200
9675 Scranton Rd.,San Diego,772.0,Karl Strauss Brewery Restaurant,CA,BrewPub,-117.201977002,32.895182458,92121,2006,2015,060730083461053,06073008346
408 Shelden Ave.,Houghton,785.0,Keweenaw Brewing Co.,MI,MicroBrewery,-88.5693192219,47.1223220874,49931,2006,2015,260610008004007,26061000800
408 Shelden Avenue,Houghton,,Keweenaw Brewing Co.,MI,MicroBrewery,-88.5687585,47.1218738,49931,2005,2005,260610008004007,26061000800
190 5th Ave.,Oswego,786.0,King Arthur's Steak House & Brewery,NY,BrewPub,-76.5317769278,43.4464824351,13126,2006,2006,360750216022039,36075021602
190 5th Avenue,Oswego,,King Arthur's Steak House & Brewery,NY,BrewPub,-76.531817,43.446515,13126,2005,2005,360750216022039,36075021602
895 Oakland Avenue ,Pontiac,,King Brewery & Pub,MI,MicroBrewery,-83.3173748,42.6575357,48340,2005,2005,261251409001015,26125140900
895 Oakland Ave. ,Pontiac,787.0,King Brewery & Pub,MI,MicroBrewery,-83.3171951565,42.6571564412,48340,2006,2009,261251409001015,26125140900
402 E. Kalamazoo Ave.,Kalamazoo,791.0,Kraftbrau Brewery,MI,BrewPub,-85.5779781115,42.2941087087,49007,2006,2007,260770002011030,26077000201
402 E. Kalamazoo Avenue,Kalamazoo,,Kraftbrau Brewery,MI,BrewPub,-85.5780794,42.2943055,49007,2005,2005,260770002011030,26077000201
5919 Chicago Road ,Warren,,Kuhnhenn Brewing Company ,MI,MicroBrewery,-83.0467647,42.5277682,48092,2005,2005,260992607001000,26099260700
5919 Chicago Rd. ,Warren,793.0,Kuhnhenn Brewing Company ,MI,MicroBrewery,-83.0467782053,42.5275959615,48092,2006,2015,260992607001000,26099260700
272 West Main Street,Kutztown,,Kutztown Tavern/Golden Avalanche Brewing,PA,BrewPub,-75.7781007,40.5161997,19530,2005,2005,420110140003005,42011014000
272 W. Main St.,Kutztown,794.0,Kutztown Tavern/Golden Avalanche Brewing,PA,BrewPub,-75.777880821,40.5164308712,19530,2006,2015,420110140003005,42011014000
1872 N. Commerce Street ,Milwaukee,,Lakefront Brewery ,WI,MicroBrewery,-87.905173,43.054752,53212,2005,2005,550790114001012,55079011400
1872 N. Commerce St. ,Milwaukee,807.0,Lakefront Brewery ,WI,MicroBrewery,-87.9055744541,43.054841743,53212,2006,2015,550790114001012,55079011400
710 P Street,Lincoln,,Lazlo's Brewery & Grill,NE,BrewPub,-96.710548,40.815109,68508,2005,2005,311090005001044,31109000500
545 Canal St.,Reading,828.0,Legacy Brewing Co.,PA,MicroBrewery,-75.9281415487,40.3255903086,19602,2006,2010,420110023002022,42011002300
545 Canal Street,Reading,,Legacy Brewing Co.,PA,MicroBrewery,-75.9282624,40.3256377,19602,2005,2005,420110023002022,42011002300
321 W 7th St.,Richmond,829.0,Legend Brewing Co.,VA,BrewPub,-77.4425475863,37.5261336882,23224,2006,2015,517600610002038,51760061000
321 W 7th Street,Richmond,,Legend Brewing Co.,VA,BrewPub,-77.4429803,37.5266679,23224,2005,2005,517600610002038,51760061000
2840 Shawano Ave.,Green Bay,831.0,Legends Brewhouse & Eatery,WI,BrewPub,-88.0985600045,44.553142111,54313,2006,2015,550090205033015,55009020503
2840 Shawano Avenue,Green Bay,,Legends Brewhouse & Eatery,WI,BrewPub,-88.0975927,44.5532643,54313,2005,2005,550090205033015,55009020503
875 Heritage Road,DePere,,Legends Brewhouse & Eatery,WI,BrewPub,-88.0577454,44.4288856,54115,2005,2005,550090103003032,55009010300
1622 Grand Ave.,Laramie,843.0,Library Restaurant & Brewing Co.,WY,BrewPub,-105.575758963,41.3098648095,82070,2006,2008,560019636003001,56001963600
1622 Grand Avenue,Laramie,,Library Restaurant & Brewing Co.,WY,BrewPub,-105.5750957,41.3097038,82070,2005,2005,560019636003001,56001963600
410 S. Washington ,Royal Oak,846.0,Lily's Seafood Grill & Brewery ,MI,BrewPub,-83.146602028,42.4869610047,48067,2006,2015,261251845001017,26125184500
410 South Washington ,Royal Oak,,Lily's Seafood Grill & Brewery ,MI,BrewPub,-83.1469215,42.4868919,48067,2005,2005,261251845001017,26125184500
3301 E. 5th St. ,Austin,851.0,Live Oak Brewing Company ,TX,MicroBrewery,-97.7056462846,30.2546745161,78702,2006,2015,484530009022037,48453000902
3301 E. 5th Street ,Austin,,Live Oak Brewing Company ,TX,MicroBrewery,-97.7056538,30.2543061,78702,2005,2005,484530009022037,48453000902
723-725 Ave. H,Fort Madison,858.0,Lost Duck Brewery,IA,BrewPub,-91.3101609967,40.6300939959,52627,2006,2015,191114902002078,19111490200
723-725 Avenue H,Fort Madison,,Lost Duck Brewery,IA,BrewPub,-91.3107626,40.6301768,52627,2005,2005,191114902002078,19111490200
604 Neches Street ,Austin,,Lovejoy's Tap Room & Brewery ,TX,BrewPub,-97.7382482,30.2668326,78701,2005,2005,484530011001096,48453001100
604 Neches St. ,Austin,860.0,Lovejoy's Tap Room & Brewery ,TX,BrewPub,-97.738429753,30.2670119124,78701,2006,2013,484530011001096,48453001100
915 SE Hawthorne Boulevard ,Portland,,Lucky Labrador Brewpub,OR,BrewPub,-122.6562754,45.5124139,97214,2005,2005,410510011011184,41051001101
915 SE Hawthorne Blvd. ,Portland,862.0,Lucky Labrador Brewpub,OR,BrewPub,-122.656086797,45.5122594295,97214,2006,2015,410510011011184,41051001101
54 E. St. Charles Road ,Villa Park,,Lunar Brewing ,IL,BrewPub,-87.9766096,41.8899874,60181,2005,2005,170438431003012,17043843100
54 E. St. Charles Rd. ,Villa Park,864.0,Lunar Brewing ,IL,BrewPub,-87.9773513437,41.8898188638,60181,2006,2015,170438431003012,17043843100
621 21st St.,Lewiston,865.0,M.J. Barleyhoppers,ID,BrewPub,-117.001472842,46.4140806043,83501,2006,2015,160699603002052,16069960300
621 21st Street,Lewiston,,M.J. Barleyhoppers,ID,BrewPub,-117.0007671,46.414349,83501,2005,2005,160699603002052,16069960300
17825 NE 65th St. ,Redmond,866.0,Mac & Jack's Brewery,WA,MicroBrewery,-122.102559669,47.6636409497,98052,2006,2015,530330323132043,53033032313
17825 NE 65th Street ,Redmond,,Mac & Jack's Brewery,WA,MicroBrewery,-122.1025491,47.6637249,98052,2005,2005,530330323132043,53033032313
161 East Front Street,Traverse City,,Mackinaw Brewing Co.,MI,BrewPub,-85.6212413,44.7642992,49684,2005,2005,260555512001011,26055551200
161 E. Front St.,Traverse City,867.0,Mackinaw Brewing Co.,MI,BrewPub,-85.6220959511,44.7643691588,49684,2006,2015,260555512001011,26055551200
114 N. Main St.,Auburn  ,869.0,Mad Anthony Tap Room,IN,BrewPub,-85.0556177217,41.3670208783,46706,2006,2015,180330205002062,18033020500
114 North Main St.,Auburn  ,,Mad Anthony Tap Room,IN,BrewPub,-85.0555942,41.3672741,46706,2005,2005,180330205002062,18033020500
195 Taylor Way ,Arcata,,Mad River Brewing Co.,CA,MicroBrewery,-123.99379,40.8787166,95521,2005,2010,060230103003049,06023010300
101 Taylor Way ,Blue Lake,774.0,Mad River Brewing Co.,CA,MicroBrewery,-123.9919289,40.8786025,95525,2011,2015,060230103003049,06023010300
428 Main Street,Bennington,,Madison Brewing Co.,VT,BrewPub,-73.196419,42.8783839,5201,2005,2005,500039712006004,50003971200
428 Main St.,Bennington,873.0,Madison Brewing Co.,VT,BrewPub,-73.1964009401,42.8783223801,5201,2006,2015,500039712006004,50003971200
5 Bartlett Bay Road ,South Burlington,,Magic Hat Brewing Company ,VT,MicroBrewery,-73.2131557,44.4284066,5403,2005,2005,500070033042021,50007003304
5 Bartlett Bay Rd. ,South Burlington,874.0,Magic Hat Brewing Company ,VT,MicroBrewery,-73.2117991326,44.4285910509,5403,2006,2015,500070033042021,50007003304
1398 Haight St. ,San Francisco,875.0,Magnolia Pub & Brewery ,CA,BrewPub,-122.445060879,37.7702714772,94117,2006,2015,060750166001003,06075016600
1398 Haight Street ,San Francisco,,Magnolia Pub & Brewery ,CA,BrewPub,-122.4451741,37.7703879,94117,2005,2005,060750166001003,06075016600
4120 Main Street ,Manayunk,,Manayunk Brewery & Restaurant ,PA,BrewPub,-75.2193379,40.0226381,19127,2005,2005,421010210004021,42101021000
4120 Main St. ,Philadelphia,884.0,Manayunk Brewery & Restaurant ,PA,BrewPub,-75.2188242975,40.0221259007,19127,2006,2015,421010210004021,42101021000
3 N. Main St.,Wilmington,887.0,Maple Leaf Malt & Brewing,VT,BrewPub,-72.8697346779,42.869058438,5363,2006,2009,500259680002008,50025968000
3 N. Main Street,Wilmington,,Maple Leaf Malt & Brewing,VT,BrewPub,-72.8706801,42.8684739,5363,2005,2005,500259680002008,50025968000
167 Front Street,Marietta,,Marietta Brewing Co.,OH,BrewPub,-81.4536359,39.4118563,45750,2005,2005,391670205002018,39167020500
167 Front St.,Marietta,889.0,Marietta Brewing Co.,OH,BrewPub,-81.4535103228,39.4117460412,45750,2006,2015,391670205002018,39167020500
134 2nd Ave. N,Nashville,893.0,Market Street Brewery & Public House,TN,BrewPub,-86.7760916984,36.1635939359,37201,2006,2006,470370195004029,47037019500
134 N. 2nd Avenue ,Nashville,,Market Street Brewery & Public House,TN,BrewPub,-86.775456,36.163155,37201,2005,2005,470370195004029,47037019500
120 SW First Avenue,Gainesville,,Market Street Pub Brewery & Eatery,FL,BrewPub,-82.3264372,29.6512983,32601,2005,2005,120010005001061,12001000500
120 SW 1st Ave.,Gainesville,895.0,Market Street Pub Brewery & Eatery,FL,BrewPub,-82.3259807637,29.6512870514,32601,2006,2010,120010005001061,12001000500
185 Main Street ,Nashua,,Martha's Exchange Restaurant & Brewing Co.,NH,BrewPub,-71.4654801,42.760417,3060,2005,2005,330110107001013,33011010700
4150 Sycamore Dairy Rd.,Fayetteville,898.0,Mash House Restaurant & Brewery,NC,BrewPub,-78.9534250586,35.0693164208,28303,2006,2015,370510020011000,37051002001
4150 Sycamore Dairy Road,Fayetteville,,Mash House Restaurant & Brewery,NC,BrewPub,-78.955151,35.070571,28303,2005,2005,370510020011000,37051002001
4405 Honoapi'ilani Highway,Lahaina,798.0,Maui Brewing Co. Fish & Game Rotisserie,HI,BrewPub,-156.676832485,20.9718193731,96761,2007,2015,150090315022005,15009031502
4405 Honoapi'ilani Highway,Kahana,899.0,Maui Brewing Co. Fish & Game Rotisserie,HI,BrewPub,-156.676832485,20.9718193731,96761,2006,2006,150090315022005,15009031502
807 N. 3rd St.,McCall,903.0,McCall Brewing Co.,ID,BrewPub,-116.09737617,44.9089000046,83638,2006,2015,160859702002267,16085970200
807 N. 3rd Street,McCall,,McCall Brewing Co.,ID,BrewPub,-116.0975814,44.9088994,83638,2005,2005,160859702002267,16085970200
4057 Pennsylvania Avenue ,Kansas City,,McCoy's Public House & Brewkitchen ,MO,BrewPub,-94.5915451,39.0531397,64111,2005,2005,290950168004030,29095016800
4057 Pennsylvania Ave. ,Kansas City,905.0,McCoy's Public House & Brewkitchen ,MO,BrewPub,-94.5917003107,39.0534002655,64111,2006,2015,290950168004030,29095016800
2927 SW Cedar Hills Blvd. ,Beaverton,910.0,McMenamins Cedar Hills ,OR,BrewPub,-122.807935987,45.4981926443,97005,2006,2015,410670314021000,41067031402
2927 SW Cedar Hills Boulevard ,Beaverton,,McMenamins Cedar Hills ,OR,BrewPub,-122.8092536,45.4990655,97005,2005,2005,410670314021000,41067031402
102 9th St. ,Oregon City,921.0,McMenamins Oregon City,OR,BrewPub,-122.607068058,45.3592582328,97045,2006,2015,410050224005007,41005022400
102 9th Street ,Oregon City,,McMenamins Oregon City,OR,BrewPub,-122.6069778,45.3592618,97045,2005,2005,410050224005007,41005022400
9757 SE Sunnyside Rd. ,Clackamas,924.0,McMenamins Sunnyside,OR,BrewPub,-122.563089978,45.433505335,97015,2006,2015,410050222051012,41005022205
9757 SE Sunnyside Road ,Clackamas,,McMenamins Sunnyside,OR,BrewPub,-122.5633108,45.4338074,97015,2005,2005,410050222051012,41005022205
2090 SW 8th Ave. ,West Linn,825.0,McMenamins West Linn,OR,BrewPub,-122.652049801,45.3459122969,97068,2010,2015,410050207002017,41005020700
2090 SW Eighth Ave. ,West Linn,926.0,McMenamins West Linn,OR,BrewPub,-122.652049801,45.3459122969,97068,2006,2009,410050207002017,41005020700
90 Elliot Street,Brattleboro,,McNeill's Brewery,VT,BrewPub,-72.5600685,42.8515972,5301,2005,2005,500259685002006,50025968500
90 Elliot St.,Brattleboro,927.0,McNeill's Brewery,VT,BrewPub,-72.5598765194,42.8516242635,5301,2006,2015,500259685002006,50025968500
23 Hayward St.,Ipswich,932.0,Mercury Brewing Company ,MA,MicroBrewery,-70.8438360022,42.6714929641,1938,2006,2015,250092233002032,25009223300
25 Hayward Street ,Ipswich,,Mercury Brewing Company ,MA,MicroBrewery,-70.844091,42.67199,1938,2005,2005,250092233002032,25009223300
1014 S. Haynes Ave.,Miles City,940.0,Milestown Brewing @ Golden Spur Casino,MT,BrewPub,-105.822476256,46.3989969141,59301,2006,2008,300179619002007,30017961900
1014 South Haynes Avenue,Miles City,,Milestown Brewing @ Golden Spur Casino,MT,BrewPub,-105.8226092,46.3990436,59301,2005,2005,300179619002007,30017961900
500 Commercial St. ,Manchester,945.0,Milly's Tavern,NH,BrewPub,-71.4677337976,42.9946457884,3101,2006,2015,330112004001006,33011200400
500 Commercial Street ,Manchester,,Milly's Tavern,NH,BrewPub,-71.4677636,42.9946336,3101,2005,2005,330112004001006,33011200400
223 N. Water Street ,Milwaukee,,Milwaukee Ale House ,WI,BrewPub,-87.9095986,43.0331327,53202,2005,2005,550791874001055,55079187400
200 N. 11th St.,Lincoln,950.0,Misty's Steakhouse & Brewery,NE,BrewPub,-96.7051089082,40.8148320435,68508,2006,2015,311090019001009,31109001900
200 N. 11th Street,Lincoln,,Misty's Steakhouse & Brewery,NE,BrewPub,-96.7050646,40.8150086,68508,2005,2005,311090019001009,31109001900
686 S. Main St.,Moab,951.0,Moab Brewery,UT,BrewPub,-109.54910734,38.5627161113,84532,2006,2015,490190003001007,49019000300
686 S. Main Street,Moab,,Moab Brewery,UT,BrewPub,-109.5497764,38.5627592,84532,2005,2005,490190003001007,49019000300
21 W. Bay St.,Savannah,962.0,Moon River Brewing Co.,GA,BrewPub,-81.0914322467,32.0807482507,31401,2006,2015,130510003001037,13051000300
21 West Bay Street,Savannah,,Moon River Brewing Co.,GA,BrewPub,-81.0920808,32.0808307,31401,2005,2005,130510003001037,13051000300
721 N. 2nd St. ,St. Louis,968.0,Morgan Street Brewery,MO,BrewPub,-90.1845848882,38.6305288064,63102,2006,2015,295101256002026,29510125600
721 N. 2nd Street ,St. Louis,,Morgan Street Brewery,MO,BrewPub,-90.18528,38.630903,63102,2005,2005,295101256002026,29510125600
470 W. Canfield ,Detroit,970.0,Motor City Brewing Works ,MI,MicroBrewery,-83.0651315192,42.351865253,48201,2006,2015,261635203001002,26163520300
470 West Canfield ,Detroit,,Motor City Brewing Works ,MI,MicroBrewery,-83.0660214,42.3518573,48201,2005,2005,261635203001002,26163520300
107 N. Lincoln Avenue,Hastings,,Murphy's Wagon Wheel,NE,BrewPub,-98.3911904,40.5844219,68901,2005,2005,310019657001039,31001965700
107 N. Lincoln Ave.,Hastings,982.0,Murphy's Wagon Wheel,NE,BrewPub,-98.3912904598,40.584357736,68901,2006,2006,310019657001039,31001965700
345 S. Elm St.,Greensboro,985.0,Natty Greene's Pub & Brewing Co.,NC,BrewPub,-79.7902070697,36.0692755416,27401,2006,2015,370810108002063,37081010800
345 South Elm Street,Greensboro,,Natty Greene's Pub & Brewing Co.,NC,BrewPub,-79.790336,36.068642,27401,2005,2005,370810108002063,37081010800
708 E. Depot Avenue,Knoxville,,New Knoxville Brewing Co.,TN,MicroBrewery,-83.914547,35.974813,37917,2005,2005,470930067001057,47093006700
708 E. Depot Ave.,Knoxville,992.0,New Knoxville Brewing Co.,TN,MicroBrewery,-83.9151208339,35.9746250613,37917,2006,2015,470930067001057,47093006700
1616 NW 23rd  Avenue ,Portland,,New Old Lompoc Pub & Brewery ,OR,BrewPub,-122.698466,45.534297,97210,2005,2005,410510049001005,41051004900
1616 NW 23rd  Ave. ,Portland,993.0,New Old Lompoc Pub & Brewery ,OR,BrewPub,-122.698289931,45.5341723695,97210,2006,2012,410510049001005,41051004900
851 Campbell Street,Myrtle Beach,,New South Brewing,SC,MicroBrewery,-78.8870682,33.6972348,29577,2005,2005,450510506002039,45051050600
851 Campbell St.,Myrtle Beach,995.0,New South Brewing,SC,MicroBrewery,-78.8872976903,33.6970815467,29577,2006,2012,450510506002039,45051050600
2920 Newport Boulevard ,Newport Beach,,Newport Beach Brewing Company ,CA,BrewPub,-117.929796,33.614472,92663,2005,2005,060590635001025,06059063500
400 West Front Street,Traverse City,,North Peak Brewing Co.,MI,BrewPub,-85.6285292,44.7643153,49864,2005,2005,260555515003039,26055551500
400 W. Front St.,Traverse City,1006.0,North Peak Brewing Co.,MI,BrewPub,-85.628453109,44.7643270754,49864,2006,2015,260555515003039,26055551500
10705 Northfield Road ,Northfield,,Northfield Park Microbrewery ,OH,BrewPub,-81.523103,41.34681,44067,2005,2005,391535327023000,39153532702
10705 Northfield Rd. ,Northfield,1009.0,Northfield Park Microbrewery ,OH,BrewPub,-81.5265654657,41.3491629132,44067,2006,2007,391535327023000,39153532702
840 25 5/8 St.,Chetek,1011.0,Northwoods Brewpub at Pokegama,WI,BrewPub,-91.6315194655,45.3263435943,54728,2006,2008,550050010023002,55005001002
840 25 5/8 Street,Chetek,,Northwoods Brewpub at Pokegama,WI,BrewPub,-91.631534,45.326042,54728,2005,2005,550050010023002,55005001002
26 West Industrial Drive,O'Fallon,,O'Fallon Brewery,MO,MicroBrewery,-90.753246,38.805807,63366,2005,2005,291833118022064,29183311802
26 W. Industrial Dr.,O'Fallon,1024.0,O'Fallon Brewery,MO,MicroBrewery,-90.7514336048,38.8059129485,63366,2006,2015,291833118022064,29183311802
164 N. Snelling Ave.,St. Paul,1026.0,O'Gara's Bar & Grill,MN,BrewPub,-93.1666931479,44.9461155888,55104,2006,2007,271230352001005,27123035200
164 North Snelling Avenue,St. Paul,,O'Gara's Bar & Grill,MN,BrewPub,-93.1666046,44.9462724,55104,2005,2005,271230352001005,27123035200
415 Hampshire Street,Quincy,,O'Griff's Irish Pub & Brewhouse,IL,BrewPub,-91.409297,39.9334848,62301,2005,2005,170010007002032,17001000700
415 Hampshire St.,Quincy,1040.0,O'Griff's Irish Pub & Brewhouse,IL,BrewPub,-91.4097761352,39.9332817749,62301,2006,2015,170010007002032,17001000700
3308 3rd Street North,St. Cloud,,O'Hara's Brewpub & Restaurant,MN,BrewPub,-94.1988055,45.5585711,56303,2005,2005,271450006012009,27145000601
24 West Union Street,Athens,,O'Hooley's Pub & Brewery,OH,BrewPub,-82.1023249,39.3276114,45701,2005,2005,390099731011016,39009973101
24 W. Union St.,Athens,1042.0,O'Hooley's Pub & Brewery,OH,BrewPub,-82.1024667945,39.3278189175,45701,2006,2015,390099731011016,39009973101
30 Kennebec Avenue,Oak Bluffs,,Offshore Ale Company,MA,BrewPub,-70.5575531,41.4558749,2557,2005,2005,250072002002042,25007200200
30 Kennebec Ave.,Oak Bluffs,1025.0,Offshore Ale Company,MA,BrewPub,-70.5574818073,41.4556318403,2557,2006,2015,250072002002042,25007200200
8763 E. Bell Road,Scottsdale,,Oggi's Pizza and Brewing Co.,AZ,BrewPub,-111.8913939,33.6396513,85260,2005,2005,040132168451022,04013216845
10155 Rancho Carmel Rd. ,San Diego,1033.0,Oggi's Pizza and Brewing Co.,CA,BrewPub,-117.090010045,32.9659819136,92128,2006,2015,060730170562003,06073017056
12840 Carmel Country Road,San Diego,,Oggi's Pizza and Brewing Co.,CA,BrewPub,-117.229427,32.954239,92130,2005,2005,060730083291000,06073008329
10155 Rancho Carmel Road ,San Diego,,Oggi's Pizza and Brewing Co.,CA,BrewPub,-117.089822,32.96553,92128,2005,2005,060730170562003,06073017056
12840 Carmel Country Rd.,San Diego,1034.0,Oggi's Pizza and Brewing Co.,CA,BrewPub,-117.229310268,32.9541630536,92130,2006,2015,060730083291000,06073008329
971 W. Savidge,Spring Lake,1045.0,Old Boys' Brew House,MI,BrewPub,-86.211408972,43.076438948,49456,2006,2014,261390211001025,26139021100
971 W. Savidge St.,Spring Lake,931.0,Old Boys' Brew House,MI,BrewPub,-86.211408972,43.076438948,49456,2015,2015,261390211001025,26139021100
971 West Savidge,Spring Lake,,Old Boys' Brew House,MI,BrewPub,-86.2127575,43.0769329,49456,2005,2005,261390211001025,26139021100
525 S. Gilbert St.,Iowa City,1046.0,Old Capitol Brew Works & Public House,IA,BrewPub,-91.5303386172,41.6550347884,52240,2006,2015,191030016001000,19103001600
525 S. Gilbert Street,Iowa City,,Old Capitol Brew Works & Public House,IA,BrewPub,-91.5305168,41.6546764,52240,2005,2005,191030016001000,19103001600
44633 Guilford Dr.,Ashburn,1047.0,Old Dominion Brewing Co.,VA,BrewPub,-77.4567388269,39.0204273048,20147,2006,2008,511076110061011,51107611006
44633 Guilford Drive,Ashburn,,Old Dominion Brewing Co.,VA,BrewPub,-77.457658,39.021872,20147,2005,2005,511076110061011,51107611006
114 N. Main St.,Lawton,1049.0,Old Hat Brewery & Grill,MI,BrewPub,-85.8495003401,42.1682190712,49065,2006,2011,261590110023062,26159011002
114 North Main Street,Lawton,,Old Hat Brewery & Grill,MI,BrewPub,-85.8497241,42.1682616,49065,2005,2005,261590110023062,26159011002
7 W. Main St.,Middletown,1055.0,Olde Erie Brew Pub,NY,BrewPub,-74.4205003771,41.4451644009,10940,2006,2006,360710151001016,36071015100
7 West Main Street,Middletown,,Olde Erie Brew Pub,NY,BrewPub,-74.4204612,41.4451892,10940,2005,2005,360710151001016,36071015100
2828 W. Highway 70 ,Hickory,1057.0,Olde Hickory Brewery,NC,MicroBrewery,-81.387373641,35.7212251161,28602,2006,2010,370350107003020,37035010700
2828 West Highway 70 ,Hickory,,Olde Hickory Brewery,NC,MicroBrewery,-81.3870946,35.721546,28602,2005,2005,370350107003020,37035010700
22221 N. Pepper Rd.,Lake Barrington,1063.0,Onion Pub Restaurant & Brewery,IL,BrewPub,-88.1844690094,42.1864194916,60010,2006,2015,170978643071011,17097864307
22221 North Pepper Road,Lake Barrington,,Onion Pub Restaurant & Brewery,IL,BrewPub,-88.1833268,42.1866726,60010,2005,2005,170978643071011,17097864307
735 E Center Street ,Milwaukee,,Onopa Brewing Company ,WI,BrewPub,-87.9018211,43.0672995,53212,2005,2005,550790080002001,55079008000
1280 Belmont Street,Brockton,,Owen O'Leary's,MA,BrewPub,-71.0668052,42.0585565,2301,2005,2005,250235117022024,25023511702
1280 Belmont St.,Brockton,1078.0,Owen O'Leary's,MA,BrewPub,-71.0678001275,42.0583040974,2301,2006,2015,250235117022024,25023511702
289 Huger Street ,Charleston,,Palmetto Brewing Company ,SC,MicroBrewery,-79.9459408,32.8012595,29403,2005,2005,450190053002003,45019005300
7107 E. McDowell Rd. ,Scottsdale,1091.0,Papago Brewing ,AZ,BrewPub,-111.928261824,33.4655029511,85257,2006,2015,040132181001000,04013218100
7107 East McDowell Road ,Scottsdale,,Papago Brewing ,AZ,BrewPub,-111.9282932,33.4656219,85257,2005,2005,040132181001000,04013218100
800 Vinial Street,Pittsburgh,,Penn Brewery,PA,BrewPub,-79.991475,40.4571824,15212,2005,2005,420032406002017,42003240600
800 Vinial St.,Pittsburgh,1101.0,Penn Brewery,PA,BrewPub,-79.9911553018,40.4573103189,15212,2006,2015,420032406002017,42003240600
24 Federal Street,Greenfield,,People's Pint,MA,BrewPub,-72.6001653,42.5886025,1301,2005,2005,250110413004012,25011041300
24 Federal St.,Greenfield,1102.0,People's Pint,MA,BrewPub,-72.6003273193,42.5885889478,1301,2006,2015,250110413004012,25011041300
6410 SE Milwaukie Avenue,Portland,,Philadelphia's Steaks & Hoagies,OR,BrewPub,-122.6488352,45.4762533,97202,2005,2005,410510002002023,41051000200
6410 SE Milwaukie Ave.,Portland,1106.0,Philadelphia's Steaks & Hoagies,OR,BrewPub,-122.648680492,45.4765994314,97202,2006,2015,410510002002023,41051000200
1927 West North Avenue,Chicago,,Piece Brewery & Pizzeria,IL,BrewPub,-87.6762094,41.910469,60622,2005,2005,170312415003002,17031241500
1927 W. North Ave.,Chicago,1107.0,Piece Brewery & Pizzeria,IL,BrewPub,-87.6762320602,41.9103638088,60622,2006,2015,170312415003002,17031241500
780 N. Ninth Ave. ,Brighton,1117.0,Platte Bottom Brewing Company ,CO,MicroBrewery,-104.811251173,39.9745630733,80601,2006,2006,080010086052020,08001008605
780 N. Ninth Avenue ,Brighton,,Platte Bottom Brewing Company ,CO,MicroBrewery,-104.8114215,39.9743383,80601,2005,2005,080010086052020,08001008605
14 E. Railroad St.,Kearney,1118.0,Platte Valley Brewing Co.,NE,BrewPub,-99.0817057056,40.6955165085,68847,2006,2010,310199695003021,31019969500
14 East Railroad Street,Kearney,,Platte Valley Brewing Co.,NE,BrewPub,-99.0811672,40.6953842,68847,2005,2005,310199695003021,31019969500
5775 Lower York Road,Lahaska,,Porterhouse Brewpub & Restaurant,PA,BrewPub,-75.0337519,40.3460528,18931,2005,2005,420171045022001,42017104502
224 2nd St.,Portsmouth,1125.0,Portsmouth Brewing Co./Mault's Brewpub,OH,BrewPub,-83.0088116681,38.7316771494,45662,2006,2015,391450036002033,39145003600
224 Second Street,Portsmouth,,Portsmouth Brewing Co./Mault's Brewpub,OH,BrewPub,-83.0081439,38.7314979,45662,2005,2005,391450036002033,39145003600
2 Main St. ,Parkville,1127.0,Power Plant Restaurant & Brewery ,MO,BrewPub,-94.6841911909,39.188970795,64152,2006,2009,291650303052026,29165030305
Two Main Street ,Parkville,,Power Plant Restaurant & Brewery ,MO,BrewPub,-94.684402,39.188879,64152,2005,2005,291650303052026,29165030305
1029 K Street ,Sacramento,,"Pyramid Alehouse, Brewery & Restaurant ",CA,BrewPub,-121.4929869,38.5791177,95814,2005,2005,060670011011021,06067001101
1029 K St. ,Sacramento,1135.0,"Pyramid Alehouse, Brewery & Restaurant ",CA,BrewPub,-121.493568922,38.5791518788,95814,2006,2013,060670011011021,06067001101
1536 Cypress St.,Walnut Creek,,"Pyramid Alehouse, Brewery & Restaurant ",CA,BrewPub,-122.0615739,37.8990837,94596,2005,2008,060133390021015,06013339002
1201 First Avenue South ,Seattle,,"Pyramid Alehouse, Brewery & Restaurant ",WA,BrewPub,-122.3348888,47.592012,98134,2005,2005,530330093002048,53033009300
1201 1st Ave. S. ,Seattle,1137.0,"Pyramid Alehouse, Brewery & Restaurant ",WA,BrewPub,-122.334309156,47.5913243716,98134,2006,2015,530330093002048,53033009300
1410 Locust St.,Walnut Creek,1008.0,"Pyramid Alehouse, Brewery & Restaurant ",CA,BrewPub,-122.061944,37.899125,94596,2009,2015,060133390021015,06013339002
330 Quay Street,Port Huron,,Quay Street Brewing Co.,MI,BrewPub,-82.4223671,42.9754884,48060,2005,2005,261476250001007,26147625000
330 Quay St.,Port Huron,1138.0,Quay Street Brewing Co.,MI,BrewPub,-82.4223754413,42.975566325,48060,2006,2015,261476250001007,26147625000
4495 SW Scholls Ferry Rd. ,Portland,1147.0,Raleigh Hills Pub ,OR,BrewPub,-122.747230344,45.4880173393,97225,2006,2015,410670303002006,41067030300
4495 SW Scholls Ferry Road ,Portland,,Raleigh Hills Pub ,OR,BrewPub,-122.7475,45.487402,97225,2005,2005,410670303002006,41067030300
709 E. Park Boulevard ,Boise,,Ram Restaurant & Brewery,ID,BrewPub,-116.1925,43.6044387,83712,2005,2005,160010007013036,16001000701
4730 University Village Plaza NE,Seattle,1157.0,Ram Restaurant & Brewery,WA,BrewPub,-122.29978323,47.6634147757,98105,2006,2008,530330043011012,53033004301
140 S. Illinois St. ,Indianapolis,1152.0,Ram Restaurant & Brewery,IN,BrewPub,-86.1605525135,39.7645552205,46225,2006,2015,180973910003075,18097391000
709 E. Park Blvd. ,Boise,1148.0,Ram Restaurant & Brewery,ID,BrewPub,-116.191252073,43.604026137,83712,2006,2015,160010007013036,16001000701
9520 Higgins Rd.,Rosemont,,Ram Restaurant & Brewery,IL,BrewPub,-87.8633927,41.9937762,60018,2005,2006,170317707001001,17031770700
140 South Illinois Street ,Indianapolis,,Ram Restaurant & Brewery,IN,BrewPub,-86.1603589,39.7648669,46225,2005,2005,180973910003075,18097391000
33 West Street ,Annapolis,,Rams Head Tavern,MD,BrewPub,-76.4944801,38.9782264,21401,2005,2005,240037061011008,24003706101
33 West St. ,Annapolis,1163.0,Rams Head Tavern,MD,BrewPub,-76.4948326641,38.9782206303,21401,2006,2015,240037061011008,24003706101
8600 Foundry St. ,Savage,1164.0,Rams Head Tavern ,MD,BrewPub,-76.8252895735,39.1366390867,20763,2006,2015,240276069051006,24027606905
8600 Foundry Street ,Savage,,Rams Head Tavern ,MD,BrewPub,-76.8252079,39.135403,20763,2005,2005,240276069051006,24027606905
1266 Sartori Avenue ,Torrance,,Red Car Brewery & Restaurant ,CA,BrewPub,-118.31597,33.835734,90501,2005,2005,060376509014071,06037650901
1266 Sartori Ave. ,Torrance,1172.0,Red Car Brewery & Restaurant ,CA,BrewPub,-118.315884517,33.8354979843,90501,2006,2015,060376509014071,06037650901
714 Francis King Street,Greensboro,,Red Oak Brew Pub,NC,BrewPub,-79.8900333,36.088034,27410,2005,2005,370810161023003,37081016102
714 Francis King St.,Greensboro,1174.0,Red Oak Brew Pub,NC,BrewPub,-79.8898903886,36.0879833102,27410,2006,2008,370810161023003,37081016102
1214 East Cary Street,Richmond,,Richbrau Brewing Co. & Restaurant,VA,BrewPub,-77.43382,37.53562,23219,2005,2005,517600305001091,51760030500
1400 Main Street,Wheeling,,River City Aleworks,WV,BrewPub,-80.7232398,40.0653945,26003,2005,2005,540690027001039,54069002700
150 N. Mosley St. ,Wichita,1195.0,River City Brewing Company ,KS,BrewPub,-97.3273172313,37.6870548891,67202,2006,2015,201730043002040,20173004300
150 North Mosley Street ,Wichita,,River City Brewing Company ,KS,BrewPub,-97.327228,37.6874309,67202,2005,2005,201730043002040,20173004300
500 Walnut Street ,Kansas City,,River Market Brewing Company ,MO,BrewPub,-94.5818005,39.1083806,64106,2005,2005,290950152001076,29095015200
500 Walnut St. ,Kansas City,1197.0,River Market Brewing Company ,MO,BrewPub,-94.5819921575,39.1084779072,64106,2006,2010,290950152001076,29095015200
1 Pine Ave. ,Long Beach,1212.0,Rock Bottom Restaurant & Brewery ,CA,BrewPub,-118.192762817,33.7671463723,90802,2006,2015,060375760012032,06037576001
8980 Villa La Jolla Dr.,La Jolla,1211.0,Rock Bottom Restaurant & Brewery ,CA,BrewPub,-117.234221145,32.8710330865,92037,2006,2015,060730083611003,06073008361
1 Pine Avenue ,Long Beach,,Rock Bottom Restaurant & Brewery ,CA,BrewPub,-118.1927515,33.7674048,90802,2005,2005,060375760012032,06037576001
171 E. Bridge St. ,Homestead,1228.0,Rock Bottom Restaurant & Brewery ,PA,BrewPub,-79.9142932892,40.408766159,15120,2006,2015,420034838002005,42003483800
210 SW Morrison St.,Portland,,Rock Bottom Restaurant & Brewery ,OR,BrewPub,-122.6747299,45.5178108,97204,2005,2011,410510106003051,41051010600
1 West Grand Avenue ,Chicago,,Rock Bottom Restaurant & Brewery ,IL,BrewPub,-87.628304,41.8914934,60610,2005,2005,170310816001004,17031081600
4508 University Ave. ,West Des Moines,1217.0,Rock Bottom Restaurant & Brewery ,IA,BrewPub,-93.766483698,41.6002277602,50266,2006,2015,191530111141017,19153011114
1 W. Grand Ave. ,Chicago,1218.0,Rock Bottom Restaurant & Brewery ,IL,BrewPub,-87.6282351666,41.8915920745,60610,2006,2015,170310816001004,17031081600
4508 University Avenue ,Des Moines,,Rock Bottom Restaurant & Brewery ,IA,BrewPub,-93.765648,41.5991465,50266,2005,2005,191530111141017,19153011114
8980 Villa La Jolla Drive,La Jolla,,Rock Bottom Restaurant & Brewery ,CA,BrewPub,-117.2342497,32.8713663,92037,2005,2005,060730083611003,06073008361
740 N. Plankinton Avenue ,Milwaukee,,Rock Bottom Restaurant & Brewery ,WI,BrewPub,-87.9114977,43.0397345,53203,2005,2005,550791863002024,55079186300
115 Stuart Street ,Boston,,Rock Bottom Restaurant & Brewery ,MA,BrewPub,-71.0653801,42.3514083,2116,2005,2005,250250702003000,25025070200
115 Stuart St. ,Boston,1221.0,Rock Bottom Restaurant & Brewery ,MA,BrewPub,-71.0659681739,42.3511774244,2116,2006,2015,250250702003000,25025070200
8668 E. Shea Blvd. ,Scottsdale,1210.0,Rock Bottom Restaurant & Brewery ,AZ,BrewPub,-111.893415084,33.5824770613,85260,2006,2011,040132168163014,04013216816
2000 Sycamore Street ,Cleveland,,Rock Bottom Restaurant & Brewery ,OH,BrewPub,-81.7039,41.4965537,44113,2005,2005,390351033001005,39035103300
740 N. Plankinton Ave. ,Milwaukee,1233.0,Rock Bottom Restaurant & Brewery ,WI,BrewPub,-87.911717623,43.0392679248,53203,2006,2015,550791863002024,55079186300
550 106th Avenue NE ,Bellevue,,Rock Bottom Restaurant & Brewery ,WA,BrewPub,-122.197928,47.6154416,98004,2005,2005,530330238042003,53033023804
550 106th Ave. NE ,Bellevue,1231.0,Rock Bottom Restaurant & Brewery ,WA,BrewPub,-122.198724095,47.6152338312,98004,2006,2015,530330238042003,53033023804
2000 Sycamore St. ,Cleveland,1226.0,Rock Bottom Restaurant & Brewery ,OH,BrewPub,-81.7052439401,41.4965893158,44113,2006,2010,390351033001005,39035103300
8668 East Shea Boulevard ,Scottsdale,,Rock Bottom Restaurant & Brewery ,AZ,BrewPub,-111.8937255,33.5826968,85260,2005,2005,040132168163014,04013216816
171 E. Bridge Street ,Homestead,,Rock Bottom Restaurant & Brewery ,PA,BrewPub,-79.9152619,40.4094353,15120,2005,2005,420034838002005,42003483800
4010 196th Street SW,Lynnwood,,Rock Wood Fired Pizza & Spirits,WA,BrewPub,-122.2876718,47.8205144,98036,2005,2005,530610514001004,53061051400
4010 196th St. SW,Lynnwood,1236.0,Rock Wood Fired Pizza & Spirits,WA,BrewPub,-122.287733911,47.8207578056,98036,2006,2006,530610514001004,53061051400
1408 Lake Tapps Pkwy E.,Sumner,1235.0,Rock Wood Fired Pizza & Spirits,WA,BrewPub,-122.213973999,47.2438498721,98092,2006,2006,530530703161007,53053070316
1408 Lake Tapps Pkwy E.,Auburn,,Rock Wood Fired Pizza & Spirits,WA,BrewPub,-122.2100316,47.2445899,98092,2005,2005,530530703161007,53053070316
3105 St. Paul Street ,Baltimore,,Rocky Run Tap & Grill ,MD,BrewPub,-76.6155555,39.3260572,21218,2005,2005,245101202024003,24510120202
2037 Sherman Ave.,North Bend,1247.0,Roger's Zoo & Pizzeratorium,OR,BrewPub,-124.223966384,43.4061825157,97459,2006,2011,410110003001009,41011000300
2037 Sherman Avenue,North Bend,,Roger's Zoo & Pizzeratorium,OR,BrewPub,-124.2240186,43.4062273,97459,2005,2005,410110003001009,41011000300
673 Union St. ,San Francisco,1251.0,Rogue Ales Public House ,CA,BrewPub,-122.410284489,37.8002507137,94133,2006,2015,060750107001005,06075010700
673 Union Street ,San Francisco,,Rogue Ales Public House ,CA,BrewPub,-122.4105724,37.8000725,94133,2005,2005,060750107001005,06075010700
3859 Buffalo Road,Rochester,,Rohrbach Brewing Co.,NY,BrewPub,-77.7616766,43.1372964,14624,2005,2005,360550149051019,36055014905
3859 Buffalo Rd.,Rochester,1252.0,Rohrbach Brewing Co.,NY,BrewPub,-77.7632841394,43.137333863,14624,2006,2015,360550149051019,36055014905
208 Pennsylvania Ave.,Roslyn,,Roslyn Brewing,WA,MicroBrewery,-120.9948483,47.2219623,98941,2005,2005,530379751003095,53037975100
208 W. Pennsylvania Ave.,Roslyn,1258.0,Roslyn Brewing,WA,MicroBrewery,-120.995644467,47.2219021884,98941,2006,2015,530379751003095,53037975100
2004 Capitol Ave. ,Sacramento,1263.0,Rubicon Brewing Company ,CA,BrewPub,-121.481325265,38.5731256969,95816,2006,2015,060670012002000,06067001200
2004 Capitol Avenue ,Sacramento,,Rubicon Brewing Company ,CA,BrewPub,-121.4810826,38.5731152,95816,2005,2005,060670012002000,06067001200
73 West Jackson Street,Millersburg,,Rush the Growler,OH,BrewPub,-81.918173,40.553924,44654,2005,2005,390759767003000,39075976700
73 W. Jackson St.,Millersburg,1266.0,Rush the Growler,OH,BrewPub,-81.9182619794,40.554143526,44654,2006,2006,390759767003000,39075976700
725 4th Street,Santa Rosa,,Russian River Brewing Co.,CA,BrewPub,-122.71165,38.441806,95404,2005,2005,060971520001027,06097152000
725 4th St.,Santa Rosa,1267.0,Russian River Brewing Co.,CA,BrewPub,-122.712003795,38.4414280004,95404,2006,2015,060971520001027,06097152000
32-36 E. Cross Street ,Baltimore,,Ryleigh's Brew Pub and Raw Bar,MD,BrewPub,-76.6131757,39.2770983,21230,2005,2005,245102302001007,24510230200
32 E. Cross St. ,Baltimore,1269.0,Ryleigh's Brew Pub and Raw Bar,MD,BrewPub,-76.6131561614,39.2771190291,21230,2006,2007,245102302001007,24510230200
131 Summer Street,Stamford,,SBC Downtown Restaurant & Brewery,CT,BrewPub,-73.5404473,41.0544461,6901,2005,2005,090010201002002,09001020100
131 Summer St.,Stamford,1295.0,SBC Downtown Restaurant & Brewery,CT,BrewPub,-73.5399136179,41.0533322584,6901,2006,2014,090010201002002,09001020100
7811 Madison Ave.,Citrus Heights,1271.0,Sacramento Brewing Co.'s Oasis ,CA,BrewPub,-121.274563183,38.6639029702,95610,2006,2008,060670081381008,06067008138
7811 Madison ,Citrus Heights,,Sacramento Brewing Co.'s Oasis ,CA,BrewPub,-121.2748018,38.6645566,95814,2005,2005,060670081381008,06067008138
278 Derby St. ,Salem,1277.0,Salem Beer Works ,MA,BrewPub,-70.8912586489,42.5205198266,1970,2006,2015,250092043001016,25009204300
278 Derby Street ,Salem,,Salem Beer Works ,MA,BrewPub,-70.8911309,42.5205425,1970,2005,2005,250092043001016,25009204300
"10450 Friar's Road, Ste. L",San Diego,,San Diego Brewing Co.,CA,BrewPub,-117.0981332,32.7917003,92120,2005,2005,060730095091010,06073009509
10450 Friars Rd.,San Diego,1281.0,San Diego Brewing Co.,CA,BrewPub,-117.098829385,32.7910564022,92120,2006,2015,060730095091010,06073009509
331 W. 6th St. ,San Pedro,1284.0,San Pedro Brewing Company ,CA,BrewPub,-118.284260478,33.7382377793,90731,2006,2015,060372962203015,06037296220
331 West 6th Street ,San Pedro,,San Pedro Brewing Company ,CA,BrewPub,-118.284185,33.7385356,90731,2005,2005,060372962203015,06037296220
320 S. Pierce St.,Black River Falls,1285.0,Sand Creek Brewing Co.,WI,MicroBrewery,-90.8511256227,44.2928322544,54615,2006,2015,550539605004001,55053960500
320 S. Pierce,Black River Falls,,Sand Creek Brewing Co.,WI,MicroBrewery,-90.8516272,44.2926728,54615,2005,2005,550539605004001,55053960500
3770 Bailey Rd.,Sanford,1287.0,Sanford Lake Bar & Grill,MI,BrewPub,-84.3902061328,43.719929152,48657,2006,2008,261112916022003,26111291602
3770 Bailey Road,Sanford,,Sanford Lake Bar & Grill,MI,BrewPub,-84.3905355,43.7201644,48657,2005,2005,261112916022003,26111291602
6607 Gateway Ave.,Sarasota,1292.0,Sarasota Brewing Co.,FL,BrewPub,-82.516165841,27.2598510387,34231,2006,2015,121150020032013,12115002003
6607 Gateway Avenue,Sarasota,,Sarasota Brewing Co.,FL,BrewPub,-82.516167,27.259739,34231,2005,2005,121150020032013,12115002003
201 Saw Mill River Road ,Yonkers,,Saw Mill River Brewery ,NY,MicroBrewery,-73.8799334,40.9455044,10701,2005,2005,361190016003002,36119001600
201 Saw Mill River Rd. ,Yonkers,1293.0,Saw Mill River Brewery ,NY,MicroBrewery,-73.8798280422,40.9455427684,10701,2006,2006,361190016003002,36119001600
7260 Southwest Avenue ,Maplewood,,Schlafly Bottleworks ,MO,BrewPub,-90.3153033,38.6130246,63143,2005,2005,291892170001003,29189217000
7260 Southwest Ave. ,Maplewood,1297.0,Schlafly Bottleworks ,MO,BrewPub,-90.3159722654,38.6132711604,63143,2006,2015,291892170001003,29189217000
121 N. Market St.,Selinsgrove,1161.0,Selin's Grove Brewing Co.,PA,BrewPub,-76.8611902129,40.8010817784,17870,2007,2015,421090707012036,42109070701
119 N. Market St.,Selinsgrove,,Selin's Grove Brewing Co.,PA,BrewPub,-76.86116,40.8008669,17870,2005,2006,421090707012036,42109070701
1859 Mountain Road,Stowe,,Shed Restaurant & Brewery,VT,BrewPub,-72.713977,44.473824,5672,2005,2005,500159536003014,50015953600
7791 Egg Harbor Road,Egg Harbor,,Shipwrecked Brew Pub Restaurant & Inn,WI,BrewPub,-87.2802958,45.0495318,54209,2005,2005,550291004002076,55029100400
7791 Egg Harbor Rd.,Egg Harbor,1319.0,Shipwrecked Brew Pub Restaurant & Inn,WI,BrewPub,-87.2805386576,45.0496440285,54209,2006,2015,550291004002076,55029100400
3020 N. St. Helena Hwy,St. Helena,1334.0,Silverado Brewing Co.,CA,BrewPub,-122.49710301,38.524474015,94574,2006,2012,060552015001005,06055201500
3020 Hwy 29,St. Helena,,Silverado Brewing Co.,CA,BrewPub,-122.496925,38.5242872,94574,2005,2005,060552015001005,06055201500
300 E. Pike St. ,Seattle,1336.0,Six Arms Pub ,WA,BrewPub,-122.327435898,47.6142579623,98122,2006,2015,530330084003004,53033008400
300 E. Pike Street ,Seattle,,Six Arms Pub ,WA,BrewPub,-122.3273066,47.6141055,98122,2005,2005,530330084003004,53033008400
Pikeland Village Square,Phoenixville,,Sly Fox Brewhouse & Eatery,PA,BrewPub,-75.547079,40.131951,19460,2005,2005,420293010004003,42029301000
148 Main Street,Lander,,Snake River Brewing/Cowfish Restaurant,WY,BrewPub,-108.7279069,42.8327448,82520,2005,2005,560130002001011,56013000200
148 Main St.,Lander,1348.0,Snake River Brewing/Cowfish Restaurant,WY,BrewPub,-108.727972163,42.8328617999,82520,2006,2009,560130002001011,56013000200
128 Main St.,Lander,1198.0,Snake River Brewing/Cowfish Restaurant,WY,BrewPub,-108.72792,42.832582,82520,2010,2015,560130002001011,56013000200
3019 N. Cole Rd. ,Boise,1354.0,Sockeye Grill & Brewery,ID,BrewPub,-116.274449371,43.6337106622,83704,2006,2015,160010023024000,16001002302
3019 N. Cole Road ,Boise,,Sockeye Grill & Brewery,ID,BrewPub,-116.2752137,43.6323958,83704,2005,2005,160010023024000,16001002302
10426 E. Jomax Rd. ,Scottsdale,1359.0,Sonoran Brewing Co.,AZ,BrewPub,-111.852993172,33.7271367139,85255,2006,2015,040132168292019,04013216829
10426 East Jomax Road ,Scottsdale,,Sonoran Brewing Co.,AZ,BrewPub,-111.8530532,33.7268108,85255,2005,2005,040132168292019,04013216829
161 E. Bay Street ,Charleston,,Southend Brewery & Smokehouse ,SC,BrewPub,-79.9272237,32.7785165,29401,2005,2005,450190002001019,45019000200
2100 South Blvd. ,Charlotte,1363.0,Southend Brewery & Smokehouse ,NC,BrewPub,-80.860443077,35.2081970689,28203,2006,2008,371190034004000,37119003400
2100 South Boulevard ,Charlotte,,Southend Brewery & Smokehouse ,NC,BrewPub,-80.860978,35.208298,28203,2005,2005,371190034004000,37119003400
1195 Evans Ave. ,San Francisco,1372.0,Speakeasy Brewery ,CA,MicroBrewery,-122.381019221,37.738682082,94124,2006,2015,060750231031006,06075023103
1195 Evans Avenue ,San Francisco,,Speakeasy Brewery ,CA,MicroBrewery,-122.3806219,37.7381083,94124,2005,2005,060750231031006,06075023103
300 West Fourth Street,Cortland,,Spilker Ales,NE,MicroBrewery,-96.7070351,40.5057653,68331,2005,2005,310679647001280,31067964700
300 W. 4th St.,Cortland,1373.0,Spilker Ales,NE,MicroBrewery,-96.7073090348,40.5057976397,68331,2006,2015,310679647001280,31067964700
166 Maple Street ,Wyandotte,,Sports Brew Pub ,MI,BrewPub,-83.1513337,42.2023036,48192,2005,2005,261635807003017,26163580700
166 Maple St. ,Wyandotte,1374.0,Sports Brew Pub ,MI,BrewPub,-83.1510933186,42.2022637935,48192,2006,2015,261635807003017,26163580700
701 W. Glendale Avenue ,Milwaukee,,Sprecher Brewing Co.,WI,MicroBrewery,-87.919625,43.099589,54209,2005,2005,550790602002041,55079060200
701 W. Glendale Ave. ,Milwaukee,1375.0,Sprecher Brewing Co.,WI,MicroBrewery,-87.9192756756,43.1001028402,54209,2006,2015,550790602002041,55079060200
300 S. Market Ave.,Springfield,1376.0,Springfield Brewing Co.,MO,BrewPub,-93.2953176279,37.207750534,65806,2006,2013,290770001001030,29077000100
442 Wolverine Drive,Bayfield,,Steamworks Brewing Co.,CO,BrewPub,-107.5969552,37.2345111,81122,2005,2005,080679706002105,08067970600
442 Wolverine Dr.,Bayfield,1386.0,Steamworks Brewing Co.,CO,BrewPub,-107.597587109,37.2361113734,81122,2006,2009,080679706002105,08067970600
333 California Drive ,Burlingame,,Steelhead Brewing Company ,CA,BrewPub,-122.3462964,37.5799472,94010,2005,2005,060816055001007,06081605500
333 California Dr. ,Burlingame,1389.0,Steelhead Brewing Company ,CA,BrewPub,-122.346352636,37.5797922846,94010,2006,2015,060816055001007,06081605500
6910 E. Shea Blvd. ,Scottsdale,1403.0,Streets of New York Brewery,AZ,BrewPub,-111.931836492,33.5825208165,85254,2006,2007,040132168302001,04013216830
1470 E. Southern Avenue ,Tempe,,Streets of New York Brewery,AZ,BrewPub,-111.914427,33.3931546,85282,2005,2005,040133195004016,04013319500
1470 E. Southern Ave. ,Tempe,1404.0,Streets of New York Brewery,AZ,BrewPub,-111.914643936,33.3930870683,85282,2006,2007,040133195004016,04013319500
6910 E. Shea Boulevard ,Scottsdale,,Streets of New York Brewery,AZ,BrewPub,-111.9320452,33.5826323,85254,2005,2005,040132168302001,04013216830
227 E. Diamond Avenue ,Gaithersburg,,Summit Station Restaurant & Brewery ,MD,BrewPub,-77.193618,39.141983,20877,2005,2005,240317007231016,24031700723
227 E. Diamond Ave. ,Gaithersburg,1409.0,Summit Station Restaurant & Brewery ,MD,BrewPub,-77.1945527493,39.141872301,20877,2006,2015,240317007231016,24031700723
83 Mansion House Rd.,Manheim,1413.0,Swashbuckler Brewing Co.,PA,MicroBrewery,-76.4314337942,40.2274331434,17545,2006,2013,420710105011058,42071010501
83 Mansion House Road,Manheim,,Swashbuckler Brewing Co.,PA,MicroBrewery,-76.4306093,40.2277986,17545,2005,2005,420710105011058,42071010501
160 Flynn Avenue ,Burlington,,Switchback Brewing Company ,VT,MicroBrewery,-73.220686,44.456184,5401,2005,2005,500070010002008,50007001000
320 S. Clinton Street ,Syracuse,,Syracuse Suds Factory ,NY,BrewPub,-76.1538678,43.0481019,13202,2005,2005,360670032001040,36067003200
1812 N 15th St. ,Tampa,1422.0,Tampa Bay Brewing Company ,FL,BrewPub,-82.4429751502,27.960801278,33605,2006,2007,120570039001060,12057003900
1812 N 15th Street ,Tampa,,Tampa Bay Brewing Company ,FL,BrewPub,-82.4431991,27.9607475,33605,2005,2005,120570039001060,12057003900
100 Washington St.,Haverhill,1423.0,Tap Brew Pub,MA,BrewPub,-71.0858933083,42.7725215309,1832,2006,2015,250092601002040,25009260100
100 Washington Street,Haverhill,,Tap Brew Pub,MA,BrewPub,-71.0852382,42.772665,1832,2005,2005,250092601002040,25009260100
717 E. Butterfield Rd.,Lombard,1425.0,Taylor Brewing Co.,IL,BrewPub,-87.9988574982,41.8396654873,60148,2006,2011,170438444012002,17043844401
717 East Butterfield Road,Lombard,,Taylor Brewing Co.,IL,BrewPub,-87.9985715,41.8392754,60148,2005,2005,170438444012002,17043844401
3101 N. Tenaya Way ,Las Vegas,1429.0,Tenaya Creek Restaurant & Brewery ,NV,BrewPub,-115.252443191,36.2166258959,89128,2006,2015,320030034151007,32003003415
3101 North Tenaya Way ,Las Vegas,,Tenaya Creek Restaurant & Brewery ,NV,BrewPub,-115.2512402,36.215781,89128,2005,2005,320030034151007,32003003415
196 Alps Road,Athens,,Terrapin Beer Co.,GA,MicroBrewery,-83.4097617,33.9452428,30606,2005,2005,130590012001000,13059001200
196 Alps Rd.,Athens,1431.0,Terrapin Beer Co.,GA,MicroBrewery,-83.409047618,33.945540617,30606,2006,2007,130590012001000,13059001200
661 Howard St. ,San Francisco,1435.0,Thirsty Bear Brewing Company ,CA,BrewPub,-122.399515553,37.7856001797,94105,2006,2015,060750615002009,06075061500
661 Howard Street ,San Francisco,,Thirsty Bear Brewing Company ,CA,BrewPub,-122.3995991,37.785486,94105,2005,2005,060750615002009,06075061500
9750 Indiana Parkway ,Munster,,Three Floyds Brewing Company ,IN,MicroBrewery,-87.516687,41.535536,46321,2005,2005,180890403003036,18089040300
9750 Indiana Pky ,Munster,1441.0,Three Floyds Brewing Company ,IN,MicroBrewery,-87.5164630813,41.5363083144,46321,2006,2015,180890403003036,18089040300
207 College Street,Burlington,,Three Needs Brewery & Taproom,VT,BrewPub,-73.2114261,44.4770773,5401,2005,2005,500070010001023,50007001000
207 College St.,Burlington,1442.0,Three Needs Brewery & Taproom,VT,BrewPub,-73.211455802,44.4770475614,5401,2006,2012,500070010001023,50007001000
7401 N. La Cholla Boulevard,Tucson,,Thunder Canyon Brewery Restaurant & Pub,AZ,BrewPub,-111.0149434,32.3408464,85741,2005,2005,040190046262000,04019004626
7401 N. La Cholla Blvd.,Tucson,1445.0,Thunder Canyon Brewery Restaurant & Pub,AZ,BrewPub,-111.01287449,32.3399386766,85741,2006,2015,040190046262000,04019004626
18 East 21st Street,Kearney,,Thunderhead Brewing Co.,NE,BrewPub,-99.0808817,40.6967545,68847,2005,2005,310199695003004,31019969500
18 E. 21st St.,Kearney,1446.0,Thunderhead Brewing Co.,NE,BrewPub,-99.0816031996,40.6967260706,68847,2006,2015,310199695003004,31019969500
65 N. San Pedro Street ,San Jose,,Tied House Cafe & Brewery ,CA,BrewPub,-121.8937489,37.3362473,95113,2005,2005,060855008001013,06085500800
954 Villa Street ,Mountain View,,Tied House Cafe & Brewery ,CA,BrewPub,-122.0806784,37.3947277,94042,2005,2005,060855096001015,06085509600
954 Villa St. ,Mountain View,1447.0,Tied House Cafe & Brewery ,CA,BrewPub,-122.080857394,37.3946816127,94042,2006,2015,060855096001015,06085509600
200 Dousman Street,Green Bay,,Titletown Brewing Co.,WI,BrewPub,-88.0175999,44.519606,54303,2005,2005,550090001001059,55009000100
200 Dousman St.,Green Bay,1452.0,Titletown Brewing Co.,WI,BrewPub,-88.0188693928,44.5191077682,54303,2006,2015,550090001001059,55009000100
100 E. Franklin St.,Chapel Hill,1454.0,Top of the Hill Restaurant & Brewery,NC,BrewPub,-79.055718828,35.9130617014,27514,2006,2015,371350116011001,37135011601
100 East Franklin Street,Chapel Hill,,Top of the Hill Restaurant & Brewery,NC,BrewPub,-79.0557599,35.9131291,27514,2005,2005,371350116011001,37135011601
4268 2nd,Detroit,,Traffic Jam & Snug ,MI,BrewPub,-83.0660446,42.3503515,48201,2005,2005,261635203001003,26163520300
511 West Canfield,Detroit,1457.0,Traffic Jam & Snug ,MI,BrewPub,-83.0658602376,42.3504449275,48201,2006,2015,261635203001003,26163520300
279 Springfield Avenue,Berkeley Heights,,Trap Rock Restaurant & Brewery,NJ,BrewPub,-74.4347612,40.6890147,7922,2005,2005,340390382025005,34039038202
200 N. Main,Las Vegas,,Triple 7 Restaurant & Brewery,NV,BrewPub,-115.145126,36.17488,89125,2005,2005,320030007003032,32003000700
58 Broad Street,Lyndonville,,Trout River Brewing Co.,VT,MicroBrewery,-72.001401,44.520297,5851,2005,2005,500059573002041,50005957300
6404 Redwing Road ,Bethesda,,Tupper's Hop Pocket Brewing Company ,MD,MicroBrewery,-77.127261,38.973455,20817,2005,2005,240317059021004,24031705902
3201 Walnut Street ,Boulder,,Twisted Pine Brewing Company ,CO,MicroBrewery,-105.2510584,40.0207415,80307,2005,2005,080130122034024,08013012203
2400 University Boulevard ,Houston,,Two Rows Restaurant & Brewery ,TX,BrewPub,-95.4157594,29.7155942,77005,2005,2005,482014120002033,48201412000
5500 Greenville Avenue ,Dallas,,Two Rows Restaurant & Brewery ,TX,BrewPub,-96.7685161,32.854427,75206,2005,2005,481130079092007,48113007909
17070 Wright Plaza,Omaha,,Upstream Brewing Company ,NE,BrewPub,-96.1820539,41.2332584,68130,2005,2005,310550074511006,31055007451
157 West Adams Street,Stockton,,Valley Brewing Co.,CA,MicroBrewery,-121.300479,37.972719,95204,2005,2005,060770013004001,06077001300
237 Union Street,Schenectady,,"Van Dyck, The",NY,BrewPub,-73.943131,42.8165771,12305,2005,2005,360930335002005,36093033500
13 West 7th Street,Holland,,Via Maria,MI,BrewPub,-86.1079063,42.7914589,49423,2005,2005,261390249002019,26139024900
3410 Sassafras Street ,Pittsburgh,,Wainwright Brewing ,PA,BrewPub,-79.9653149,40.461568,15201,2005,2005,420030603001033,42003060300
250 Main Street,Park City,,Wasatch Brew Pub,UT,BrewPub,-111.4945634,40.6418105,84060,2005,2005,490439644021030,49043964402
256 Moody Street ,Waltham,,Watch City Brewing Co.,MA,BrewPub,-71.2364457,42.3717819,2453,2005,2005,250173685001002,25017368500
400 East 1st Street ,Los Angeles,,Weiland Brewery Restaurant ,CA,BrewPub,-118.2391348,34.0491857,90012,2005,2005,060372062002001,06037206200
1291 University Avenue,Morgantown,,West Virginia Brewing Co.,WV,BrewPub,-79.9580337,39.6304798,26505,2005,2005,540610101022013,54061010102
2234 Main Street,Ferndale,,Whatcom Brewery,WA,MicroBrewery,-122.60322,48.848801,98248,2005,2005,530730105012015,53073010501
836 N. Russell Street ,Portland,,White Eagle Saloon,OR,BrewPub,-122.6754525,45.540756,97227,2005,2005,410510023031011,41051002303
189 Ewell Road,Williamsburg,,Williamsburg Brewing Co.,VA,MicroBrewery,-76.7331616,37.321071,23188,2005,2005,511990510003028,51199051000
4057 Erie Street ,Willoughby,,Willoughby Brewing Company ,OH,BrewPub,-81.4055793,41.6414824,44094,2005,2005,390852014001008,39085201400
135 Main Street,North Woodstock,,"Woodstock Inn, Station & Brewery",NH,BrewPub,-71.6869033,44.0324136,3262,2005,2005,330099605001016,33009960500
1634 18th Street ,Denver,,Wynkoop Brewing Company ,CO,BrewPub,-104.9984271,39.7533936,80202,2005,2005,080310017013002,08031001701
2123 1st Avenue N.,Billings,,Yellowstone Valley Brewing Co.,MT,MicroBrewery,-108.498138,45.786058,59101,2005,2005,301110002003081,30111000200
3446 Pheasant Meadow Drive,O'Fallon,,Yippie-ie-O Grill,MO,BrewPub,-90.69752,38.74597,63366,2005,2005,291833111242022,29183311124
900-A Wendell Ct.,Atlanta,1387.0,Zuma Brewing Co.,GA,MicroBrewery,-84.5203034261,33.7677221699,30336,2007,2008,131210078051003,13121007805
